{
  "type": "FeatureCollection",
  "features": [
    {
      "type": "Feature",
      "geometry": {
        "type": "LineString",
        "coordinates": [
          [
            43.163984341692185,
            43.295783286888025
          ],
          [
            43.163493890165874,
            43.29605675046591
          ],
          [
            43.163003438639564,
            43.29633021404379
          ],
          [
            43.16251298711325,
            43.296603677621675
          ],
          [
            43.16202253558694,
            43.29687714119956
          ],
          [
            43.16153208406063,
            43.297150604777435
          ],
          [
            43.16104163253432,
            43.29742406835532
          ],
          [
            43.16055118100801,
            43.2976975319332
          ],
          [
            43.1600607294817,
            43.297970995511086
          ],
          [
            43.15957027795539,
            43.29824445908897
          ],
          [
            43.15907982642908,
            43.29851792266685
          ],
          [
            43.15858937490277,
            43.29879138624474
          ],
          [
            43.15809892337645,
            43.29906484982262
          ],
          [
            43.15760847185014,
            43.299338313400504
          ],
          [
            43.15711802032383,
            43.29961177697839
          ],
          [
            43.15662756879752,
            43.299885240556264
          ],
          [
            43.15613711727121,
            43.30015870413415
          ],
          [
            43.1556466657449,
            43.30043216771203
          ],
          [
            43.15548696126464,
            43.30052121495979
          ],
          [
            43.15558233402154,
            43.30096548629643
          ],
          [
            43.155677706778434,
            43.30140975763307
          ],
          [
            43.15577307953533,
            43.30185402896971
          ],
          [
            43.155868452292225,
            43.30229830030635
          ],
          [
            43.15596382504912,
            43.30274257164299
          ],
          [
            43.156059197806016,
            43.30318684297963
          ],
          [
            43.15615457056291,
            43.30363111431627
          ],
          [
            43.1562499433198,
            43.30407538565291
          ],
          [
            43.156345316076695,
            43.30451965698955
          ],
          [
            43.15644068883359,
            43.30496392832619
          ],
          [
            43.15647436225356,
            43.30512078795556
          ],
          [
            43.15647436225356,
            43.30512078795556
          ],
          [
            43.1562947362661,
            43.30555103200861
          ],
          [
            43.15611511027863,
            43.30598127606166
          ],
          [
            43.15593548429116,
            43.306411520114715
          ],
          [
            43.15575585830369,
            43.306841764167764
          ],
          [
            43.15557623231623,
            43.307272008220814
          ],
          [
            43.15539660632876,
            43.30770225227386
          ],
          [
            43.155216980341294,
            43.30813249632692
          ],
          [
            43.15503735435382,
            43.30856274037997
          ],
          [
            43.15485772836636,
            43.30899298443302
          ],
          [
            43.15467810237889,
            43.30942322848607
          ],
          [
            43.154498476391424,
            43.309853472539125
          ],
          [
            43.15431885040395,
            43.310283716592174
          ],
          [
            43.15413922441649,
            43.310713960645224
          ],
          [
            43.15395959842902,
            43.31114420469827
          ],
          [
            43.153779972441555,
            43.31157444875132
          ],
          [
            43.15360034645409,
            43.31200469280438
          ],
          [
            43.15342072046662,
            43.31243493685743
          ],
          [
            43.15324109447916,
            43.31286518091048
          ],
          [
            43.153061468491686,
            43.31329542496353
          ],
          [
            43.15304363789548,
            43.3133381331935
          ],
          [
            43.15267283669727,
            43.313697861339016
          ],
          [
            43.15230203549906,
            43.314057589484534
          ],
          [
            43.15193123430086,
            43.31441731763005
          ],
          [
            43.15156043310265,
            43.31477704577557
          ],
          [
            43.15132827571705,
            43.315002270360054
          ],
          [
            43.15123659819662,
            43.315446955660335
          ],
          [
            43.15114492067619,
            43.31589164096062
          ],
          [
            43.15105324315575,
            43.3163363262609
          ],
          [
            43.15096156563532,
            43.31678101156119
          ],
          [
            43.15089943517245,
            43.317082377734806
          ],
          [
            43.15127625989057,
            43.31743878918189
          ],
          [
            43.1516530846087,
            43.31779520062897
          ],
          [
            43.152029909326814,
            43.31815161207606
          ],
          [
            43.152328903654876,
            43.318434409344945
          ],
          [
            43.15236138792643,
            43.31888344801969
          ],
          [
            43.15239387219798,
            43.319332486694435
          ],
          [
            43.15242635646954,
            43.31978152536918
          ],
          [
            43.1524588407411,
            43.320230564043925
          ],
          [
            43.152471850503474,
            43.32041040142914
          ],
          [
            43.15253335136859,
            43.320857830033056
          ],
          [
            43.152594852233705,
            43.321305258636976
          ],
          [
            43.15265635309882,
            43.32175268724089
          ],
          [
            43.152717853963935,
            43.32220011584481
          ],
          [
            43.15275774419948,
            43.32249032367142
          ],
          [
            43.153134124434125,
            43.322847001593175
          ],
          [
            43.153510504668766,
            43.32320367951494
          ],
          [
            43.153718247635254,
            43.32340054779527
          ],
          [
            43.153553469332486,
            43.3238339352789
          ],
          [
            43.15338869102971,
            43.32426732276252
          ],
          [
            43.15322391272694,
            43.32470071024614
          ],
          [
            43.15305913442417,
            43.325134097729766
          ],
          [
            43.153000801733214,
            43.32528751998089
          ],
          [
            43.152803834222105,
            43.32571374032994
          ],
          [
            43.15260686671099,
            43.32613996067899
          ],
          [
            43.15240989919988,
            43.32656618102804
          ],
          [
            43.15221293168877,
            43.32699240137709
          ],
          [
            43.152015964177664,
            43.32741862172614
          ],
          [
            43.15181899666655,
            43.32784484207519
          ],
          [
            43.15170877690801,
            43.32808334792671
          ],
          [
            43.15129688658508,
            43.32841863978449
          ],
          [
            43.15093614285962,
            43.32871229668089
          ],
          [
            43.1503722221385,
            43.32889647317606
          ],
          [
            43.15003473647033,
            43.329006695987886
          ],
          [
            43.1497632360929,
            43.3294106636629
          ],
          [
            43.149630023396526,
            43.3296088719444
          ],
          [
            43.14986559987293,
            43.33002459990575
          ],
          [
            43.15010117634934,
            43.330440327867095
          ],
          [
            43.150336752825744,
            43.33085605582844
          ],
          [
            43.15034371268274,
            43.33086833806988
          ],
          [
            43.15030189843881,
            43.33131696839595
          ],
          [
            43.150270128486795,
            43.33165783224021
          ],
          [
            43.15048985977535,
            43.332078128322884
          ],
          [
            43.15070959106391,
            43.33249842440556
          ],
          [
            43.15091233553218,
            43.33288622855653
          ],
          [
            43.15127212267899,
            43.33325188971613
          ],
          [
            43.151631909825795,
            43.333617550875736
          ],
          [
            43.15199169697261,
            43.333983212035335
          ],
          [
            43.15225524709325,
            43.334251064968896
          ],
          [
            43.15261171632573,
            43.33461844728639
          ],
          [
            43.1529681855582,
            43.33498582960388
          ],
          [
            43.15332465479068,
            43.33535321192137
          ],
          [
            43.15368112402315,
            43.335720594238865
          ],
          [
            43.15403759325563,
            43.33608797655636
          ],
          [
            43.1543940624881,
            43.33645535887385
          ],
          [
            43.15475053172058,
            43.33682274119134
          ],
          [
            43.154756556020175,
            43.33682894992114
          ],
          [
            43.15525963614782,
            43.33709030959305
          ],
          [
            43.15576271627547,
            43.33735166926497
          ],
          [
            43.15626579640311,
            43.33761302893688
          ],
          [
            43.15643059645785,
            43.337698645692285
          ],
          [
            43.15681268197781,
            43.33805215613113
          ],
          [
            43.15719476749777,
            43.33840566656997
          ],
          [
            43.15757685301773,
            43.338759177008804
          ],
          [
            43.15795893853769,
            43.339112687447646
          ],
          [
            43.15834102405765,
            43.33946619788649
          ],
          [
            43.15872310957761,
            43.33981970832533
          ],
          [
            43.15910519509757,
            43.340173218764164
          ],
          [
            43.15913481562839,
            43.34020062406037
          ],
          [
            43.15962240311065,
            43.34047710462645
          ],
          [
            43.160109990592915,
            43.34075358519254
          ],
          [
            43.16022018250624,
            43.34081606818006
          ],
          [
            43.16032964142906,
            43.34125862553843
          ],
          [
            43.16043910035187,
            43.34170118289679
          ],
          [
            43.16051902346851,
            43.34202432296121
          ],
          [
            43.160960363574716,
            43.34233923827427
          ],
          [
            43.161401703680916,
            43.342654153587326
          ],
          [
            43.16149401405377,
            43.34272002104319
          ],
          [
            43.1617463537245,
            43.34313052962158
          ],
          [
            43.16199869339523,
            43.34354103819997
          ],
          [
            43.162251033065964,
            43.34395154677837
          ],
          [
            43.16250337273669,
            43.34436205535676
          ],
          [
            43.16275571240742,
            43.34477256393515
          ],
          [
            43.16300805207815,
            43.34518307251354
          ],
          [
            43.16309981092775,
            43.345332346683534
          ],
          [
            43.16302311726742,
            43.345778534534034
          ],
          [
            43.1629464236071,
            43.34622472238454
          ],
          [
            43.162934246488845,
            43.346295566339535
          ],
          [
            43.16318097743481,
            43.346707878204086
          ],
          [
            43.16342770838077,
            43.347120190068644
          ],
          [
            43.16367443932674,
            43.347532501933195
          ],
          [
            43.16392117027271,
            43.34794481379775
          ],
          [
            43.163997299705926,
            43.348072033625954
          ],
          [
            43.16406895614719,
            43.34851866450972
          ],
          [
            43.164140612588454,
            43.348965295393484
          ],
          [
            43.16421226902972,
            43.349411926277256
          ],
          [
            43.16428392547098,
            43.34985855716102
          ],
          [
            43.164355581912254,
            43.350305188044786
          ],
          [
            43.16442723835352,
            43.35075181892855
          ],
          [
            43.16449889479478,
            43.35119844981232
          ],
          [
            43.16452772511036,
            43.35137814767478
          ],
          [
            43.16436060160106,
            43.351811075277226
          ],
          [
            43.164193478091754,
            43.35224400287967
          ],
          [
            43.164026354582454,
            43.352676930482126
          ],
          [
            43.163921524647236,
            43.35294848876083
          ],
          [
            43.16406516473847,
            43.35338585084064
          ],
          [
            43.164208804829705,
            43.35382321292044
          ],
          [
            43.16435244492094,
            43.35426057500025
          ],
          [
            43.164496085012175,
            43.35469793708005
          ],
          [
            43.16452772511036,
            43.35479427633345
          ],
          [
            43.16413102813906,
            43.35513923402698
          ],
          [
            43.16373433116776,
            43.355484191720514
          ],
          [
            43.163337634196466,
            43.35582914941404
          ],
          [
            43.162940937225166,
            43.35617410710757
          ],
          [
            43.162841449612586,
            43.3562606190294
          ],
          [
            43.16260941675762,
            43.35667743010205
          ],
          [
            43.16237738390265,
            43.35709424117471
          ],
          [
            43.162197361621395,
            43.357417623310226
          ],
          [
            43.16206865630742,
            43.35785743860012
          ],
          [
            43.16193995099344,
            43.358297253890015
          ],
          [
            43.16181124567946,
            43.35873706917991
          ],
          [
            43.16168254036548,
            43.3591768844698
          ],
          [
            43.16155383505151,
            43.35961669975969
          ],
          [
            43.16143961104214,
            43.36000702914268
          ],
          [
            43.16149560498495,
            43.36045484266302
          ],
          [
            43.16155159892776,
            43.360902656183356
          ],
          [
            43.16155327362884,
            43.360916049663956
          ]
        ]
      },
      "properties": {
        "name": "Track"
      }
    }
  ]
}