{"type": "FeatureCollection", "features": [{"type": "Feature", "geometry": {"type": "LineString", "coordinates": [[41.274791, 43.56569566], [41.27427468, 43.5661544], [41.27340266, 43.56584067], [41.2729247, 43.56508897], [41.27252017, 43.56487111], [41.27190074, 43.56543781], [41.26997272, 43.56638167], [41.26915668, 43.56646715], [41.26859389, 43.56636337], [41.26753364, 43.56575045], [41.26675107, 43.56515982], [41.26562075, 43.56414603], [41.2637001, 43.56313672], [41.26198139, 43.56383908], [41.26112734, 43.56432877], [41.25985797, 43.56351021], [41.25900268, 43.56313457], [41.25841993, 43.56305813], [41.25771561, 43.56311229], [41.2566348, 43.56296409], [41.25665743, 43.56273579], [41.25719515, 43.56217834], [41.25713962, 43.56156599], [41.25680957, 43.56118229], [41.25681451, 43.56092621], [41.25573471, 43.56065006], [41.25545586, 43.56078255], [41.25435243, 43.56183152], [41.25321626, 43.56233143], [41.2528049, 43.56234381], [41.25254016, 43.56268081], [41.2516344, 43.56212063], [41.25093719, 43.56143208], [41.25028879, 43.56136058], [41.24936407, 43.56039542], [41.24928891, 43.55999424], [41.24858124, 43.55952086], [41.24807267, 43.5593406], [41.24778941, 43.55894136], [41.24728639, 43.55899091], [41.24660452, 43.55871396], [41.24579455, 43.55778556], [41.24495683, 43.55726211], [41.24500044, 43.55682347], [41.24476313, 43.5558853], [41.24456901, 43.55552916], [41.24425748, 43.555417], [41.24328504, 43.55534548], [41.24295791, 43.5547368], [41.24258482, 43.55334356], [41.24166065, 43.55310157], [41.24083273, 43.55300783], [41.24008923, 43.55221072], [41.24044785, 43.55138672], [41.23981287, 43.55036318], [41.23888708, 43.55141401], [41.23858642, 43.55156809], [41.2374109, 43.55277308], [41.23725289, 43.55382622], [41.23647866, 43.55454418], [41.23526809, 43.55501705], [41.23461446, 43.55537], [41.23409123, 43.55579246], [41.23303989, 43.55607977], [41.23215609, 43.55674156], [41.23190413, 43.55714145], [41.23081919, 43.55743314], [41.23043036, 43.55743276], [41.23007006, 43.55817108], [41.23017151, 43.55904863], [41.23003946, 43.56005938], [41.22929487, 43.56183213], [41.22903447, 43.56220383], [41.22815787, 43.56294937], [41.22674296, 43.56374623], [41.22565497, 43.56415763], [41.22530555, 43.5646501], [41.22469797, 43.56490297], [41.224302, 43.56557387], [41.22417003, 43.56639163], [41.22433111, 43.56715446], [41.22424171, 43.56756102], [41.22397831, 43.56777641], [41.22339592, 43.56859273], [41.22260483, 43.56933049], [41.22163282, 43.56974181], [41.22067578, 43.56963605], [41.22020133, 43.56974115], [41.21975076, 43.57041799], [41.2197409, 43.57100607], [41.21994514, 43.57150187], [41.21989749, 43.57183432], [41.21886506, 43.57237382], [41.21793557, 43.57276359], [41.21711324, 43.57339302], [41.2161634, 43.57381921], [41.21463536, 43.57466301], [41.21365612, 43.57498886], [41.21292881, 43.57564781], [41.21162379, 43.57626065], [41.21061704, 43.57653288], [41.20943592, 43.57733007], [41.20874964, 43.57838772], [41.20877157, 43.57882629], [41.20784384, 43.5789955], [41.20732775, 43.57934233], [41.20650954, 43.57963323], [41.20637032, 43.57982945], [41.20689438, 43.58003297], [41.20729085, 43.57982549]]}, "properties": {"name": "Track"}}]}