{"type": "FeatureCollection", "features": [{"type": "Feature", "geometry": {"type": "LineString", "coordinates": [[44.720253, 42.83590466], [44.72053757, 42.83577407], [44.71943376, 42.83467398], [44.71867779, 42.83409665], [44.71759886, 42.83472986], [44.71792766, 42.83538794], [44.71732655, 42.83551424], [44.71578638, 42.83513868], [44.71501568, 42.83472865], [44.71433221, 42.83483757], [44.71468628, 42.83628492], [44.71449701, 42.83734883], [44.71420363, 42.83789689], [44.71315908, 42.83830361], [44.71284232, 42.83881097], [44.71271869, 42.83951767], [44.71128281, 42.83916908], [44.71074813, 42.83814051], [44.71048623, 42.83794432], [44.71010624, 42.83681506], [44.70955854, 42.83628429], [44.70902738, 42.83608148], [44.70867296, 42.83543307], [44.70693186, 42.835806], [44.70513072, 42.83578405], [44.70457559, 42.83591755], [44.7036052, 42.83595209], [44.70276927, 42.83531779], [44.7026044, 42.83488231], [44.70162669, 42.83431661], [44.70072694, 42.83437423], [44.70054252, 42.83521686], [44.69971125, 42.83615778], [44.69875195, 42.83643459], [44.69818905, 42.8368556], [44.69755425, 42.8364407], [44.69684154, 42.83683846], [44.69538769, 42.83693302], [44.69435786, 42.83626284], [44.69365144, 42.83606302], [44.69129162, 42.83417784], [44.69080335, 42.83312986], [44.69054346, 42.8330832], [44.68958042, 42.83344919], [44.68818443, 42.83523546], [44.68787153, 42.83535568], [44.68676158, 42.83484704], [44.68574424, 42.83495266], [44.68509582, 42.83543907], [44.68494593, 42.83579494], [44.68425581, 42.83591682], [44.68360782, 42.83508075], [44.68410024, 42.83529999], [44.68372015, 42.83474865], [44.6820821, 42.83530105], [44.68155525, 42.83526812], [44.68055888, 42.83548016], [44.67967416, 42.83593253], [44.67788134, 42.83649664], [44.67704987, 42.83656792], [44.67604038, 42.83805207], [44.67549991, 42.83809943], [44.67427799, 42.83843501], [44.67353058, 42.83833478], [44.67253059, 42.83886111], [44.67136553, 42.83898782], [44.67236259, 42.83862979], [44.67288837, 42.83816709], [44.6735052, 42.83709391], [44.67411768, 42.8367708], [44.67444864, 42.83576684], [44.67487046, 42.8352494], [44.67415105, 42.83565954], [44.67366631, 42.83622796], [44.67128362, 42.83724776], [44.67101381, 42.83761952], [44.67034369, 42.83757124], [44.66985066, 42.83850425], [44.6690609, 42.83888332], [44.66899058, 42.83926422], [44.66821885, 42.83925135], [44.66705352, 42.83959439], [44.66649673, 42.84000585], [44.66613496, 42.84074035], [44.66629788, 42.8410006], [44.66595368, 42.84132815], [44.66503427, 42.8416419], [44.66402422, 42.84182497], [44.66316046, 42.84229472], [44.66242099, 42.84248417], [44.66131863, 42.84225616], [44.66050492, 42.84316629], [44.66149311, 42.84390685], [44.66188118, 42.8444432], [44.66089915, 42.84444931], [44.65984116, 42.84434388], [44.65945543, 42.84455987], [44.65857014, 42.84448174], [44.65758352, 42.8448173], [44.65638756, 42.84534652], [44.65580974, 42.84549236], [44.65443722, 42.84559685], [44.65372978, 42.84608093], [44.6532176, 42.84617145], [44.65233757, 42.84595104], [44.65140956, 42.84545068], [44.65127256, 42.8440995], [44.6516, 42.84352502], [44.65268896, 42.84290498], [44.65127873, 42.84277692], [44.65008421, 42.84302983], [44.64842734, 42.84354262], [44.64624896, 42.84350699], [44.64538687, 42.84355179], [44.64037062, 42.84412346], [44.64012471, 42.84422337], [44.63810102, 42.84446746], [44.63767548, 42.84460669], [44.63770968, 42.84608482], [44.63758171, 42.84620678], [44.63763681, 42.84740538], [44.63685762, 42.85079262]]}, "properties": {"name": "Track"}}]}