{"type": "FeatureCollection", "features": [{"type": "Feature", "geometry": {"type": "LineString", "coordinates": [[40.75470166, 43.813789], [40.75389945, 43.81426561], [40.75374134, 43.81476119], [40.75327668, 43.81517719], [40.75326996, 43.81549413], [40.75407086, 43.81610871], [40.75495726, 43.81732634], [40.75473125, 43.81836124], [40.7535596, 43.81856323], [40.7530121, 43.81851571], [40.75251691, 43.81879229], [40.75253988, 43.81925939], [40.75177312, 43.82017676], [40.75139996, 43.82046156], [40.7508635, 43.82143305], [40.75146219, 43.82273945], [40.75157387, 43.82523929], [40.75143952, 43.82715775], [40.75152772, 43.82745695], [40.75216336, 43.8282476], [40.75242272, 43.82916697], [40.75311614, 43.82999522], [40.75355997, 43.83025363], [40.75367249, 43.8307718], [40.75417763, 43.83110796], [40.75443144, 43.83161509], [40.75443341, 43.8321912], [40.75523771, 43.83279386], [40.75474627, 43.83349659], [40.75447128, 43.83459835], [40.75387551, 43.83515909], [40.75330396, 43.83607705], [40.75350173, 43.83693035], [40.75402236, 43.83780368], [40.75468677, 43.83847103], [40.75576442, 43.8388844], [40.75571087, 43.83997735], [40.75629028, 43.84142047], [40.75594028, 43.84223847], [40.75524287, 43.84287987], [40.75543823, 43.8436656], [40.75588266, 43.84419534], [40.75601787, 43.84498675], [40.75677664, 43.84587883], [40.75754294, 43.84642713], [40.75766315, 43.84720654], [40.75808596, 43.84842569], [40.75883268, 43.84978168], [40.75923076, 43.85033309], [40.75931672, 43.85139894], [40.760033, 43.85312519], [40.75995924, 43.85383093], [40.76009398, 43.8553821], [40.76082706, 43.85642579], [40.76094018, 43.85687719], [40.76162624, 43.85774256], [40.76252897, 43.85847557], [40.76303943, 43.85868765], [40.76390763, 43.8593402], [40.76407011, 43.85971764], [40.76495068, 43.86036752], [40.76533761, 43.86089445], [40.76609582, 43.8615326], [40.76693331, 43.86185717], [40.76777599, 43.86192042], [40.76794257, 43.86257674], [40.76861462, 43.86293672], [40.76887939, 43.86435446], [40.76833743, 43.86493248], [40.76852508, 43.86544169], [40.76819346, 43.86663125], [40.76893406, 43.86693944], [40.76868278, 43.86733439], [40.7691562, 43.8672845], [40.7686542, 43.86818088], [40.76861495, 43.86923453], [40.76878595, 43.86959533], [40.76846041, 43.87024477], [40.76721816, 43.87115335], [40.7667676, 43.87173793], [40.76729214, 43.87207223], [40.76665098, 43.87217607], [40.7665624, 43.87236997], [40.76712286, 43.87311147], [40.76781114, 43.87360844], [40.76814164, 43.87451515], [40.76888949, 43.87513134], [40.76960073, 43.87602754], [40.76962705, 43.87691575], [40.77005807, 43.87744542], [40.77138648, 43.87792468], [40.77220918, 43.87791038], [40.77463291, 43.87830737], [40.77602413, 43.87868754], [40.77668626, 43.87893997], [40.77867227, 43.87945004], [40.78003316, 43.87968263], [40.78074959, 43.87993102], [40.78226572, 43.87993594], [40.78379382, 43.88009872], [40.78440778, 43.87998589], [40.78502395, 43.88020239], [40.78487176, 43.88095348], [40.78464934, 43.88115124], [40.78474222, 43.88166107], [40.78462808, 43.88218091], [40.78496683, 43.88248462], [40.78542094, 43.88251662], [40.78581452, 43.88313083], [40.78636807, 43.88366105], [40.78722517, 43.8842721], [40.78766824, 43.88447142], [40.78790422, 43.88535737], [40.78791259, 43.88644656], [40.78867324, 43.88691385], [40.78895696, 43.88727647], [40.78811419, 43.88805464], [40.7883026, 43.88884541], [40.78860414, 43.88937823], [40.78865002, 43.88994227], [40.78920479, 43.89064146], [40.78959649, 43.89186421], [40.7899275, 43.89237266], [40.79054308, 43.89279289], [40.79090966, 43.89334807], [40.79185998, 43.89413435], [40.79226196, 43.89375498], [40.79254356, 43.89469181], [40.79237477, 43.89504058], [40.79183643, 43.8951916], [40.79033977, 43.89605954], [40.79016447, 43.89679489], [40.79021699, 43.8973176], [40.79069031, 43.89883163], [40.79091, 43.90042252], [40.79069408, 43.90149274], [40.79030188, 43.90232267], [40.79029499, 43.90336289], [40.78974835, 43.9040599], [40.78977631, 43.90473823], [40.78918813, 43.9056411], [40.78956097, 43.90585959], [40.79056536, 43.90580169], [40.79103485, 43.90598546], [40.79055937, 43.9062309], [40.78929751, 43.90732012], [40.7904104, 43.90729988], [40.79120407, 43.90794921], [40.79056005, 43.90818131], [40.79010147, 43.90889357], [40.78951554, 43.90958653], [40.78868424, 43.91004015], [40.78806491, 43.91062342], [40.78672906, 43.91109327], [40.78637228, 43.91153799], [40.7869673, 43.91193107], [40.78755113, 43.91194473], [40.7876871, 43.91300478], [40.78705737, 43.91356578], [40.78566481, 43.91385521], [40.78510275, 43.91431751], [40.78392914, 43.91433507], [40.78249522, 43.91448147], [40.78296154, 43.91470382], [40.78501919, 43.91519778], [40.78579881, 43.91549136], [40.78656991, 43.91556516], [40.78837859, 43.91626741], [40.78915464, 43.91668674], [40.790082, 43.91695244], [40.79051816, 43.91729027], [40.79161262, 43.91871181], [40.79243827, 43.92008814], [40.79237173, 43.92059366], [40.79139047, 43.92135362], [40.79071615, 43.92215195], [40.78967623, 43.92304156], [40.78849035, 43.92383149], [40.7882383, 43.9246672], [40.78764783, 43.92494068], [40.785341, 43.92545161], [40.78487944, 43.92581146], [40.78400572, 43.9262492], [40.78363701, 43.92701216], [40.78363521, 43.92828581], [40.78378762, 43.92940503], [40.78351839, 43.93087053], [40.78355365, 43.93207909], [40.78344225, 43.9329541], [40.78326837, 43.93326696], [40.78251129, 43.93399398], [40.78140627, 43.93472465], [40.7800494, 43.93544591], [40.77960032, 43.93606032], [40.77957806, 43.93644652], [40.77906261, 43.93823762], [40.77845432, 43.93911323], [40.77780886, 43.94057435], [40.77721851, 43.94143237], [40.77741396, 43.9425473], [40.7770855, 43.94309275], [40.77679799, 43.94419265], [40.77612158, 43.94467072], [40.77514186, 43.94443265], [40.77431386, 43.94469695], [40.77379373, 43.94514035], [40.77352631, 43.94590893], [40.77362255, 43.94758847], [40.77384224, 43.94826917], [40.77378031, 43.94863204], [40.773067, 43.94925505], [40.77244423, 43.94904024], [40.77226163, 43.94827655], [40.77160228, 43.94875917], [40.77149936, 43.94905702], [40.7719713, 43.94990631], [40.77232777, 43.95032977], [40.77278425, 43.95154295], [40.77401663, 43.9527562], [40.7738506, 43.95389203], [40.77370177, 43.95419487], [40.77302148, 43.95479286], [40.77242472, 43.95510828], [40.77148867, 43.95526346], [40.77131124, 43.95621337], [40.77070045, 43.95639787], [40.76982341, 43.95693153], [40.76916362, 43.95714761], [40.76833958, 43.95765698], [40.76792948, 43.95822909], [40.76761049, 43.9591007], [40.76769198, 43.95988873], [40.7674906, 43.96066175], [40.76714626, 43.96128716], [40.76656693, 43.96187584], [40.76465811, 43.96347336], [40.7643794, 43.96410509], [40.76347378, 43.96564477], [40.76251783, 43.96681747], [40.76116506, 43.96774693], [40.75969705, 43.96901864], [40.75911106, 43.96985136], [40.75887236, 43.97060206], [40.75877514, 43.97167436], [40.75856694, 43.97140331], [40.75758609, 43.97063427], [40.75674711, 43.97050748], [40.75605649, 43.97014525], [40.7546647, 43.97004618], [40.75373447, 43.96959296], [40.75186406, 43.96905727], [40.75146377, 43.96837806], [40.74993002, 43.96726442], [40.74927932, 43.96697038], [40.74696857, 43.96694013], [40.74584773, 43.96788521], [40.74512031, 43.96873749], [40.74462368, 43.96909286], [40.74389067, 43.96939386], [40.74309644, 43.96915857], [40.74143098, 43.9694561], [40.74050313, 43.97015735], [40.73998599, 43.97032648], [40.73836138, 43.9700726], [40.73711937, 43.97042208], [40.73605071, 43.97032307], [40.73331287, 43.97077224], [40.73144816, 43.97070779], [40.72992079, 43.97037632], [40.72882183, 43.97024294], [40.72789221, 43.97043789], [40.72750238, 43.97039], [40.72665043, 43.97062426], [40.72582594, 43.97143052], [40.72532134, 43.97164815], [40.72500413, 43.97223456], [40.72391954, 43.97295373], [40.72313834, 43.97328131], [40.722734, 43.97366663], [40.72136264, 43.97462959], [40.72031748, 43.97462862], [40.71980736, 43.97451797], [40.72011236, 43.97409263], [40.72015629, 43.97365195], [40.72043781, 43.97353014], [40.72047368, 43.97303767], [40.72086883, 43.97234153], [40.72103581, 43.97178524], [40.7209026, 43.9712613], [40.72098708, 43.97057238], [40.72078034, 43.97018862], [40.72009, 43.97008342], [40.71939838, 43.97039001], [40.71765479, 43.9707686], [40.71703077, 43.97078417], [40.7160766, 43.97050602], [40.71568313, 43.97027955], [40.71541307, 43.96961258], [40.71502347, 43.96901498], [40.71442848, 43.96866069], [40.71331678, 43.96767561], [40.712825, 43.9678128], [40.71225161, 43.96818486], [40.71172546, 43.96815998], [40.71073879, 43.96832866], [40.70842809, 43.96931814]]}, "properties": {"name": "Track"}}]}