{"type": "FeatureCollection", "features": [{"type": "Feature", "geometry": {"type": "LineString", "coordinates": [[44.44428166, 42.840238], [44.44437727, 42.84026839], [44.44437694, 42.84027838], [44.44447118, 42.84035831], [44.44460307, 42.84058651], [44.44463306, 42.84057686], [44.44464972, 42.8405692], [44.44469937, 42.84054255], [44.44487366, 42.8404176], [44.44462675, 42.84061385], [44.44447985, 42.8408764], [44.44444788, 42.84095588], [44.44451843, 42.84112308], [44.44453608, 42.84114907], [44.44454252, 42.84120708], [44.44453419, 42.84119642], [44.4445282, 42.84119242], [44.44452255, 42.84122906], [44.44452821, 42.84123172], [44.44455653, 42.84123239], [44.44459918, 42.84125001], [44.44458424, 42.84125464], [44.44458824, 42.8412583], [44.44438555, 42.84091143], [44.44437455, 42.84090777], [44.44436222, 42.84090644], [44.44434923, 42.8409081], [44.4440888, 42.84110189], [44.44273138, 42.84190194], [44.44090629, 42.84253905], [44.44089029, 42.84253839], [44.44087463, 42.84253606], [44.44063903, 42.84247813], [44.44041511, 42.84254706], [44.44040711, 42.84255272], [44.4389736, 42.84288054], [44.43889929, 42.84294017], [44.42060216, 42.84323427], [44.4174397, 42.84575569], [44.41591705, 42.84806454], [44.41228195, 42.84795162], [44.41213407, 42.8481045], [44.40672868, 42.84803655], [44.40520672, 42.84817059], [44.40363077, 42.84808728], [44.40331874, 42.84813831], [44.40344412, 42.8481261], [44.40342979, 42.84812577], [44.40341513, 42.84812344], [44.40340147, 42.84811945], [44.40339014, 42.84811379], [44.40336283, 42.84808947], [44.40335584, 42.84807981], [44.40335151, 42.84806915], [44.40334951, 42.84803517], [44.40324514, 42.84773988], [44.40325314, 42.84774954], [44.40339305, 42.84811397], [44.4033601, 42.84802165], [44.40337673, 42.847947], [44.40336818, 42.84812681], [44.40339747, 42.84810552], [44.40337917, 42.84806654], [44.40337584, 42.84805455], [44.40337551, 42.84804289], [44.4033789, 42.84807285], [44.40339655, 42.8481015], [44.40340688, 42.84810883], [44.40342021, 42.84811416], [44.40343554, 42.84811782], [44.40429876, 42.84991218], [44.40394836, 42.8510455], [44.40398282, 42.8510409], [44.40399382, 42.85103691], [44.40400419, 42.8510046], [44.40391425, 42.85103915], [44.40393958, 42.85103415], [44.40394324, 42.85103114], [44.40385359, 42.85104612], [44.40376731, 42.85109305], [44.40185259, 42.85304549], [44.4018559, 42.85304054], [44.40187151, 42.85303327], [44.40185336, 42.85302501], [44.40178641, 42.85475733], [44.40178344, 42.85475303], [44.40249281, 42.8551], [44.40271271, 42.85633234], [44.40241437, 42.85640921], [44.40239095, 42.85639568], [44.40130628, 42.85712232], [44.40052699, 42.85768327], [44.40051444, 42.85767534], [44.40049893, 42.85769034], [44.40049187, 42.85770129], [44.40047404, 42.85769238], [44.4004645, 42.85769732], [44.39811556, 42.85975766], [44.39812943, 42.85974841], [44.39806212, 42.85961886], [44.39799182, 42.85960058], [44.39813763, 42.85976729], [44.39858705, 42.86125159], [44.39859002, 42.86124397], [44.39850042, 42.86135471], [44.39923389, 42.86092864], [44.40668193, 42.85290395], [44.41122595, 42.85112296], [44.41123494, 42.85112329], [44.41312343, 42.85011915], [44.41540043, 42.84848806], [44.41546406, 42.8483851], [44.41641282, 42.8469556], [44.4171209, 42.84628212], [44.41745317, 42.84570678], [44.41753244, 42.84557518], [44.41789592, 42.8449356], [44.42094744, 42.8432159], [44.42091575, 42.84321591], [44.42092013, 42.84324781], [44.42093205, 42.84325176], [44.42093244, 42.84323083], [44.41981594, 42.84267647], [44.41376975, 42.84053135], [44.41242212, 42.83947142], [44.41229989, 42.83930718], [44.41229656, 42.83929618], [44.41231823, 42.83842906], [44.41228325, 42.83843505], [44.41219262, 42.83846768], [44.41184175, 42.83843075], [44.41114729, 42.83841782], [44.40948188, 42.83853422], [44.40866656, 42.83909693], [44.40815844, 42.83945373], [44.40743566, 42.83895623], [44.40168101, 42.83880497], [44.39460781, 42.83912357], [44.39459781, 42.8391239], [44.39311102, 42.83945073], [44.39182197, 42.83969212], [44.3916884, 42.83977538], [44.39188114, 42.83968318], [44.3939007, 42.83923484], [44.40219226, 42.83865397], [44.40178933, 42.83785675], [44.40161707, 42.83724717], [44.40159103, 42.83723857], [44.40862766, 42.832919], [44.40890822, 42.83284212], [44.40943766, 42.8326784], [44.40980671, 42.83259758], [44.4098167, 42.83259192], [44.40984004, 42.83256397], [44.40984937, 42.83256797], [44.40986003, 42.83256963], [44.41061883, 42.83183545], [44.41076575, 42.8318604], [44.4110276, 42.83141254], [44.41097529, 42.83126328], [44.40988029, 42.83098933], [44.40855108, 42.83067713], [44.40836813, 42.8306122], [44.40778394, 42.83047347], [44.40665471, 42.83002297], [44.40664305, 42.83002198], [44.40654343, 42.83002796], [44.40648042, 42.8300247]]}, "properties": {"name": "Track"}}]}