{"type": "FeatureCollection", "features": [{"type": "Feature", "geometry": {"type": "LineString", "coordinates": [[48.30900733, 42.05955933], [48.30916408, 42.05809699], [48.30914675, 42.05807767], [48.3090551, 42.05804571], [48.30903777, 42.05804505], [48.30900411, 42.05804871], [48.30887549, 42.05813], [48.30775356, 42.05822679], [48.30774123, 42.05823145], [48.3077319, 42.05824044], [48.30772724, 42.0582521], [48.30772691, 42.05826476], [48.30309988, 42.05792247], [48.30308455, 42.05791914], [48.30307222, 42.0579208], [48.30302823, 42.05794379], [48.30301157, 42.05794612], [48.30225848, 42.05777573], [48.29733154, 42.05661218], [48.2972299, 42.05657455], [48.29650262, 42.05645656], [48.29645264, 42.05641931], [48.29625204, 42.05635802], [48.29613274, 42.0563537], [48.29514972, 42.05609336], [48.29288715, 42.05555874], [48.2928275, 42.0555594], [48.2872693, 42.05419242], [48.28586572, 42.05381687], [48.28543285, 42.05370099], [48.28332293, 42.05320504], [48.28297053, 42.05363784], [48.2829602, 42.0536435], [48.28281724, 42.05362551], [48.28106663, 42.05349828], [48.28089978, 42.05377648], [48.28089912, 42.05378814], [48.28090378, 42.0537978], [48.28085482, 42.05393806], [48.28083916, 42.05394306], [48.28082183, 42.05394639], [48.28007844, 42.05379967], [48.28004911, 42.05379402], [48.27912377, 42.0535877], [48.27911611, 42.0535877], [48.27913811, 42.05371623], [48.27912246, 42.05369427], [48.27887333, 42.05402149], [48.27884967, 42.05403248], [48.27804866, 42.05377023], [48.27802867, 42.05374424], [48.27801102, 42.05370291], [48.27800269, 42.05369191], [48.27799236, 42.05368258], [48.27752949, 42.05353808], [48.27736455, 42.05347347], [48.27734822, 42.05346814], [48.27733189, 42.05346614], [48.27684438, 42.05342722], [48.27550709, 42.05277133], [48.27423685, 42.05126879], [48.27508139, 42.04996536], [48.27519069, 42.04990006], [48.27330616, 42.04843867], [48.27330682, 42.04843201], [48.27300629, 42.04843367], [48.27300695, 42.04843833], [48.27290336, 42.04834536], [48.27287128, 42.04843425], [48.27286129, 42.04843292], [48.27284297, 42.04836095], [48.27288551, 42.04843857], [48.27296259, 42.04839192], [48.27292545, 42.04837603], [48.26285902, 42.04239053], [48.26287135, 42.04240485], [48.26338047, 42.042271], [48.26382428, 42.0421179], [48.26415451, 42.04190322], [48.26239949, 42.04140791], [48.26003383, 42.04077246], [48.25993956, 42.04067318], [48.2599259, 42.04066719], [48.25459194, 42.03892751], [48.25460692, 42.03898382], [48.25461625, 42.03898981], [48.25463529, 42.03884598], [48.25469294, 42.03881166], [48.25471326, 42.03879233], [48.25133294, 42.03663205], [48.25006759, 42.03326677], [48.25110844, 42.03343307], [48.25115542, 42.03345038], [48.25120573, 42.03345737], [48.25123839, 42.03345438], [48.25158499, 42.03286902], [48.2516733, 42.03287901], [48.25174428, 42.03295332], [48.25167531, 42.03288002], [48.25157201, 42.03284106], [48.25152069, 42.03283973], [48.25149936, 42.03284373], [48.25148237, 42.03284972], [48.25146837, 42.03285838], [48.25144671, 42.03287971], [48.25160057, 42.03285113], [48.25163922, 42.03285912], [48.25208537, 42.03317394], [48.25259519, 42.03320818], [48.25301472, 42.03307199], [48.2530787, 42.03302602], [48.25315495, 42.03285008], [48.25318228, 42.03283242], [48.254437, 42.03404284], [48.25445233, 42.03404817], [48.25448432, 42.03405083], [48.25501181, 42.03377666], [48.25524996, 42.03302433], [48.25718394, 42.03086561], [48.25728458, 42.03024096], [48.25748566, 42.02958854], [48.25766191, 42.02950226], [48.25798844, 42.02949063], [48.25841939, 42.02960648], [48.25839307, 42.02964014], [48.25802871, 42.02965674], [48.25824727, 42.02950991], [48.25826226, 42.02950925], [48.25839895, 42.02939921], [48.25872641, 42.02920851], [48.25890001, 42.02915188], [48.25893592, 42.02879404], [48.25936975, 42.02846423], [48.25939138, 42.02838761], [48.25936674, 42.02828032], [48.25937073, 42.02827166], [48.25948435, 42.02825603], [48.25963763, 42.02818609], [48.26016266, 42.02754005], [48.26030318, 42.02722716], [48.26035046, 42.02711487], [48.2603621, 42.02703856], [48.26036976, 42.02702723], [48.26038009, 42.02701657], [48.26039375, 42.02700724], [48.26041008, 42.02699958], [48.26042774, 42.02699359], [48.26084493, 42.02691032], [48.2607882, 42.0268741], [48.26078853, 42.02686444], [48.26079419, 42.02685578], [48.2610857, 42.02651559], [48.26112701, 42.02650094], [48.26130349, 42.02641096], [48.26227183, 42.02585201], [48.26089564, 42.02363283], [48.26090664, 42.02362183], [48.26091464, 42.02361017], [48.2609127, 42.02331145], [48.24987262, 42.02459352], [48.23840956, 42.02533364], [48.23839456, 42.02532931], [48.23804843, 42.02514716], [48.23764688, 42.02501997], [48.23568363, 42.02511514], [48.2343055, 42.02500955], [48.23313187, 42.02505851], [48.23177403, 42.02458915], [48.23019062, 42.02486546], [48.22814832, 42.02540733], [48.22643126, 42.02562987], [48.22559888, 42.02553062], [48.21842794, 42.02368637], [48.21678766, 42.02254347], [48.21642113, 42.02235065], [48.21562951, 42.02176435], [48.21481094, 42.02097382], [48.20692706, 42.01656898], [48.20387811, 42.01495555], [48.20340701, 42.01479543], [48.20230184, 42.01442478], [48.20200861, 42.01442581], [48.20129985, 42.01443681], [48.20087797, 42.01449735], [48.1895548, 42.01757181], [48.18956982, 42.01759006], [48.18954336, 42.01758448], [48.18934639, 42.01766613], [48.18932839, 42.01765114], [48.18846876, 42.01744488], [48.18445425, 42.01972738], [48.18325821, 42.0198511], [48.18179196, 42.02062337], [48.18086198, 42.02067075], [48.18064106, 42.0207043], [48.18037516, 42.02078583], [48.17736977, 42.02128639], [48.1720329, 42.02417846], [48.17202157, 42.02419212], [48.17134053, 42.02467613], [48.16694166, 42.02862543], [48.16575133, 42.03005939], [48.16552046, 42.03026128], [48.16513977, 42.0309186], [48.1651354, 42.03112013], [48.16506042, 42.03115644], [48.16492052, 42.03137535], [48.16454507, 42.03176446], [48.16290731, 42.03341993], [48.1624743, 42.03407615], [48.15958206, 42.03782227], [48.15954442, 42.0378899], [48.15890311, 42.03864488], [48.15869793, 42.03894473], [48.15860805, 42.03894642], [48.15863237, 42.03895408], [48.15864703, 42.03895608], [48.15866136, 42.03895175], [48.15865304, 42.03899707], [48.15743951, 42.04090607], [48.15743818, 42.04091806], [48.15724143, 42.04158992], [48.15764824, 42.04140942], [48.15805002, 42.04131723], [48.15873812, 42.04110913], [48.15876611, 42.04109714], [48.15881513, 42.04101752], [48.15672331, 42.04416473], [48.15693565, 42.04415087], [48.15690825, 42.04430795], [48.15696826, 42.04417426], [48.15669559, 42.0442509], [48.15438359, 42.04721365], [48.15420164, 42.04737524], [48.15419464, 42.04738657], [48.15419431, 42.04752086], [48.15419231, 42.04753386], [48.15418665, 42.04754619], [48.15298992, 42.04922336], [48.15071478, 42.05204612], [48.1477184, 42.05209841], [48.14770107, 42.05209808], [48.14586498, 42.0517958], [48.14580399, 42.05182545], [48.14578833, 42.05182778], [48.14575567, 42.05182645], [48.14541118, 42.05146829], [48.14436088, 42.05037268], [48.14309835, 42.04987518], [48.14304875, 42.04974824], [48.14200042, 42.04857855], [48.14120245, 42.04830822], [48.1411928, 42.04823526], [48.14130442, 42.0480973], [48.14131707, 42.04806997], [48.1413224, 42.04804065], [48.14132174, 42.04802599], [48.14127345, 42.04792702], [48.14028548, 42.04774226], [48.13893591, 42.0479876], [48.13842172, 42.0480958], [48.13722148, 42.04821159], [48.13720615, 42.04820759], [48.13670807, 42.0482835], [48.13619452, 42.0486871], [48.13557383, 42.04930545], [48.13543957, 42.04945571], [48.13508035, 42.04954492], [48.13348529, 42.04946348], [48.13346297, 42.04945082], [48.13343198, 42.04944384], [48.13341665, 42.04944351], [48.13338632, 42.04945349], [48.13324203, 42.04953378], [48.13322937, 42.04954377], [48.13321904, 42.04955543], [48.13305945, 42.05003353], [48.12869716, 42.05308319], [48.12803904, 42.05334365], [48.12686941, 42.05150482], [48.12614129, 42.05019839], [48.12621706, 42.04890056], [48.12576728, 42.04866532], [48.12571948, 42.0486171], [48.12569062, 42.04865027], [48.12365593, 42.04953451], [48.12318812, 42.04982963], [48.12317712, 42.04983763], [48.12316779, 42.04984763], [48.12314514, 42.04990261], [48.12254464, 42.05112538], [48.12226672, 42.051182], [48.12225206, 42.05117834], [48.12223906, 42.05117168], [48.1222284, 42.05116269], [48.12222141, 42.05115236], [48.12282127, 42.04898275], [48.12299473, 42.04852895], [48.12309477, 42.04810176], [48.12308944, 42.04808743], [48.12306479, 42.04805111], [48.1230548, 42.04802546], [48.12316233, 42.04668957], [48.12242412, 42.04569063], [48.12254724, 42.04502684], [48.12255323, 42.0449139], [48.1232026, 42.04433654], [48.12387694, 42.04290713], [48.12402144, 42.04257591], [48.12413296, 42.04232139], [48.12449941, 42.04153649], [48.12456937, 42.04147652], [48.12527584, 42.0395537], [48.12529617, 42.03953971], [48.12536274, 42.03935682], [48.12562887, 42.03882172], [48.12669734, 42.03692729], [48.12744192, 42.03520272], [48.12748526, 42.03453231], [48.12746362, 42.034469], [48.12182233, 42.03164606], [48.12159441, 42.03172032], [48.11883169, 42.03116838], [48.11786872, 42.03066913], [48.11778176, 42.03060485], [48.11757151, 42.03042794], [48.11735193, 42.03022974], [48.11725544, 42.0293974], [48.11751632, 42.0290809], [48.11751233, 42.02906891], [48.1172188, 42.02885105], [48.1120229, 42.02512346], [48.11206585, 42.02487426]]}, "properties": {"name": "Track"}}]}