{"type": "FeatureCollection", "features": [{"type": "Feature", "geometry": {"type": "LineString", "coordinates": [[40.18209499, 44.29158466], [40.18219586, 44.29145868], [40.18221181, 44.29127507], [40.18219016, 44.29122542], [40.18159568, 44.29097865], [40.17951989, 44.29085852], [40.17945158, 44.29084288], [40.17919332, 44.2908625], [40.17916333, 44.29085218], [40.17914633, 44.29084885], [40.17478676, 44.28770372], [40.17422861, 44.28773995], [40.17419695, 44.28773961], [40.17372048, 44.28742116], [40.17369282, 44.28741017], [40.17348756, 44.28739621], [40.17226718, 44.28524304], [40.17097203, 44.28472593], [40.16891458, 44.28301909], [40.1688173, 44.28298516], [40.16880464, 44.28298582], [40.1625096, 44.2844437], [40.15708789, 44.28417332], [40.15707456, 44.28417898], [40.15673066, 44.28422887], [40.1562325, 44.28416865], [40.15544683, 44.28418762], [40.15535818, 44.28417931], [40.15012373, 44.28413564], [40.1500011, 44.28408701], [40.14901674, 44.28388399], [40.14897076, 44.28387367], [40.14895543, 44.28387467], [40.1488568, 44.28393829], [40.14884447, 44.28394562], [40.14765756, 44.28395224], [40.14590323, 44.28381399], [40.14557737, 44.28382234], [40.1455803, 44.283824], [40.14477792, 44.28380767], [40.14333574, 44.28362651], [40.14249243, 44.28330646], [40.13695001, 44.28129835], [40.13493444, 44.28030388], [40.13465705, 44.28002638], [40.13463206, 44.28001006], [40.13179169, 44.27959299], [40.13047853, 44.27915677], [40.12948391, 44.27906022], [40.12844724, 44.27849371], [40.12822702, 44.27843508], [40.12820337, 44.27842776], [40.12675729, 44.277908], [40.12669531, 44.27790833], [40.12665032, 44.27789002], [40.12646573, 44.27753355], [40.12588738, 44.27705822], [40.12554184, 44.27683007], [40.12525494, 44.2767345], [40.125128, 44.27663789], [40.12221599, 44.2762296], [40.12216885, 44.27623409], [40.12213559, 44.27628802], [40.12217189, 44.27631764], [40.12222882, 44.27623041], [40.12123542, 44.27611035], [40.11845486, 44.27578394], [40.11738597, 44.27570842], [40.11731999, 44.27573173], [40.11228393, 44.27510837], [40.11153553, 44.27407013], [40.11073332, 44.27214365], [40.11078401, 44.27088628], [40.11081963, 44.27066837], [40.1108769, 44.27054209], [40.1109384, 44.27018127], [40.11093208, 44.27011096], [40.11024393, 44.26852288], [40.11023463, 44.26840026], [40.10988854, 44.26786316], [40.1093379, 44.26650207], [40.1092823, 44.26599296], [40.10916514, 44.26554809], [40.10852454, 44.26483047], [40.10817021, 44.26410785], [40.10732756, 44.26206428], [40.10725398, 44.26195634], [40.10698117, 44.26165651], [40.1068779, 44.2615276], [40.10616907, 44.26056205], [40.10612342, 44.26054473], [40.10602478, 44.26048177], [40.10558537, 44.25998166], [40.1055857, 44.25992902], [40.10538293, 44.25948661], [40.10448025, 44.25719944], [40.10365068, 44.25661288], [40.10280131, 44.25560215], [40.10248875, 44.25497466], [40.10316684, 44.25393485], [40.10385772, 44.25170724], [40.10452846, 44.25117586], [40.10440622, 44.25078971], [40.10429363, 44.25062043], [40.1042117, 44.25049181], [40.10305063, 44.24945241], [40.10301232, 44.24943276], [40.10018974, 44.24518285], [40.1001475, 44.24520399], [40.10017527, 44.24519738], [40.10019344, 44.24520299], [40.10020005, 44.24519671], [40.10019013, 44.24517591], [40.10017394, 44.24518053], [40.08842493, 44.2408471], [40.08836799, 44.24095769], [40.08833833, 44.24096635], [40.08584611, 44.23950429], [40.08576615, 44.23941434], [40.08551027, 44.23926412], [40.08267087, 44.23669017], [40.077521, 44.22971783], [40.07752366, 44.22970784], [40.078109, 44.22853367], [40.0764532, 44.22766541], [40.07614849, 44.22776169], [40.07606552, 44.22774738], [40.07604886, 44.22775104], [40.07110242, 44.22764552], [40.07028433, 44.22767938], [40.06914027, 44.2277175], [40.06909861, 44.22774215], [40.06908428, 44.22774815], [40.06876304, 44.22776972], [40.06886733, 44.22774875], [40.06889599, 44.22773476], [40.06896396, 44.22766212], [40.06900862, 44.22769403], [40.06898498, 44.22774632], [40.06897199, 44.22775365], [40.068936, 44.22776463], [40.06846978, 44.2277856], [40.06831116, 44.22779057], [40.06780697, 44.22776767], [40.06754905, 44.22773807], [40.06753206, 44.22773774], [40.06737443, 44.22772776], [40.06310948, 44.22805564], [40.06300052, 44.22808961], [40.06289757, 44.22813323], [40.06288191, 44.22814156], [40.06286358, 44.22814822], [40.06269461, 44.22817751], [40.06265729, 44.22818084], [40.06116577, 44.22868064], [40.05754425, 44.22917569], [40.0574826, 44.22917337], [40.05720433, 44.2292073], [40.05715235, 44.22922528], [40.05599943, 44.22945353], [40.05553891, 44.22954339], [40.05487412, 44.22964653], [40.05195574, 44.23004445], [40.05081075, 44.23015148], [40.05079476, 44.23015648], [40.05075177, 44.2301758], [40.04871136, 44.23067324], [40.04864938, 44.23070755], [40.04861506, 44.2307242], [40.04850942, 44.23075116], [40.04790625, 44.23082299], [40.04548728, 44.23075924], [40.04401204, 44.23072926], [40.04259781, 44.23081234], [40.04110657, 44.23106129], [40.0339584, 44.23218207], [40.03344357, 44.23223234], [40.03337725, 44.2322453], [40.03169383, 44.2324266], [40.03075644, 44.23248744], [40.03074244, 44.23249077], [40.03065447, 44.23252374], [40.02958712, 44.23278144], [40.02695133, 44.23248849], [40.02474146, 44.23210679], [40.02466848, 44.23210745], [40.02447756, 44.23209583], [40.02295606, 44.23194853], [40.01723296, 44.23088888], [40.01287873, 44.22898316], [40.01283475, 44.22893586], [40.00798402, 44.22596899], [40.00796058, 44.22597329], [40.00793744, 44.22598979], [40.00795773, 44.22597876], [40.00484347, 44.223156], [40.004858, 44.22314841], [40.0043233, 44.22274128], [40.00197616, 44.22198987], [40.00715928, 44.22136311], [40.00741086, 44.22144634], [40.00760446, 44.22141603], [40.00761345, 44.2214047], [40.00772708, 44.22133841], [40.00739823, 44.220865], [40.00715347, 44.22037664], [40.00526226, 44.21949842], [40.0016537, 44.21926241], [39.99483399, 44.21802462], [39.99370606, 44.21801503], [39.99302431, 44.21772565], [39.99218345, 44.21674482], [39.99169797, 44.21644764], [39.99147937, 44.21643868], [39.99132008, 44.21647229], [39.99130608, 44.21647928], [39.99083563, 44.2167841], [39.9901412, 44.21685976], [39.98933318, 44.21679378], [39.98590542, 44.21616877], [39.98517365, 44.21594568], [39.98454551, 44.21592009], [39.98140154, 44.21563392], [39.98138655, 44.21562993], [39.98124293, 44.21562695], [39.98120794, 44.21562295], [39.9798874, 44.21551883], [39.9797741, 44.21552615], [39.97873044, 44.21583015], [39.97846487, 44.21594406], [39.97730662, 44.21622584], [39.97722997, 44.21620553], [39.97712968, 44.21620585], [39.97645089, 44.21602706], [39.97638724, 44.21601141], [39.97625561, 44.21600145], [39.97618697, 44.21598446], [39.97615631, 44.21597247], [39.97607633, 44.21595817], [39.9758364, 44.21596844], [39.97497501, 44.21575234], [39.97378443, 44.21530208], [39.9723055, 44.21511016], [39.97093558, 44.21471788], [39.97090159, 44.21470656], [39.97065798, 44.21474688], [39.97058933, 44.21475985], [39.96963364, 44.21433183], [39.96657653, 44.21094429], [39.96656287, 44.21093729], [39.9658864, 44.21080331], [39.96609668, 44.21086074], [39.96642219, 44.21084806], [39.96643417, 44.21082607], [39.96644116, 44.21079042], [39.96688272, 44.21019075], [39.96689471, 44.21018875], [39.96690503, 44.21017376], [39.96690237, 44.21015477], [39.9657473, 44.20846696], [39.9657363, 44.2084563], [39.96606708, 44.20735394], [39.96616791, 44.20726317], [39.96617424, 44.20722752], [39.96496436, 44.20574728], [39.9632365, 44.20560708], [39.96278832, 44.20549088], [39.96228284, 44.20556678], [39.96226685, 44.20555979], [39.96220687, 44.20548782], [39.96218561, 44.20510564], [39.96205743, 44.20480477], [39.96205809, 44.20471014], [39.96161137, 44.20268709], [39.96160838, 44.20267909], [39.96161071, 44.20267043], [39.96161704, 44.2026631], [39.96162704, 44.2026581], [39.96171569, 44.20265677], [39.96172902, 44.20265177], [39.96173435, 44.20264244], [39.96173136, 44.20263244], [39.96114312, 44.20143977], [39.96114478, 44.20143177], [39.96140183, 44.20130156]]}, "properties": {"name": "Track"}}]}