{"type": "FeatureCollection", "features": [{"type": "Feature", "geometry": {"type": "LineString", "coordinates": [[43.60911333, 43.08612266], [43.60791669, 43.0859376], [43.60723442, 43.0861475], [43.60673776, 43.08567812], [43.6057862, 43.08588109], [43.60527252, 43.08562298], [43.60502907, 43.08594672], [43.60439408, 43.08582463], [43.60457893, 43.08610578], [43.60549717, 43.08660733], [43.60616814, 43.08718867], [43.60577812, 43.08777207], [43.60532794, 43.08792923], [43.60508691, 43.08855894], [43.60510938, 43.08917493], [43.6038789, 43.08882946], [43.60336828, 43.08816259], [43.60347282, 43.08793174], [43.60303214, 43.0869216], [43.60164914, 43.08659522], [43.60169211, 43.08628609], [43.60108672, 43.08625416], [43.60035177, 43.0857599], [43.59905512, 43.08564468], [43.59883293, 43.08533654], [43.59824285, 43.08512051], [43.59809836, 43.08486101], [43.59719782, 43.08439219], [43.59579834, 43.08440923], [43.5961254, 43.08496794], [43.59687644, 43.08535792], [43.59687743, 43.08614719], [43.59770501, 43.08722706], [43.59704822, 43.08742849], [43.59716263, 43.08806652], [43.59611042, 43.0874113], [43.59622276, 43.08690995], [43.59510167, 43.08636619], [43.59451969, 43.08661059], [43.59445274, 43.08701598], [43.59404231, 43.08719282], [43.593393, 43.08681387], [43.59348218, 43.0876585], [43.59318033, 43.08767086], [43.59253202, 43.08681629], [43.59111158, 43.08635978], [43.59058748, 43.086011], [43.59007365, 43.08591588], [43.58947998, 43.08547656], [43.589139, 43.08479152], [43.58814015, 43.08433764], [43.58791407, 43.08394758], [43.58654629, 43.08302648], [43.58592394, 43.08283511], [43.58444338, 43.08194196], [43.58381818, 43.08102444], [43.58297888, 43.08111503], [43.58310154, 43.08176634], [43.58242077, 43.0818197], [43.58134547, 43.08167939], [43.58055946, 43.08136443], [43.57982181, 43.08139047], [43.57934504, 43.08103002], [43.57906349, 43.08116225], [43.57918516, 43.08159767], [43.57766911, 43.08170587], [43.57632427, 43.08251165], [43.57590197, 43.08253986], [43.57503331, 43.08292349], [43.57459349, 43.08325795], [43.5737451, 43.08340847], [43.57395589, 43.08271908], [43.57279425, 43.08318108], [43.57213453, 43.08375848], [43.57079265, 43.08451772], [43.57068906, 43.08513546], [43.57103405, 43.08584742], [43.57029404, 43.08732215], [43.57005772, 43.08857972], [43.56973378, 43.08949068], [43.56926718, 43.09037792], [43.5685581, 43.09003356], [43.56816207, 43.09156354], [43.56768196, 43.09196269], [43.56723585, 43.09171648], [43.56657438, 43.09250841], [43.56620628, 43.09217363], [43.56608972, 43.09260749], [43.56634141, 43.09319024], [43.56585462, 43.09350675], [43.56531343, 43.09340957], [43.56527473, 43.09393035], [43.56457433, 43.09365156], [43.5645217, 43.09399003], [43.56506086, 43.09447414], [43.56449217, 43.09504025], [43.5643889, 43.09541049], [43.56396273, 43.0953618], [43.56399733, 43.09488296], [43.56362378, 43.09470676], [43.56264879, 43.09507907], [43.5621803, 43.09473825], [43.56147985, 43.09456712], [43.56107563, 43.09469], [43.56055835, 43.09575183], [43.55922168, 43.09573152], [43.55930095, 43.09602206], [43.5603153, 43.09655106], [43.56018036, 43.0968266], [43.55897671, 43.09668313], [43.55786308, 43.09598524], [43.55765286, 43.09629147], [43.55804642, 43.09752075], [43.55770921, 43.09771028], [43.55696114, 43.09721287], [43.55610306, 43.09705942], [43.55594426, 43.09769694], [43.5566012, 43.09813769], [43.5567784, 43.09854983], [43.55561257, 43.09825208], [43.5556315, 43.09859991], [43.55613692, 43.09923487], [43.55518852, 43.09904775], [43.5548523, 43.09912402], [43.55442606, 43.10042692], [43.55452198, 43.10107236], [43.55438191, 43.10193072], [43.55457081, 43.10231254], [43.55550939, 43.10317149], [43.55537409, 43.10329011], [43.5541261, 43.10296844], [43.55371924, 43.10312368], [43.55433745, 43.1037368], [43.55397421, 43.10426851], [43.55440062, 43.10494027], [43.55523658, 43.10576193], [43.55644754, 43.10642853], [43.55724986, 43.10745713], [43.55777705, 43.10769767], [43.55822743, 43.10854802], [43.55870262, 43.10892018], [43.55937405, 43.10893849], [43.55955493, 43.10935663], [43.55892969, 43.11008395], [43.55803464, 43.10968421], [43.55741898, 43.10894947], [43.5548342, 43.10778132], [43.55286022, 43.10646513], [43.55040912, 43.10537478], [43.54967102, 43.10514477], [43.5480591, 43.1041174], [43.54642983, 43.10294946], [43.54583803, 43.10244602], [43.54518966, 43.10211059], [43.54334829, 43.10145262], [43.54271603, 43.10068104], [43.54100006, 43.09986439], [43.54028261, 43.09960893], [43.53932494, 43.09908756], [43.53841324, 43.09908822], [43.53889077, 43.09936032], [43.53881814, 43.09969846], [43.5381657, 43.09958096], [43.53779585, 43.09973278], [43.53728007, 43.10090626], [43.53694658, 43.10119039], [43.53621554, 43.10124954], [43.53515856, 43.10103727], [43.53402867, 43.10052408], [43.53207101, 43.10002311], [43.53114836, 43.10013059], [43.52974584, 43.10003723], [43.52890055, 43.09974595], [43.52756095, 43.10004254], [43.52694649, 43.10031097], [43.52556153, 43.10048997], [43.52450879, 43.10036257], [43.5240906, 43.10059173], [43.52359697, 43.10137538], [43.52279821, 43.10101125], [43.5221112, 43.10020594], [43.52175032, 43.10007739], [43.51899791, 43.09989472], [43.51839378, 43.0996766], [43.51743579, 43.09978772], [43.5166873, 43.10086342], [43.51683225, 43.10145789], [43.51822615, 43.10202447], [43.5193039, 43.10341425], [43.51920225, 43.10410466], [43.52036211, 43.10521581], [43.52044477, 43.10565469], [43.51952838, 43.10573061], [43.5192625, 43.10593081], [43.52058735, 43.1066333], [43.52131633, 43.10732063], [43.52137496, 43.10791009], [43.5207715, 43.10795806], [43.51931363, 43.10776241], [43.51838523, 43.10789152], [43.51722525, 43.10782593], [43.51645116, 43.10836531], [43.51630346, 43.1093805], [43.5157597, 43.10991531], [43.51577234, 43.11070009], [43.5165874, 43.11144676], [43.51646514, 43.11172897], [43.51380188, 43.11172495], [43.5129461, 43.11165351], [43.51164422, 43.11118424], [43.51148648, 43.11078017], [43.51182095, 43.11038743], [43.51115252, 43.11070161], [43.51093805, 43.1113194], [43.51153501, 43.11246769], [43.51136176, 43.11262196], [43.5092101, 43.11146], [43.5093187, 43.11186682], [43.5072139, 43.11190116], [43.50635846, 43.11205559], [43.50561972, 43.11260798], [43.50406622, 43.11349309], [43.50330711, 43.11363855], [43.50141227, 43.11378319], [43.49866381, 43.1137922], [43.49843288, 43.11447932], [43.49794713, 43.11485812], [43.49731308, 43.1143234], [43.49677426, 43.11446757], [43.49630591, 43.11519267], [43.49530685, 43.11572766], [43.49440576, 43.11600077], [43.49316879, 43.11616612], [43.49186489, 43.11688741], [43.49067951, 43.11700126], [43.49026533, 43.11734377], [43.48938125, 43.11730315], [43.48850153, 43.11774718], [43.48797119, 43.11827053], [43.48710512, 43.11850695], [43.48630667, 43.11831587], [43.48619836, 43.11802698], [43.48654945, 43.11726586], [43.48693695, 43.11688669], [43.48614517, 43.11686428], [43.48462794, 43.11665314], [43.48233731, 43.11755455], [43.48051653, 43.11804442], [43.47829817, 43.11846885], [43.47775063, 43.11871764], [43.47702218, 43.11859209], [43.47609048, 43.11870353], [43.47550997, 43.11891667], [43.47411538, 43.11904336], [43.47286012, 43.11935763], [43.47203603, 43.11977606], [43.47081577, 43.12007908], [43.46955383, 43.12062899], [43.46896052, 43.12147794], [43.46906648, 43.12173516], [43.46974881, 43.12120929], [43.47093212, 43.12117639], [43.47237339, 43.1209561], [43.47429188, 43.12117117], [43.47416226, 43.12138176], [43.47321653, 43.12148129], [43.47222151, 43.12185401], [43.47122916, 43.12235737], [43.46961228, 43.12267628], [43.46900976, 43.12304014], [43.46817898, 43.12312435], [43.46755182, 43.12282021], [43.46564775, 43.12292603], [43.46492701, 43.12264036], [43.46427035, 43.12195335], [43.4627795, 43.12216418], [43.46197742, 43.12217279], [43.45879689, 43.12175478], [43.45770923, 43.12124213], [43.45678658, 43.12120085], [43.45510067, 43.12301142], [43.45404986, 43.12423425], [43.45354645, 43.1240585], [43.44874729, 43.12160917], [43.44793549, 43.12125612], [43.4450698, 43.11939525], [43.44438705, 43.11888382], [43.44286407, 43.1179366], [43.44186995, 43.11706914], [43.44029622, 43.11469507], [43.43992868, 43.11447227], [43.43989185, 43.11408535], [43.43854665, 43.11211857], [43.4417482, 43.11100105], [43.44175284, 43.11104143]]}, "properties": {"name": "Track"}}]}