{"type": "FeatureCollection", "features": [{"type": "Feature", "geometry": {"type": "LineString", "coordinates": [[46.968537, 42.376771], [46.96843563, 42.37690924], [46.96851865, 42.37682893], [46.96860261, 42.37679761], [46.96861027, 42.37678995], [46.96888946, 42.37686883], [46.96892777, 42.37698877], [46.96892644, 42.37700176], [46.97138426, 42.3830677], [46.9726662, 42.38279203], [46.97268353, 42.38279569], [46.97269886, 42.38280102], [46.97271352, 42.38280902], [46.97281378, 42.38294995], [46.97272182, 42.38311954], [46.97267088, 42.38321304], [46.97171419, 42.38440816], [46.97230294, 42.38496325], [46.97230294, 42.38497725], [46.97228463, 42.38503257], [46.97175883, 42.38526843], [46.97174283, 42.38527609], [46.97160454, 42.38537404], [46.97218902, 42.38679318], [46.97288584, 42.38693739], [46.97289984, 42.38694672], [46.97291117, 42.38695671], [46.97292083, 42.38696804], [46.97292849, 42.38698037], [46.97293382, 42.38699303], [46.97293814, 42.38702102], [46.97292617, 42.38707767], [46.97292451, 42.38709133], [46.9729295, 42.38713299], [46.97292784, 42.38714532], [46.97292218, 42.38715465], [46.97291285, 42.38716031], [46.97289819, 42.38722629], [46.97289186, 42.38723628], [46.97282889, 42.38728325], [46.97274592, 42.38729923], [46.97272759, 42.38729757], [46.9726906, 42.38728991], [46.97263129, 42.38728193], [46.97082801, 42.38587931], [46.97078636, 42.38584632], [46.97072139, 42.38579402], [46.9704775, 42.3854888], [46.97043085, 42.38546549], [46.96989469, 42.38538067], [46.96976806, 42.38537135], [46.96971207, 42.3853677], [46.9696161, 42.38532272], [46.96960344, 42.38531139], [46.96957412, 42.38527274], [46.9673131, 42.38321513], [46.96739475, 42.38344201], [46.96870421, 42.38524863], [46.96869355, 42.38525229], [46.96866789, 42.38525262], [46.96264499, 42.38155274], [46.96263034, 42.38157572], [46.96263933, 42.38160404], [46.96263667, 42.38161504], [46.96262934, 42.38162504], [46.96262567, 42.38156935], [46.96164665, 42.38208234], [46.95975425, 42.38267452], [46.96007053, 42.38140373], [46.95788513, 42.37982798], [46.95643635, 42.3778297], [46.95616413, 42.377169], [46.95438866, 42.37652417], [46.95431236, 42.37639054], [46.95296509, 42.37565827], [46.94944947, 42.37518025], [46.95095563, 42.37126464], [46.95095497, 42.37125364], [46.95055232, 42.3707298], [46.94786556, 42.36867319], [46.94722636, 42.36854897], [46.94724335, 42.36856496], [46.94724968, 42.36858395], [46.94724702, 42.36859028], [46.94719637, 42.36858729], [46.94719304, 42.3685813], [46.94723534, 42.3685543], [46.94724567, 42.36856296], [46.94725266, 42.36857262], [46.94725565, 42.36858195], [46.94725332, 42.36858894], [46.94723533, 42.36859659], [46.94468309, 42.36911793], [46.94542684, 42.36665938], [46.94186475, 42.36742119], [46.94185342, 42.36742185], [46.93617412, 42.36687504], [46.93188056, 42.36674964], [46.92698261, 42.36748401], [46.92333329, 42.36709602], [46.92253189, 42.36735444], [46.92243059, 42.36733414], [46.92229497, 42.36722953], [46.92226202, 42.36714358], [46.92847938, 42.36202693], [46.92030876, 42.36128403], [46.91892861, 42.36204784], [46.91792589, 42.36246953], [46.91744378, 42.36212767], [46.91786895, 42.36164309], [46.91843204, 42.36116241], [46.91840339, 42.36073159], [46.91845001, 42.36063463], [46.91845101, 42.36062264], [46.91844702, 42.36059931], [46.91843637, 42.36057799], [46.91761012, 42.3598605], [46.91736044, 42.36030059], [46.91740037, 42.36080308], [46.91724476, 42.36091604], [46.91707447, 42.36092704], [46.91686356, 42.36077312], [46.91637407, 42.36063622], [46.914884, 42.36111505], [46.9144038, 42.3610965], [46.91402474, 42.36109427], [46.91408574, 42.36108394], [46.91410505, 42.36111992], [46.91411971, 42.36113425], [46.91413637, 42.36114725], [46.9141547, 42.36115924], [46.91417407, 42.36114458], [46.91401986, 42.36110266], [46.91390054, 42.36108902], [46.91386294, 42.36109099], [46.91393427, 42.36109432], [46.91340332, 42.36063003], [46.91300062, 42.36025068], [46.91244202, 42.35960111], [46.91203058, 42.35915038], [46.911789, 42.35914237], [46.91162473, 42.35921262], [46.91128786, 42.35940319], [46.9107874, 42.35916735], [46.91053348, 42.35922326], [46.91051849, 42.35922959], [46.90977206, 42.3595177], [46.90975507, 42.35951304], [46.90974008, 42.35950671], [46.90972708, 42.35949671], [46.90966248, 42.35937676], [46.90966347, 42.35932245], [46.9095079, 42.35914887], [46.90933362, 42.35916454], [46.90850954, 42.35960359], [46.90735158, 42.35989425], [46.90285368, 42.36185846], [46.90101279, 42.36235675], [46.90091715, 42.36233746], [46.89948965, 42.36292002], [46.90035034, 42.36347726], [46.89982484, 42.36348062], [46.89796945, 42.36459996], [46.89783716, 42.36462693], [46.89397185, 42.36547531], [46.89240942, 42.36586012], [46.89230245, 42.3658701], [46.88789182, 42.3663046], [46.88781689, 42.36629606], [46.88747568, 42.36642557], [46.8832841, 42.36606693], [46.88324345, 42.36604328], [46.88322746, 42.36603828], [46.88164199, 42.366016], [46.8815314, 42.36612294], [46.87808668, 42.36773396], [46.87587085, 42.36788182], [46.87520084, 42.36790865], [46.87494221, 42.36883251], [46.87497254, 42.36882552], [46.8749872, 42.36882585], [46.87511539, 42.36887578], [46.87512538, 42.36888411], [46.87513704, 42.3689041], [46.87512707, 42.36896708], [46.87449594, 42.36975093], [46.87447779, 42.37004451], [46.87446846, 42.37005684], [46.8744345, 42.37008282], [46.87404482, 42.37027152], [46.8740195, 42.37029984], [46.87310746, 42.37063453], [46.87302216, 42.3706875], [46.87279208, 42.3714132], [46.87278876, 42.37144951], [46.8696546, 42.37405757], [46.8695723, 42.37408287], [46.86951098, 42.37413351], [46.86949166, 42.37417216], [46.86789865, 42.37454477], [46.86764678, 42.3744572], [46.86763345, 42.37445687], [46.86340572, 42.37194912], [46.86356424, 42.37168796], [46.8635669, 42.37167963], [46.86135874, 42.37416823], [46.86139651, 42.37419049], [46.86166029, 42.37454533], [46.86166092, 42.37454662], [46.86140341, 42.37419542], [46.86138209, 42.3741771], [46.86133545, 42.37416213], [46.86133279, 42.37417038], [46.86165495, 42.37454021], [46.85876132, 42.37832733], [46.85759717, 42.38135427], [46.85759584, 42.38136393], [46.85243411, 42.38284904], [46.85242378, 42.38284838], [46.85074086, 42.38220914], [46.85069921, 42.38222079], [46.85048868, 42.38247434], [46.84872336, 42.38423617], [46.84908415, 42.38469856], [46.84975948, 42.38639823]]}, "properties": {"name": "Track"}}]}