{"type": "FeatureCollection", "features": [{"type": "Feature", "geometry": {"type": "LineString", "coordinates": [[44.636575, 42.85136332], [44.63510741, 42.85147469], [44.63431445, 42.85137194], [44.6338778, 42.85149099], [44.63373265, 42.8517985], [44.63339883, 42.85178921], [44.63253873, 42.852062], [44.63172541, 42.85268137], [44.63138632, 42.85320012], [44.63092501, 42.85352746], [44.63036966, 42.85356474], [44.62990369, 42.85331647], [44.6295141, 42.85239133], [44.62879094, 42.85208786], [44.62654607, 42.85187766], [44.62620709, 42.85081178], [44.62573388, 42.84984452], [44.62478284, 42.84865005], [44.62459634, 42.84810757], [44.62420315, 42.84763496], [44.6234859, 42.84715017], [44.62274429, 42.84681091], [44.62131739, 42.84551872], [44.62068608, 42.84525471], [44.62014048, 42.84482648], [44.61996267, 42.84449357], [44.61916024, 42.84406583], [44.61800504, 42.84313214], [44.61707545, 42.84251872], [44.61613083, 42.84216748], [44.61583503, 42.84164931], [44.61479043, 42.84085151], [44.6134335, 42.84013513], [44.61198902, 42.8397488], [44.61135027, 42.83970958], [44.60947227, 42.83978045], [44.60814899, 42.83965073], [44.60708599, 42.83973954], [44.6073783, 42.84014566], [44.60728156, 42.840799], [44.60664887, 42.84183635], [44.60618101, 42.84205535], [44.6061419, 42.8426349], [44.60655764, 42.8437179], [44.60768564, 42.84412952], [44.6093563, 42.84417046], [44.61062143, 42.84453443], [44.61127417, 42.84506535], [44.61185185, 42.84506526], [44.61219668, 42.84542325], [44.61342754, 42.84550858], [44.6136382, 42.84691656], [44.61379153, 42.84557823], [44.61237353, 42.84544888], [44.61204221, 42.84520083], [44.61094855, 42.84488984], [44.61055329, 42.84451221], [44.60924106, 42.84418655], [44.60754502, 42.84411107], [44.60652928, 42.84373774], [44.60627438, 42.8434345], [44.60582152, 42.84213681], [44.60574542, 42.84168566], [44.60539585, 42.84101212], [44.60456405, 42.84096599], [44.60297522, 42.84067628], [44.60174012, 42.8406546], [44.60062041, 42.84084688], [44.59946315, 42.84091364], [44.59850999, 42.84045018], [44.59805692, 42.83921985], [44.59804958, 42.8389337], [44.59760142, 42.83897101], [44.59729639, 42.83938509], [44.59616557, 42.84010953], [44.59586446, 42.84044099], [44.59521247, 42.84008723], [44.59377435, 42.8397985], [44.59336065, 42.83963417], [44.59115123, 42.83917448], [44.5896369, 42.83860109], [44.58792346, 42.83764864], [44.58776868, 42.83768899], [44.58774581, 42.83853604], [44.58758909, 42.83891026], [44.58678665, 42.83864142], [44.58687626, 42.83903997], [44.5864739, 42.83891159], [44.58598483, 42.83926416], [44.58621885, 42.83947518], [44.58584978, 42.83963865], [44.58602956, 42.83997455], [44.58533699, 42.84029142], [44.58418197, 42.84107993], [44.58309121, 42.84115708], [44.58221143, 42.84134669], [44.57927081, 42.84083059], [44.57888144, 42.84043694], [44.57822636, 42.84017319], [44.57820137, 42.83941417], [44.57775403, 42.83940123], [44.57580613, 42.83855056], [44.57511497, 42.83796406], [44.57451538, 42.8377188], [44.57315938, 42.83751141], [44.57146623, 42.83783199], [44.57015065, 42.83774618], [44.56974052, 42.83711506], [44.56909973, 42.83682129], [44.5688205, 42.83652174], [44.56850119, 42.83546842], [44.56886548, 42.83509148], [44.5685288, 42.83452769], [44.5677592, 42.83392474], [44.56689241, 42.83305403], [44.56638557, 42.83294987], [44.56496595, 42.8331475], [44.56396135, 42.83385044], [44.5619378, 42.83450219], [44.56108994, 42.83509996], [44.56091719, 42.83557936], [44.56133047, 42.83644022], [44.55970942, 42.83656383], [44.55930784, 42.83684849], [44.55916367, 42.83739619], [44.55756173, 42.83866945], [44.55736585, 42.83850591], [44.55798793, 42.83758781], [44.55801519, 42.83717736], [44.55757171, 42.83718671], [44.5575134, 42.83760085], [44.55608503, 42.83839073], [44.55616199, 42.83902146], [44.55542112, 42.83958473], [44.55484172, 42.83981552], [44.55434495, 42.8402699], [44.55337792, 42.84037177], [44.55287386, 42.83992906], [44.55252366, 42.83997267], [44.55175698, 42.84041733], [44.5510785, 42.84048322], [44.5503451, 42.84031217], [44.54972462, 42.84041162], [44.54761132, 42.84054363], [44.54713824, 42.84086004], [44.54675291, 42.84065206], [44.54593527, 42.84064299], [44.54435639, 42.84082058], [44.54376459, 42.84075251], [44.54293784, 42.84090987], [44.54109836, 42.84161266], [44.53970323, 42.84120853], [44.53871241, 42.84068435], [44.53834074, 42.83986466], [44.53716249, 42.83888269], [44.53590723, 42.83811072], [44.53519386, 42.8375874], [44.53474273, 42.83698987], [44.53410877, 42.83672363], [44.5335652, 42.83676818], [44.53232813, 42.83634926], [44.53192804, 42.83652275], [44.5311536, 42.83717787], [44.53097714, 42.83761592], [44.53011301, 42.83792936], [44.52992558, 42.83824914], [44.52955582, 42.83825039], [44.52922042, 42.83671668], [44.52843075, 42.83566919], [44.52781979, 42.83530458], [44.52748429, 42.83527143], [44.52658907, 42.83487915], [44.52680375, 42.83475904]]}, "properties": {"name": "Track"}}]}