{"type": "FeatureCollection", "features": [{"type": "Feature", "geometry": {"type": "LineString", "coordinates": [[43.725145, 42.99896766], [43.7256148, 42.99882568], [43.72675727, 42.99802549], [43.72727795, 42.99800259], [43.72724495, 42.99868753], [43.72655602, 42.99924941], [43.72651672, 42.99946433], [43.72693633, 43.00025526], [43.72607202, 43.00036451], [43.72632909, 43.00091118], [43.72630882, 43.00141729], [43.72602459, 43.00236146], [43.72539327, 43.00297741], [43.72491901, 43.0038173], [43.72451245, 43.00561962], [43.7237777, 43.00812825], [43.72306735, 43.00832295], [43.72292694, 43.00889961], [43.72262241, 43.00905579], [43.72130023, 43.00899702], [43.72007129, 43.00939949], [43.71925378, 43.01008431], [43.71874487, 43.01070856], [43.71656046, 43.01132694], [43.71471614, 43.01117654], [43.71447464, 43.01085804], [43.71349395, 43.01077853], [43.71308886, 43.01090399], [43.71250289, 43.01058265], [43.71158986, 43.00977805], [43.71121884, 43.00931218], [43.71104923, 43.00843826], [43.71038521, 43.00770494], [43.71001345, 43.00648522], [43.70956616, 43.00593725], [43.70741531, 43.00626381], [43.7055285, 43.00675696], [43.70414822, 43.00660314], [43.70333964, 43.00684867], [43.70535601, 43.00784711], [43.70631191, 43.00810902], [43.70687656, 43.00848061], [43.70610028, 43.00848588], [43.70539058, 43.00866883], [43.70366786, 43.00893782], [43.70364259, 43.0092088], [43.70401517, 43.00956139], [43.70361957, 43.00975435], [43.70153175, 43.01166901], [43.70104932, 43.01234802], [43.69984467, 43.01356294], [43.69900422, 43.01410528], [43.69710037, 43.01442982], [43.69522847, 43.01426179], [43.69450882, 43.01409194], [43.69255861, 43.01509804], [43.69191105, 43.01520829], [43.69035679, 43.0161817], [43.69021769, 43.01653172], [43.68906634, 43.0170606], [43.68828777, 43.01766179], [43.68751297, 43.01754212], [43.68691297, 43.01772028], [43.68622664, 43.01854655], [43.68516569, 43.01858781], [43.68362755, 43.01851995], [43.68296301, 43.01927288], [43.68257591, 43.01928153], [43.68255356, 43.01989793], [43.6822951, 43.02030708], [43.68159441, 43.02001207], [43.68007458, 43.01963696], [43.67889361, 43.01962498], [43.67835584, 43.01927555], [43.67777771, 43.01913685], [43.67868502, 43.02048352], [43.67809397, 43.02097811], [43.67683221, 43.02100934], [43.6767796, 43.02144729], [43.67608214, 43.02146345], [43.67537544, 43.02168879], [43.67552265, 43.02187557], [43.67512134, 43.02213554], [43.67370725, 43.02124488], [43.67358703, 43.02153836], [43.6723727, 43.02143836], [43.67234749, 43.02117928], [43.67282366, 43.02109509], [43.67283694, 43.02152645], [43.67320216, 43.02109398], [43.67236814, 43.02118245], [43.67166251, 43.02145074], [43.67132043, 43.02131094], [43.66992323, 43.02154177], [43.66856798, 43.02252139], [43.66890585, 43.0233429], [43.66856357, 43.02357651], [43.668878, 43.02404608], [43.66892927, 43.02460148], [43.66874678, 43.02489329], [43.66932637, 43.02540941], [43.66882133, 43.02588341], [43.66846515, 43.02590271], [43.66781104, 43.02669778], [43.66795247, 43.02681255], [43.66726357, 43.02724933], [43.66663953, 43.02740247], [43.66619745, 43.02726931], [43.66526589, 43.02727395], [43.664317, 43.0276678], [43.66355346, 43.02825257], [43.66328617, 43.02884249], [43.66264972, 43.02911194], [43.66262771, 43.02933318], [43.6615118, 43.02972906], [43.66042379, 43.02965548], [43.65960778, 43.02972949], [43.65938063, 43.03003692], [43.65870119, 43.03011144], [43.65714614, 43.03080909], [43.65644967, 43.03085998], [43.65642032, 43.03116185], [43.65461474, 43.03223537], [43.6541203, 43.0327505], [43.65333423, 43.03414852], [43.65269013, 43.03407026], [43.65154448, 43.03463922], [43.65064756, 43.03525216], [43.65026906, 43.03632827], [43.64931775, 43.03677246], [43.64939198, 43.03737077], [43.64835805, 43.03778316], [43.64832339, 43.0380327], [43.64743936, 43.03883579], [43.64729413, 43.0392156], [43.6468563, 43.03930579], [43.64632968, 43.0390537], [43.64618056, 43.03861031], [43.64568257, 43.03874792], [43.64491396, 43.03830264], [43.64448649, 43.03845243], [43.64464713, 43.0387992], [43.64432996, 43.03903735], [43.64387635, 43.03878135], [43.64258176, 43.03991792], [43.64193196, 43.03972451], [43.64140754, 43.039909], [43.64093145, 43.03985968], [43.64043577, 43.04021637], [43.63954267, 43.04021013], [43.63918814, 43.04056322], [43.63804902, 43.04079907], [43.63781675, 43.04117734], [43.63668803, 43.04133891], [43.63610186, 43.04160602], [43.63436675, 43.04185732], [43.63363674, 43.04224773], [43.63283431, 43.04209594], [43.63200492, 43.04243224], [43.63138047, 43.04240162], [43.63041086, 43.04296587], [43.6293049, 43.04316925], [43.62611893, 43.0442024], [43.62603765, 43.04434161], [43.62479276, 43.04445489], [43.6240238, 43.04503023], [43.62375905, 43.04546267], [43.62312706, 43.04593572], [43.62263022, 43.04600634], [43.62202723, 43.04684727], [43.62159593, 43.04683858], [43.62068012, 43.04766958], [43.61976921, 43.04809152], [43.61926926, 43.04854577], [43.61845003, 43.04846278], [43.61719661, 43.04874504], [43.61634507, 43.04933961], [43.61626677, 43.04955015], [43.61543585, 43.05007994], [43.61479198, 43.05093065], [43.6141592, 43.05068349], [43.61385945, 43.05084366], [43.61369358, 43.05054959], [43.61284667, 43.05086959], [43.61232421, 43.05152815], [43.61295511, 43.05219648], [43.6133315, 43.05290813], [43.61368433, 43.05321089], [43.61444601, 43.05475358], [43.61419742, 43.0553348], [43.61438666, 43.05566764], [43.61344127, 43.05607769], [43.61250101, 43.05611113], [43.61213407, 43.05686106], [43.61185485, 43.05708062], [43.61138498, 43.05797779], [43.61037819, 43.05924621], [43.6099603, 43.06037772], [43.61074685, 43.06203965], [43.61024075, 43.06277007], [43.61014906, 43.06356443], [43.60996622, 43.06382994], [43.60903699, 43.06419121], [43.60915995, 43.06492477], [43.6089762, 43.06537541], [43.6084458, 43.06489773], [43.60710097, 43.06444781], [43.60700079, 43.064731], [43.60617788, 43.06412871], [43.60599629, 43.06427792], [43.60705532, 43.06559473], [43.60728777, 43.06613086], [43.60854262, 43.06710896], [43.60878878, 43.06757408], [43.60913066, 43.06769465], [43.60889028, 43.06838369], [43.60996491, 43.06904901], [43.61043205, 43.06947116], [43.61061152, 43.069924], [43.61207682, 43.07168287], [43.61240385, 43.07262286], [43.61313454, 43.0731469], [43.61332634, 43.07376768], [43.61311031, 43.0744633], [43.61331538, 43.07501104], [43.61558081, 43.07655791], [43.61598062, 43.07696539], [43.61641688, 43.07806873], [43.61674504, 43.07853324], [43.61740301, 43.07912797], [43.61775245, 43.07972904], [43.61861146, 43.08162308], [43.61835766, 43.08236184], [43.61835302, 43.08295425], [43.61854383, 43.0838163], [43.61817365, 43.08421382], [43.61829808, 43.08493529], [43.61874406, 43.08579591], [43.6184235, 43.08698148], [43.61837105, 43.08772093], [43.61894492, 43.08887251], [43.61943178, 43.08924937], [43.62051542, 43.08963238], [43.62176161, 43.09045959], [43.62294097, 43.09182296], [43.62277237, 43.09218881], [43.6220123, 43.09225364], [43.62171104, 43.09273844], [43.62227333, 43.09374404], [43.62174342, 43.09375198], [43.62078664, 43.09409831], [43.62064969, 43.09384212], [43.62082283, 43.09302748], [43.61899645, 43.09235137], [43.61855428, 43.09203023], [43.6181979, 43.09133023], [43.61743892, 43.09089293], [43.61651607, 43.09008242], [43.61624102, 43.08951667], [43.61558305, 43.08887505], [43.61548284, 43.08848925], [43.61475255, 43.08776063], [43.61422369, 43.08697516], [43.61265206, 43.08618299], [43.61214955, 43.08565611], [43.61186838, 43.08603449], [43.61223614, 43.08639457], [43.61240428, 43.08690434], [43.6130217, 43.08745974], [43.61312451, 43.08795655], [43.61268571, 43.08796396], [43.61239418, 43.08744254], [43.61054847, 43.08657726], [43.60973755, 43.08599399], [43.60920348, 43.08605628]]}, "properties": {"name": "Track"}}]}