{"type": "FeatureCollection", "features": [{"type": "Feature", "geometry": {"type": "LineString", "coordinates": [[47.50751033, 42.170812], [47.5076831, 42.17099613], [47.50722879, 42.17136445], [47.50710097, 42.17171293], [47.50721183, 42.17203136], [47.50666779, 42.17223487], [47.50603979, 42.17282613], [47.5054099, 42.17380836], [47.50439397, 42.17448193], [47.50380819, 42.17475802], [47.50287938, 42.17541309], [47.50222477, 42.17618893], [47.50136279, 42.17694055], [47.49843247, 42.17756917], [47.49637123, 42.17788765], [47.49575585, 42.1779042], [47.4948383, 42.1780511], [47.49262962, 42.17824891], [47.49014298, 42.17877198], [47.48994742, 42.17889383], [47.48950823, 42.17849562], [47.48887317, 42.17755237], [47.48791376, 42.17681879], [47.48735264, 42.17673404], [47.48685527, 42.17652636], [47.48644221, 42.17664383], [47.48605805, 42.17656563], [47.48601435, 42.17702585], [47.48565122, 42.17696062], [47.4851631, 42.17829775], [47.48435954, 42.17913799], [47.4841681, 42.17957543], [47.48367558, 42.18003204], [47.48374646, 42.1803817], [47.48358045, 42.18076166], [47.48362343, 42.18146676], [47.48308198, 42.18157034], [47.48224842, 42.18236357], [47.48139945, 42.18296045], [47.48142376, 42.1831369], [47.4809715, 42.18324542], [47.48071755, 42.18356521], [47.48083072, 42.18380715], [47.48012874, 42.18383732], [47.48076022, 42.18431475], [47.48005835, 42.18549861], [47.47945455, 42.18603032], [47.47917522, 42.18587014], [47.47879174, 42.18599504], [47.47786917, 42.1866203], [47.47683217, 42.18710225], [47.47598165, 42.1876751], [47.4760321, 42.18829331], [47.47651626, 42.18922157], [47.47645536, 42.18954343], [47.47608295, 42.1899122], [47.47562241, 42.19011971], [47.47401338, 42.1903046], [47.47370331, 42.190509], [47.47355897, 42.19132313], [47.47332854, 42.19163689], [47.47266856, 42.19213876], [47.47161792, 42.19244571], [47.47114943, 42.19269987], [47.47109374, 42.19304669], [47.47162937, 42.19385466], [47.47131189, 42.1945654], [47.47002801, 42.19499329], [47.46900004, 42.19522823], [47.46868872, 42.19574987], [47.46875883, 42.19628781], [47.46846652, 42.19698742], [47.46806406, 42.19745689], [47.46800611, 42.19733697], [47.4661951, 42.19660073], [47.46545187, 42.1960064], [47.46241941, 42.19588984], [47.46164002, 42.19570477], [47.46085958, 42.19564554], [47.45999691, 42.19587626], [47.45889723, 42.19589713], [47.45757801, 42.19621766], [47.45654967, 42.1961857], [47.45437135, 42.19626541], [47.4530794, 42.19654454], [47.4526015, 42.19638175], [47.45264711, 42.19674547], [47.45214831, 42.19669487], [47.45192782, 42.19639967], [47.45122736, 42.19612826], [47.45035198, 42.19565461], [47.44992894, 42.19505454], [47.44938249, 42.19456048], [47.44850887, 42.19398416], [47.44805506, 42.19394365], [47.44629431, 42.19412515], [47.44556227, 42.193983], [47.44488659, 42.19425799], [47.44423079, 42.1944134], [47.44285711, 42.19509653], [47.44108091, 42.19605358], [47.44141167, 42.19529886], [47.44029717, 42.19601628], [47.43989029, 42.19603497], [47.43939647, 42.19580182], [47.43902465, 42.19614726], [47.43741484, 42.19660868], [47.43673439, 42.19661431], [47.43596432, 42.19637758], [47.43479368, 42.19653157], [47.43413722, 42.19668334], [47.43322256, 42.19713664], [47.43096, 42.19771521], [47.42947846, 42.19819877], [47.42811232, 42.19878093], [47.42768951, 42.19884913], [47.42715446, 42.19915946], [47.42715914, 42.199353], [47.42837472, 42.1994817], [47.42906349, 42.19938918], [47.42904086, 42.19971205], [47.42807025, 42.20024467], [47.42695596, 42.20058062], [47.42568836, 42.20056829], [47.4244584, 42.20091255], [47.42420023, 42.20049337], [47.4232649, 42.20092395], [47.42227324, 42.20123032], [47.42194719, 42.20159844], [47.4213592, 42.20143701], [47.42067246, 42.20161345], [47.41973513, 42.20145797], [47.41896671, 42.20154615], [47.41851016, 42.20137895], [47.41749859, 42.20166152], [47.41740271, 42.20191494], [47.41790223, 42.20214208], [47.41789356, 42.20231759], [47.41702089, 42.20224162], [47.41557488, 42.20206564], [47.4153524, 42.20254076], [47.41491699, 42.20304021], [47.41480214, 42.20335143], [47.41492697, 42.20386385], [47.41542166, 42.20463454], [47.41433037, 42.20484524], [47.41356343, 42.20444456], [47.41286732, 42.20439659], [47.41194129, 42.20406131], [47.41130184, 42.20431346], [47.40988243, 42.20421599], [47.40897688, 42.20375881], [47.4083686, 42.2032349], [47.40759357, 42.20337828], [47.40703846, 42.20301316], [47.40737855, 42.20256878], [47.40704579, 42.20253616], [47.40661185, 42.20310047], [47.4066006, 42.20368417], [47.40633162, 42.20429216], [47.40598349, 42.20418361], [47.40540235, 42.20331176], [47.40444278, 42.2028012], [47.40376673, 42.20232544], [47.40347498, 42.20193233], [47.40285479, 42.2006217], [47.40211919, 42.19997312], [47.40100414, 42.1991435], [47.40019821, 42.19898217], [47.39953312, 42.19852536], [47.39957675, 42.19826157], [47.3990853, 42.19779145], [47.39720871, 42.19729579], [47.39687753, 42.19737494], [47.39650784, 42.19776362], [47.3954976, 42.19787598], [47.39471195, 42.19749703], [47.39448073, 42.19691408], [47.39444218, 42.19592996], [47.39412691, 42.19494837], [47.39363428, 42.19487108], [47.3932547, 42.19521663], [47.39291827, 42.19585285], [47.39238407, 42.19644712], [47.39109289, 42.19704724], [47.39049327, 42.19718689], [47.38983939, 42.19713512], [47.38922562, 42.19725253], [47.38819666, 42.19784441], [47.38765464, 42.19823809], [47.3872512, 42.19828503], [47.38609927, 42.19901917], [47.385163, 42.1997571], [47.38475783, 42.19990297], [47.38235226, 42.20174652], [47.38130934, 42.20238386], [47.37971035, 42.20360941], [47.37933778, 42.20351178], [47.37901257, 42.2032149], [47.37693955, 42.20237003], [47.37644508, 42.20230174], [47.37605934, 42.2016787], [47.37514039, 42.20152572], [47.37433449, 42.20113487], [47.37372827, 42.20047474], [47.37352421, 42.2000417], [47.37360831, 42.19858642], [47.37354591, 42.19804405], [47.37363192, 42.19697103], [47.37338494, 42.1965417], [47.37213111, 42.19608487], [47.37137102, 42.19621909], [47.3703445, 42.19686458], [47.36980851, 42.19744853], [47.36865202, 42.19820204], [47.36798832, 42.19881072], [47.3675745, 42.19904454], [47.36626654, 42.1993793], [47.365195, 42.20000149], [47.36383908, 42.20054133], [47.36250956, 42.2009509], [47.36197941, 42.20126638], [47.36153105, 42.20189572], [47.36120442, 42.20294956], [47.36071417, 42.20367922], [47.36031618, 42.20443721], [47.35988845, 42.20503495], [47.3588257, 42.20618874], [47.35641077, 42.20843253], [47.35595961, 42.2085228], [47.35334413, 42.21040828], [47.35137005, 42.21191068], [47.35053013, 42.21234429], [47.34954555, 42.2127522], [47.34897076, 42.21313594], [47.3482304, 42.21346026], [47.34729503, 42.21368858], [47.34772753, 42.21316051], [47.34666483, 42.21323327], [47.34518293, 42.21370239], [47.34310129, 42.21388263], [47.34173094, 42.21449736], [47.34094389, 42.21432564], [47.34023193, 42.21369138], [47.33977307, 42.21367212], [47.33894382, 42.21393112], [47.33846997, 42.21394975], [47.33761661, 42.21436809], [47.3370521, 42.21454588], [47.33642465, 42.21491469], [47.33568223, 42.21522343], [47.3353154, 42.2151688], [47.33408633, 42.21437902], [47.3345385, 42.21436462], [47.33411806, 42.21397721], [47.3333647, 42.21395421], [47.33226376, 42.2141674], [47.33175693, 42.21417568], [47.33080304, 42.21451552], [47.32980767, 42.21433969], [47.32930816, 42.21455719], [47.32849138, 42.21454956], [47.32756836, 42.21440777], [47.32703063, 42.2138437], [47.32655676, 42.21368855], [47.32570773, 42.21364469], [47.32490532, 42.21341898], [47.32398897, 42.21399613], [47.3245124, 42.21352284], [47.32400566, 42.21208209], [47.3240176, 42.21155694], [47.32427029, 42.21065395], [47.32400389, 42.20977334], [47.32367508, 42.20939717], [47.32298001, 42.20883146], [47.32287204, 42.20837464], [47.32230197, 42.20758796], [47.32068131, 42.20625693], [47.31944734, 42.20576272], [47.31883362, 42.20535862], [47.31707079, 42.20504081], [47.31595482, 42.20446019], [47.31423313, 42.2044817], [47.31381361, 42.20414045], [47.31352, 42.20419089]]}, "properties": {"name": "Track"}}]}