{"type": "FeatureCollection", "features": [{"type": "Feature", "geometry": {"type": "LineString", "coordinates": [[44.04761366, 42.88135566], [44.04791689, 42.88078813], [44.04786897, 42.88053637], [44.04723687, 42.88034961], [44.04656335, 42.88062765], [44.04624585, 42.88064958], [44.04524034, 42.88031324], [44.0446642, 42.8798341], [44.0443018, 42.87897064], [44.04441332, 42.87856355], [44.04392386, 42.8778862], [44.04323848, 42.87766517], [44.04265935, 42.87775965], [44.04231519, 42.87807379], [44.04209479, 42.87863719], [44.04185333, 42.87886867], [44.04052876, 42.87935512], [44.04010005, 42.87964246], [44.03911975, 42.87952831], [44.03853599, 42.87954818], [44.0375474, 42.87907161], [44.03667601, 42.87916933], [44.03471136, 42.87977361], [44.03372112, 42.87993748], [44.03253071, 42.88060761], [44.03160336, 42.88100994], [44.03128229, 42.8815703], [44.02979665, 42.88181193], [44.02748178, 42.88224645], [44.02658686, 42.88225699], [44.02593095, 42.88237529], [44.02582722, 42.88284328], [44.02679348, 42.88346482], [44.02766559, 42.88435139], [44.02704091, 42.88447851], [44.02761869, 42.88446425], [44.0276437, 42.88433634], [44.02678774, 42.88346303], [44.0258948, 42.88291478], [44.02591188, 42.88232453], [44.02538251, 42.88240395], [44.0250058, 42.88265294], [44.02495486, 42.8830431], [44.02463396, 42.88319662], [44.02350496, 42.88340601], [44.02219248, 42.88426759], [44.0215337, 42.88436039], [44.02115919, 42.88418717], [44.02119848, 42.88385565], [44.02153096, 42.8835682], [44.02164975, 42.88288361], [44.02096385, 42.88262204], [44.02048373, 42.88269557], [44.02013358, 42.88289834], [44.0191961, 42.88199357], [44.01837326, 42.88107337], [44.01785414, 42.88087463], [44.0170847, 42.88084471], [44.01682329, 42.88016733], [44.01610486, 42.87930591], [44.0152473, 42.87887069], [44.01457857, 42.87840597], [44.01308527, 42.8771922], [44.01278646, 42.87681809], [44.01252724, 42.87677585], [44.01249855, 42.87613311], [44.01237272, 42.87581624], [44.01114146, 42.87493039], [44.01085573, 42.8754542], [44.01079081, 42.87588295], [44.00957605, 42.87599137], [44.009271, 42.8762333], [44.00970585, 42.87635624], [44.00960715, 42.87707856], [44.00902983, 42.87811189], [44.00817873, 42.87852238], [44.00734693, 42.87949925], [44.00651443, 42.88019537], [44.00579012, 42.8801103], [44.00393544, 42.88037709], [44.00356326, 42.88055462], [44.00344504, 42.88087272], [44.00258837, 42.88113112], [44.00112617, 42.88133945], [44.00066934, 42.88121725], [43.99975537, 42.88161327], [43.99906233, 42.88142418], [43.99889279, 42.88092739], [43.99828528, 42.88134858], [43.99803496, 42.88181483], [43.99749508, 42.88202979], [43.9962327, 42.88190617], [43.99556708, 42.88192279], [43.99538428, 42.88173398], [43.99438892, 42.88158596], [43.99361709, 42.88178775], [43.99280684, 42.88238341], [43.99223835, 42.88244382], [43.99163547, 42.8822705], [43.99081076, 42.88223965], [43.99034572, 42.88211728], [43.98851785, 42.88221777], [43.98806088, 42.88196669], [43.98719479, 42.88229923], [43.98684268, 42.882264], [43.98582256, 42.88248378], [43.98516583, 42.88250845], [43.98429879, 42.88303954], [43.98391357, 42.88361603], [43.98324512, 42.88401857], [43.98168592, 42.88449158], [43.98043467, 42.88465538], [43.98024086, 42.88483951], [43.97994977, 42.88553615], [43.97878661, 42.88611374], [43.97832225, 42.88582421], [43.97797834, 42.88528979], [43.97760335, 42.88367412], [43.97691925, 42.88287761], [43.97669466, 42.88279172], [43.97671109, 42.88224451], [43.97651388, 42.88204257], [43.9753538, 42.88126413], [43.9742893, 42.88042339], [43.97378041, 42.87984854], [43.973369, 42.87913925], [43.97336161, 42.87873142], [43.97387384, 42.87721532], [43.97368391, 42.87712181], [43.97265523, 42.8771018], [43.97113893, 42.87726236], [43.97007483, 42.87752254], [43.96862046, 42.87686529], [43.96720411, 42.876553], [43.9668939, 42.87639614], [43.96650826, 42.87569298], [43.96615211, 42.87542021], [43.96557666, 42.87547843], [43.96557204, 42.87497137], [43.96538626, 42.87449065], [43.96548866, 42.87395891], [43.96509365, 42.87326996], [43.96390066, 42.87259861], [43.96373923, 42.87170028], [43.96379274, 42.87099437], [43.96408363, 42.87086182], [43.96429069, 42.8703627], [43.96387624, 42.87068952], [43.9631812, 42.87105722], [43.96318286, 42.87176001], [43.96284648, 42.87207616], [43.96221676, 42.87193359], [43.96163515, 42.87160439], [43.96180391, 42.87127732], [43.96155569, 42.87120336], [43.96067776, 42.87189294], [43.96000366, 42.8722733], [43.95971295, 42.87278674], [43.95919816, 42.87271343], [43.95922648, 42.87243921], [43.95977458, 42.87202914], [43.96037962, 42.87139654], [43.95987305, 42.8706596], [43.95995222, 42.87114473], [43.95978664, 42.87138297], [43.95925383, 42.87156139], [43.95934412, 42.87137115]]}, "properties": {"name": "Track"}}]}