{"type": "FeatureCollection", "features": [{"type": "Feature", "geometry": {"type": "LineString", "coordinates": [[45.85195266, 42.65697766], [45.85162494, 42.65665661], [45.85308033, 42.65621316], [45.85309637, 42.65606206], [45.85099912, 42.65577402], [45.85067694, 42.65506203], [45.85004181, 42.65503701], [45.84930815, 42.65438635], [45.84873699, 42.65437867], [45.84813783, 42.65465509], [45.84754871, 42.65472799], [45.84673565, 42.65447421], [45.84546845, 42.65379868], [45.84500871, 42.65333292], [45.84474124, 42.65351742], [45.84423226, 42.65256045], [45.84396148, 42.65171624], [45.84407349, 42.65128083], [45.84394604, 42.65070206], [45.84353735, 42.65022335], [45.84291359, 42.64978226], [45.84189858, 42.64947587], [45.84069299, 42.64892438], [45.83989073, 42.64806866], [45.83907874, 42.64736632], [45.8377915, 42.6468584], [45.83674013, 42.64655605], [45.83607537, 42.64536155], [45.835218, 42.64481052], [45.83471691, 42.64421577], [45.83348362, 42.64408381], [45.83311108, 42.64394562], [45.83200388, 42.6430214], [45.83138871, 42.64185623], [45.8306964, 42.64111359], [45.83095393, 42.6400303], [45.83090597, 42.63974076], [45.83042197, 42.63907776], [45.82989251, 42.63872532], [45.82796444, 42.63803693], [45.82722502, 42.63764519], [45.82667393, 42.63716413], [45.82649942, 42.63640246], [45.82569551, 42.63560419], [45.82452697, 42.63468538], [45.82368756, 42.63295841], [45.82330672, 42.63271721], [45.82076688, 42.63221788], [45.82019577, 42.63188747], [45.81924352, 42.63182658], [45.81864174, 42.63154557], [45.81793565, 42.63162875], [45.81648087, 42.63223448], [45.81524493, 42.6323649], [45.81427254, 42.63221871], [45.81267401, 42.63219577], [45.81179824, 42.63248615], [45.8109026, 42.63323041], [45.81036977, 42.63336123], [45.80859044, 42.63336552], [45.8077434, 42.63324546], [45.80690298, 42.63342154], [45.80624982, 42.63331899], [45.80621917, 42.63302146], [45.80732044, 42.63274847], [45.80833782, 42.63260077], [45.80905925, 42.63226373], [45.80945398, 42.63165132], [45.81073138, 42.63078822], [45.81197496, 42.63050286], [45.81229512, 42.63017336], [45.81365825, 42.62961528], [45.81412476, 42.62867608], [45.81381523, 42.62835028], [45.81324413, 42.62847199], [45.81292898, 42.62880776], [45.8120223, 42.62901559], [45.81035302, 42.62997401], [45.81008512, 42.6298891], [45.80964367, 42.62929732], [45.80940472, 42.62920608], [45.80779892, 42.62933402], [45.80659594, 42.62935365], [45.80582758, 42.62907724], [45.80599965, 42.62976771], [45.80531087, 42.63004796], [45.80526586, 42.63065994], [45.80386505, 42.63098912], [45.80305192, 42.63149554], [45.80212864, 42.63159494], [45.80153907, 42.63230878], [45.8005856, 42.6322376], [45.80015055, 42.6323643], [45.79958492, 42.63225359], [45.79805887, 42.63249103], [45.79754799, 42.63278855], [45.79766946, 42.63301648], [45.7987428, 42.63317479], [45.79942533, 42.63348397], [45.79979269, 42.63395691], [45.80022985, 42.6342292], [45.80208541, 42.63446415], [45.80297911, 42.63476349], [45.80346327, 42.63511104], [45.80367467, 42.63547907], [45.80411985, 42.63561078], [45.80459671, 42.63640253], [45.80582348, 42.63548987], [45.8067924, 42.63604976], [45.80724973, 42.63617981], [45.80623056, 42.63661513], [45.80673489, 42.63684912], [45.80745241, 42.63696641], [45.80907408, 42.63743445], [45.80955996, 42.63789296], [45.81142197, 42.63827894], [45.81170278, 42.63845074], [45.81176316, 42.63905512], [45.81152917, 42.64005831], [45.8099118, 42.64027242], [45.80936979, 42.64090806], [45.80884988, 42.64061204], [45.80826351, 42.64070379], [45.80702189, 42.6406416], [45.80550805, 42.64098832], [45.80495382, 42.64132551], [45.8037553, 42.64239789], [45.8035286, 42.64298285], [45.80276507, 42.64341637], [45.80167686, 42.64336747], [45.80082284, 42.64353125], [45.80016808, 42.64341484], [45.79925064, 42.64356872], [45.79804527, 42.6429547], [45.79724125, 42.64280532], [45.7964759, 42.64251496], [45.79611721, 42.64288191], [45.79561183, 42.64286987], [45.79490732, 42.64380515], [45.79402157, 42.64385705], [45.79338501, 42.64412861], [45.79235703, 42.64479935], [45.79162594, 42.64503406], [45.79057958, 42.64488277], [45.7899935, 42.64447693], [45.78948216, 42.64454128], [45.78907587, 42.64532863], [45.78824129, 42.64547337], [45.78767194, 42.64577975], [45.78667623, 42.64571358], [45.78563012, 42.64525879], [45.78524664, 42.64572992], [45.78521395, 42.64702696], [45.78486447, 42.64736773], [45.78417346, 42.64753009], [45.78418281, 42.64777226], [45.78294374, 42.64891657], [45.7823166, 42.64923663], [45.78232351, 42.64952063], [45.78174871, 42.64960741], [45.7816712, 42.64918752], [45.77992519, 42.64854197], [45.77933744, 42.64857976], [45.77788253, 42.64801665], [45.77590254, 42.64812616], [45.77466431, 42.6479558], [45.77410979, 42.64813528], [45.77358604, 42.64852204], [45.77275026, 42.64865375], [45.77174593, 42.64842033], [45.77097057, 42.64796597], [45.77061842, 42.64753713], [45.7699043, 42.64732709], [45.76963049, 42.64836227], [45.76873652, 42.64916884], [45.7679265, 42.64978119], [45.76745668, 42.65027263], [45.76550253, 42.65131903], [45.76489621, 42.65213068], [45.76401479, 42.65215895], [45.76336801, 42.65249377], [45.76320647, 42.65276529], [45.76210585, 42.65309025], [45.76176996, 42.65337878], [45.76144995, 42.65414313], [45.76158813, 42.65505783], [45.76104203, 42.65548196], [45.75950414, 42.65552612], [45.75857783, 42.65620642], [45.75766882, 42.65675075], [45.75722976, 42.6572015], [45.75672086, 42.65821765], [45.7547642, 42.65969884], [45.75377051, 42.66033845], [45.75289754, 42.66115774], [45.75086437, 42.66236204], [45.74959565, 42.66330119], [45.74861405, 42.66371674], [45.74757338, 42.66389283], [45.74707088, 42.66424362], [45.74633777, 42.66426823], [45.74587025, 42.66443407], [45.7453198, 42.66494683], [45.74483343, 42.66564252], [45.74281609, 42.66658977], [45.74214503, 42.66723247], [45.74168619, 42.66737695], [45.74042458, 42.66735973], [45.7390973, 42.66710743], [45.73810097, 42.6672698], [45.73726022, 42.6672634], [45.73665049, 42.66660234], [45.73705753, 42.66573408], [45.7364511, 42.66552053], [45.73589594, 42.66576833], [45.7351005, 42.66594212], [45.73460405, 42.66549234], [45.7348502, 42.66472897], [45.73364358, 42.6643977], [45.7329701, 42.6642992], [45.73262531, 42.6637491], [45.73280179, 42.66323032], [45.73257157, 42.66308241], [45.73064179, 42.66300393], [45.72902999, 42.66231414], [45.72800432, 42.66221373], [45.72688279, 42.66195542], [45.72558849, 42.66114929], [45.72508734, 42.66097482], [45.72400678, 42.6601799], [45.72343442, 42.65950856], [45.72295166, 42.65917314], [45.72272219, 42.65879329], [45.72201905, 42.65848684], [45.72107809, 42.65762194], [45.72058758, 42.65746576], [45.71889882, 42.65758376], [45.71747757, 42.65756617], [45.71672108, 42.65656107], [45.71561908, 42.65617507], [45.71515457, 42.65644191], [45.71483634, 42.65640461], [45.71417794, 42.65591957], [45.71322108, 42.65543038], [45.71287808, 42.65563501], [45.71271622, 42.65624874], [45.71238642, 42.65674052], [45.71154314, 42.65747049], [45.71127948, 42.6586168], [45.71091705, 42.65895732], [45.710903, 42.65934683], [45.7105559, 42.66037402], [45.70832958, 42.66031871], [45.70728475, 42.65974478], [45.70671893, 42.65990127], [45.70590715, 42.65977583], [45.70545333, 42.659945], [45.70545326, 42.66095524], [45.70491173, 42.66158501], [45.70453686, 42.66164688]]}, "properties": {"name": "Track"}}]}