{"type": "FeatureCollection", "features": [{"type": "Feature", "geometry": {"type": "LineString", "coordinates": [[43.29010133, 43.180339], [43.29112661, 43.18046783], [43.29097877, 43.18070039], [43.28954795, 43.18139686], [43.28904544, 43.18135658], [43.28871128, 43.18163507], [43.28822449, 43.18136848], [43.28808865, 43.18194084], [43.28864149, 43.18212737], [43.28814943, 43.18286733], [43.287403, 43.18296923], [43.28674069, 43.18367625], [43.2863343, 43.18435162], [43.28551393, 43.18485532], [43.28552156, 43.18516451], [43.28599408, 43.18530248], [43.28547071, 43.18583022], [43.2849772, 43.18608737], [43.28512218, 43.18624894], [43.28685103, 43.1861421], [43.28684505, 43.18641167], [43.28576297, 43.18724918], [43.28491886, 43.18744163], [43.28305757, 43.18872327], [43.28248013, 43.18880844], [43.2820093, 43.18844397], [43.28167081, 43.18930505], [43.2820893, 43.18964319], [43.28134175, 43.19062175], [43.28076027, 43.19036358], [43.28023487, 43.19061276], [43.28001571, 43.1914374], [43.2793663, 43.19183421], [43.27900216, 43.19123044], [43.27864959, 43.19119248], [43.27827407, 43.19214434], [43.2779279, 43.19250948], [43.2772315, 43.19288623], [43.2770654, 43.19198434], [43.27725621, 43.19152354], [43.27687384, 43.19072384], [43.27685854, 43.19023099], [43.27580879, 43.19132317], [43.27543533, 43.19114987], [43.2756229, 43.19069408], [43.27505017, 43.19094791], [43.27432545, 43.19147761], [43.27396732, 43.19196307], [43.27355499, 43.19291172], [43.27339661, 43.19358815], [43.27357274, 43.19422627], [43.2733285, 43.19453188], [43.27269396, 43.19585748], [43.2728511, 43.19635384], [43.27234904, 43.19599743], [43.272073, 43.19532043], [43.27212257, 43.19470562], [43.27136879, 43.19608442], [43.27097724, 43.19613073], [43.27083532, 43.1958258], [43.27104475, 43.19525932], [43.27056397, 43.19381584], [43.26998457, 43.19341542], [43.26962259, 43.19428879], [43.26832461, 43.1945028], [43.26621554, 43.19527917], [43.26597271, 43.19492533], [43.26526324, 43.19511816], [43.26344871, 43.19483854], [43.26252696, 43.19444478], [43.26115962, 43.19402546], [43.26051814, 43.19403775], [43.25899527, 43.19388819], [43.25865108, 43.19418034], [43.2587336, 43.19480206], [43.25810236, 43.19565768], [43.25957416, 43.19623691], [43.25999836, 43.19628783], [43.26059383, 43.1967536], [43.26164356, 43.19707961], [43.2625229, 43.19773325], [43.26308736, 43.19779272], [43.26392638, 43.19829277], [43.26473963, 43.1991337], [43.26539404, 43.1995051], [43.26606269, 43.20009437], [43.26683145, 43.20053507], [43.26736863, 43.20063393], [43.26834262, 43.20059697], [43.26926297, 43.20130493], [43.26979781, 43.20141211], [43.27135062, 43.20247787], [43.27213107, 43.20379635], [43.27485111, 43.20541441], [43.27493761, 43.20659532], [43.27430083, 43.20684695], [43.27459635, 43.20716545], [43.27468454, 43.2079052], [43.27533349, 43.2088891], [43.27624053, 43.20926813], [43.27692367, 43.20934565], [43.27938883, 43.21026848], [43.28017621, 43.21092716], [43.27994105, 43.21155627], [43.28039309, 43.21222201], [43.28253045, 43.21327835], [43.28349477, 43.21348936], [43.28419159, 43.21342678], [43.28552247, 43.21399971], [43.28483272, 43.21360049], [43.28522658, 43.21423353], [43.2844947, 43.21512342], [43.28345268, 43.21613978], [43.28379744, 43.21681853], [43.28366969, 43.21717338], [43.28406183, 43.21751188], [43.28620953, 43.21813653], [43.28641808, 43.21837608], [43.28593498, 43.21878319], [43.28502069, 43.21929663], [43.28426127, 43.21945238], [43.28396886, 43.21992338], [43.28412039, 43.22013657], [43.28366527, 43.22155291], [43.28402021, 43.22244602], [43.28324375, 43.22330442], [43.28256167, 43.22350719], [43.28020426, 43.22473918], [43.27974207, 43.22476382], [43.27799186, 43.2256709], [43.27776031, 43.22589012], [43.27653808, 43.22650331], [43.27553505, 43.22683074], [43.27493206, 43.22672892], [43.27411487, 43.22697329], [43.27297542, 43.22766236], [43.27052201, 43.22814676], [43.27012899, 43.22844812], [43.26822278, 43.22891191], [43.26721377, 43.22850925], [43.26709157, 43.22943048], [43.26672339, 43.23062683], [43.26506387, 43.23182559], [43.26463332, 43.23265546], [43.26314873, 43.23341631], [43.26224451, 43.23352766], [43.26173772, 43.23384906], [43.26071239, 43.23377603], [43.260303, 43.23410885], [43.2585234, 43.23492943], [43.2580871, 43.23599724], [43.25713736, 43.23674772], [43.25707375, 43.23752194], [43.256604, 43.23784635], [43.25660005, 43.23827976], [43.25601982, 43.23986347], [43.25514148, 43.23992344], [43.25422889, 43.24035212], [43.25418696, 43.24065861], [43.25525014, 43.24166439], [43.25615464, 43.24205691], [43.25614698, 43.24266083], [43.25497906, 43.24287055], [43.25416399, 43.2428918], [43.25331668, 43.242714], [43.25239453, 43.24340777], [43.2507296, 43.24418078], [43.24908199, 43.24485545], [43.24853204, 43.2453831], [43.24796436, 43.24536081], [43.24763689, 43.24560561], [43.24701214, 43.24550607], [43.24636154, 43.2458417], [43.24587881, 43.24586402], [43.24442351, 43.24624741], [43.24344228, 43.2466923], [43.24345159, 43.24693581], [43.24427294, 43.24668639], [43.2450517, 43.24671701], [43.24406259, 43.24749539], [43.2433392, 43.24860945], [43.24222028, 43.24912496], [43.24083984, 43.24961969], [43.24034975, 43.2499024], [43.24031452, 43.25029085], [43.24107325, 43.25033917], [43.24016088, 43.25099828], [43.2403465, 43.25120946], [43.24099289, 43.25135615], [43.2399411, 43.25267592], [43.23754329, 43.25249371], [43.23709792, 43.2519643], [43.23592265, 43.25202176], [43.23485544, 43.25232283], [43.23395487, 43.25319238], [43.23330173, 43.25349453], [43.23325312, 43.25305139], [43.23296659, 43.25292883], [43.23149986, 43.25398783], [43.23003234, 43.25465233], [43.22956285, 43.25467293], [43.22962481, 43.2540409], [43.22786506, 43.25431315], [43.22674342, 43.25430508], [43.22572014, 43.25454976], [43.22373406, 43.25486748], [43.22370131, 43.25444601], [43.22259069, 43.25484399], [43.22178966, 43.25535771], [43.22122741, 43.25627695], [43.2205197, 43.25663839], [43.21988422, 43.25645622], [43.21974908, 43.25618407], [43.21877895, 43.25589064], [43.21823862, 43.25611588], [43.21837812, 43.25658705], [43.21875691, 43.25699117], [43.21870063, 43.25762294], [43.21844361, 43.25721874], [43.21806315, 43.25745956], [43.21662994, 43.25697736], [43.21545564, 43.25678878], [43.21340628, 43.25601801], [43.21318641, 43.25636321], [43.21377979, 43.25717857], [43.21364317, 43.25731185], [43.21257053, 43.25679618], [43.21180843, 43.25666875], [43.20993834, 43.25704047], [43.20790582, 43.25787177], [43.20718539, 43.2582752], [43.20616887, 43.25941938], [43.20531421, 43.25968854], [43.20433485, 43.25971683], [43.20283567, 43.25992776], [43.20182991, 43.25968206], [43.2011268, 43.25986717], [43.1994166, 43.25967288], [43.19899806, 43.25949132], [43.19821549, 43.2583745], [43.19734575, 43.25816875], [43.19657532, 43.25840161], [43.19635085, 43.2589008], [43.19616431, 43.26007343], [43.19580547, 43.26032264], [43.19488707, 43.25991323], [43.19363609, 43.25977487], [43.19328058, 43.25940769], [43.19245718, 43.25903826], [43.19119186, 43.2587416], [43.1903391, 43.25865179], [43.18928508, 43.25833544], [43.1889705, 43.25836743], [43.18816784, 43.25908679], [43.18772138, 43.2606875], [43.18788546, 43.26132196], [43.18725105, 43.26277843], [43.1865529, 43.26280884], [43.18576687, 43.26246848], [43.18491629, 43.26251967], [43.18424126, 43.26236956], [43.18340613, 43.26311373], [43.1824282, 43.26372973], [43.18163545, 43.26406739], [43.1811987, 43.26463814], [43.18115843, 43.26496067], [43.18213383, 43.26568005], [43.18180157, 43.26629283], [43.18064261, 43.26656003], [43.18011374, 43.26718627], [43.1799755, 43.26762101], [43.18026486, 43.26829228], [43.18004667, 43.26871541], [43.18024832, 43.26903453], [43.18021009, 43.26962629], [43.18055296, 43.26996184], [43.18030475, 43.27054061], [43.17993719, 43.2706465], [43.17961559, 43.27203735], [43.17944773, 43.27225293], [43.17964504, 43.27323647], [43.18038041, 43.27447083], [43.18046894, 43.27528191], [43.18076401, 43.27595134], [43.18089511, 43.27751917], [43.18058449, 43.27883314], [43.18090488, 43.2791742], [43.18174985, 43.27909696], [43.18180124, 43.27957141], [43.18224436, 43.27937492], [43.18198463, 43.28012331], [43.18237025, 43.28104555], [43.18150607, 43.2818291], [43.18128651, 43.28219325], [43.18054884, 43.28236565], [43.18002015, 43.28281332], [43.17935118, 43.28414987], [43.17863715, 43.28478989], [43.17802069, 43.28500034], [43.17736991, 43.28553043], [43.17676023, 43.2864408], [43.17590584, 43.28699548], [43.17573566, 43.28753395], [43.17533827, 43.28791107], [43.17505869, 43.28899456], [43.17471031, 43.28969333], [43.1732022, 43.29044219], [43.17072203, 43.29135306], [43.17008965, 43.29205078], [43.16955183, 43.29231628], [43.1689141, 43.29292502], [43.16761881, 43.29380727], [43.16708369, 43.29434369], [43.16530763, 43.29528109], [43.16470193, 43.29513168]]}, "properties": {"name": "Track"}}]}