{"type": "FeatureCollection", "features": [{"type": "Feature", "geometry": {"type": "LineString", "coordinates": [[43.79982766, 43.01050666], [43.8001061, 43.01111811], [43.79990258, 43.01154663], [43.79881133, 43.01223456], [43.79928977, 43.01287022], [43.80008522, 43.01277995], [43.80082027, 43.01331474], [43.8012808, 43.01440239], [43.80170192, 43.0149588], [43.80248402, 43.01520394], [43.80350139, 43.01534286], [43.80364528, 43.01561542], [43.80440906, 43.01578365], [43.8051408, 43.01640108], [43.80540847, 43.0174091], [43.8051981, 43.01824484], [43.80576938, 43.01925219], [43.80560789, 43.01995227], [43.8053663, 43.01993427], [43.80497185, 43.01917118], [43.80373714, 43.01904873], [43.80328195, 43.01881317], [43.80249585, 43.01937289], [43.80311834, 43.01979902], [43.80220332, 43.01998414], [43.80155353, 43.02028923], [43.80177878, 43.02049647], [43.8014167, 43.0213179], [43.80151623, 43.02199834], [43.80212769, 43.02249283], [43.80239072, 43.02387673], [43.80088652, 43.02323279], [43.79974887, 43.02225922], [43.79853468, 43.02089117], [43.79700529, 43.01959578], [43.79527534, 43.01791613], [43.79446262, 43.01726478], [43.79432323, 43.01643998], [43.79367286, 43.01574626], [43.79268219, 43.01537924], [43.79231784, 43.01432626], [43.79169006, 43.01434459], [43.79145657, 43.01467376], [43.79112242, 43.01396556], [43.79106549, 43.01450795], [43.79068513, 43.01432444], [43.7904165, 43.0135338], [43.78995838, 43.01312536], [43.78997358, 43.01370879], [43.78954826, 43.01446415], [43.78916307, 43.01443281], [43.78875978, 43.01379848], [43.78804037, 43.01365973], [43.78772463, 43.01298127], [43.78771501, 43.01219019], [43.78791752, 43.01180704], [43.78770361, 43.01146459], [43.78664499, 43.01122828], [43.78599944, 43.01053007], [43.78495395, 43.01064443], [43.78393732, 43.01055199], [43.78396196, 43.01071483], [43.78493854, 43.01097839], [43.78527825, 43.01158736], [43.78583234, 43.01204159], [43.78557912, 43.01213885], [43.78464675, 43.01191237], [43.78397537, 43.01131235], [43.7830607, 43.01134261], [43.78251822, 43.01108885], [43.78200612, 43.0113874], [43.78113648, 43.01141803], [43.7801439, 43.01178707], [43.77921987, 43.01184596], [43.77952295, 43.01104131], [43.78067715, 43.01053015], [43.78225083, 43.00933081], [43.78300883, 43.00906706], [43.78226758, 43.00872983], [43.78094809, 43.00914394], [43.7801518, 43.00857464], [43.77829207, 43.00832072], [43.77798716, 43.0084123], [43.77837324, 43.0087873], [43.77744895, 43.00913489], [43.77581341, 43.00900798], [43.77462307, 43.00858548], [43.77406234, 43.00924796], [43.77389583, 43.00848821], [43.77276486, 43.00827885], [43.77203345, 43.00797941], [43.77109215, 43.00711047], [43.77075901, 43.00702451], [43.76928682, 43.00739037], [43.76872001, 43.00731886], [43.76810392, 43.00699869], [43.76733214, 43.00695009], [43.76656984, 43.00600017], [43.76644566, 43.00452152], [43.7666832, 43.00416063], [43.76649039, 43.00327995], [43.7671328, 43.0028062], [43.76729136, 43.00207851], [43.76656148, 43.00172519], [43.76536426, 43.00154263], [43.76444563, 43.00159885], [43.76323102, 43.00134166], [43.76260096, 43.00058902], [43.76210567, 43.00030787], [43.76031962, 42.99996143], [43.75972598, 42.99952914], [43.75947618, 42.99911799], [43.75981408, 42.99825047], [43.75970191, 42.99784187], [43.75776866, 42.99669635], [43.75724803, 42.99615076], [43.75663933, 42.99609474], [43.75597474, 42.9951529], [43.75535861, 42.99487876], [43.7553496, 42.99418404], [43.7543813, 42.9935604], [43.75329568, 42.99339402], [43.75242892, 42.9929598], [43.75170736, 42.99218494], [43.75026306, 42.99117502], [43.74881828, 42.99210673], [43.74775728, 42.99308335], [43.74722188, 42.99291052], [43.74688979, 42.99235129], [43.74621367, 42.99233439], [43.74556824, 42.99262744], [43.74433483, 42.99296115], [43.74292162, 42.99301597], [43.74099831, 42.99277017], [43.74057544, 42.99287469], [43.73967988, 42.99373152], [43.73942565, 42.99373382], [43.73936802, 42.99317737], [43.73847437, 42.99269071], [43.73704681, 42.99294958], [43.73555043, 42.99279772], [43.7347614, 42.99290257], [43.73433111, 42.99350551], [43.73336082, 42.99309806], [43.73316666, 42.99347457], [43.73335495, 42.99434082], [43.73381383, 42.9952381], [43.73423394, 42.99638064], [43.73357051, 42.99634847], [43.73247255, 42.99661745], [43.73168085, 42.99622179], [43.73113635, 42.99612001], [43.73052198, 42.99557034], [43.72983242, 42.9945834], [43.72937499, 42.99416097], [43.72865668, 42.99434318], [43.72809263, 42.99489521], [43.72537893, 42.99572572], [43.72388021, 42.9967461], [43.72446427, 42.99699061], [43.72527297, 42.99664293], [43.72555182, 42.99669753], [43.72489242, 42.99772277], [43.7248217, 42.9983419], [43.72509811, 42.99928328], [43.72516048, 42.99894968]]}, "properties": {"name": "Track"}}]}