{"type": "FeatureCollection", "features": [{"type": "Feature", "geometry": {"type": "LineString", "coordinates": [[39.96129433, 44.20124566], [39.9611168, 44.20127804], [39.961097, 44.20128962], [39.96108906, 44.20129127], [39.96109699, 44.20128269], [39.95986173, 44.2012245], [39.9598424, 44.20121984], [39.95982374, 44.20121851], [39.95980441, 44.20122017], [39.95847245, 44.20182905], [39.95843746, 44.20183704], [39.95841947, 44.20183737], [39.95840147, 44.20183471], [39.95838381, 44.20182971], [39.95885454, 44.19922468], [39.95884821, 44.19921068], [39.9582424, 44.19882522], [39.96236727, 44.1913655], [39.9602582, 44.19026848], [39.96076602, 44.18872789], [39.96026993, 44.18843654], [39.95973171, 44.18815792], [39.95970507, 44.18810362], [39.96026247, 44.1879042], [39.96134601, 44.18754678], [39.9613037, 44.18729322], [39.95966845, 44.18278124], [39.95939541, 44.18153742], [39.95940945, 44.1812932], [39.95947708, 44.18132284], [39.96034077, 44.18167121], [39.96088327, 44.1819847], [39.96091193, 44.18199736], [39.96112319, 44.18206596], [39.96116451, 44.18208862], [39.96194789, 44.18229901], [39.96310586, 44.17972061], [39.96351773, 44.17958538], [39.96423164, 44.17535381], [39.96445983, 44.17491577], [39.96447316, 44.17491477], [39.96457609, 44.17480382], [39.96477099, 44.17299556], [39.96402555, 44.17172992], [39.96406045, 44.17125692], [39.96438093, 44.1710321], [39.96460565, 44.16996289], [39.96341186, 44.1687344], [39.96338477, 44.1684149], [39.96354782, 44.16379232], [39.96343454, 44.16370204], [39.96322934, 44.16316762], [39.96322733, 44.1631173], [39.96298724, 44.16274882], [39.96289369, 44.16227207], [39.96279942, 44.16214681], [39.96275047, 44.16205918], [39.96233829, 44.16052845], [39.96267983, 44.16069132], [39.96282811, 44.16073393], [39.96295607, 44.16081721], [39.96433688, 44.16115412], [39.96439096, 44.159987], [39.96422083, 44.15949336], [39.96339689, 44.15916973], [39.96248452, 44.15676391], [39.96261968, 44.15610834], [39.96231236, 44.15551995], [39.96197465, 44.15522121], [39.96226666, 44.15478635], [39.96222234, 44.15469111], [39.96227898, 44.15472776], [39.96238523, 44.15485002], [39.96397355, 44.15439432], [39.96422648, 44.15440695], [39.9643441, 44.15443589], [39.96479029, 44.1544039], [39.96499837, 44.15380656], [39.96472733, 44.15304656], [39.96467212, 44.15195334], [39.96741917, 44.15191829], [39.96765672, 44.15171305], [39.96835174, 44.15107773], [39.96839706, 44.15106908], [39.96950195, 44.15029916], [39.96942438, 44.14995426], [39.96879103, 44.14921054], [39.96870741, 44.14910193], [39.96865443, 44.14906428], [39.96851614, 44.148985], [39.96825824, 44.14884574], [39.96821226, 44.14882776], [39.9681716, 44.14880311], [39.96800532, 44.14872715], [39.96777079, 44.14862297], [39.96762484, 44.14858135], [39.96760918, 44.14857369], [39.96710552, 44.14832063], [39.96712203, 44.1483137], [39.96714186, 44.1483203], [39.96714254, 44.14831799], [39.96487678, 44.14491289], [39.96482216, 44.14480293], [39.96451125, 44.14336858], [39.96659306, 44.14372303], [39.96725552, 44.14383422], [39.96779067, 44.14394364], [39.96813422, 44.14402985], [39.97124386, 44.14398075], [39.97143946, 44.14387781], [39.9716474, 44.14346832], [39.97209926, 44.13988428], [39.97213523, 44.13981831], [39.97211824, 44.13977167], [39.97160238, 44.13862325], [39.97158972, 44.13861859], [39.9715464, 44.13862125], [39.97153174, 44.13861892], [39.97151808, 44.13861226], [39.97140079, 44.1385243], [39.97111988, 44.13840404], [39.97109956, 44.13838272], [39.97085297, 44.13823113], [39.97052175, 44.13798257], [39.97019192, 44.13757239], [39.96999103, 44.13731883], [39.96998003, 44.13730583], [39.96979214, 44.13716496], [39.9697545, 44.13709964], [39.96963128, 44.13698939], [39.96963393, 44.13696473], [39.96948001, 44.13672879], [39.9693988, 44.13639156], [39.96943372, 44.13621462], [39.96950565, 44.13598703], [39.96982476, 44.13469723], [39.96990162, 44.13161602], [39.96940196, 44.13036987], [39.96991159, 44.12949959], [39.97051692, 44.12903821], [39.97052658, 44.12902688], [39.9705829, 44.12899457], [39.97064086, 44.12897728], [39.97115135, 44.12858483], [39.97155602, 44.12803709], [39.97157468, 44.1280161], [39.97162099, 44.12794013], [39.97449422, 44.12707653], [39.97844841, 44.11552844], [39.9802636, 44.11329096], [39.98027492, 44.11326698], [39.98058526, 44.1128286], [39.98305085, 44.10961394], [39.98307464, 44.10962753], [39.98147166, 44.10742526], [39.98075678, 44.1021848], [39.98229802, 44.09928098], [39.98330486, 44.09837915], [39.98448432, 44.09769233], [39.98460096, 44.09767003], [39.98659643, 44.09588089], [39.98771942, 44.09542256], [39.98790334, 44.09536094], [39.9883078, 44.09401441], [39.98812335, 44.0935536], [39.98709811, 44.09212392], [39.98708346, 44.09210459], [39.98707848, 44.09206695], [39.98704917, 44.09202198], [39.9869682, 44.09197467], [39.98649507, 44.09154355], [39.98641776, 44.09151891], [39.98635345, 44.09150894], [39.98685874, 44.09075992], [39.98924245, 44.08956667], [39.98944932, 44.08944277], [39.99027188, 44.08927431], [39.99032554, 44.08927431], [39.99054983, 44.08917806], [39.99070885, 44.08899755], [39.99093444, 44.08894829], [39.9909481, 44.08894229], [39.99102906, 44.08889332], [39.99129557, 44.08861616], [39.99168437, 44.0882877], [39.99162676, 44.08808478], [39.9916241, 44.08807212], [39.99162941, 44.0880368], [39.9916464, 44.08744206], [39.99180898, 44.08735012], [39.99181998, 44.08734213], [39.99188291, 44.08697864], [39.99159378, 44.08651151], [39.99158312, 44.08650351], [39.99154313, 44.08648785], [39.99150882, 44.08644554], [39.99154245, 44.08626298], [39.99144662, 44.08549775], [39.99144701, 44.08551922], [39.99140621, 44.08505729], [39.99137326, 44.08498902], [39.99232085, 44.08506408], [39.99318095, 44.08444303], [39.99342684, 44.08431346], [39.99541342, 44.08352886], [39.99543208, 44.08351653], [39.9977152, 44.08213743], [39.99920897, 44.08034056], [39.99924529, 44.0803329], [40.00145224, 44.08090964], [40.00186717, 44.08098973], [40.0028435, 44.08143927], [40.01018992, 44.0775398], [40.01017159, 44.07759779], [40.01016461, 44.07757181], [40.01016794, 44.07756048], [40.01017594, 44.07754815], [40.01123823, 44.07651412]]}, "properties": {"name": "Track"}}]}