{"type": "FeatureCollection", "features": [{"type": "Feature", "geometry": {"type": "LineString", "coordinates": [[45.55698366, 42.71848233], [45.55695666, 42.71849633], [45.55676045, 42.71864922], [45.55674446, 42.71867187], [45.55673513, 42.71868287], [45.55659487, 42.71889246], [45.55659553, 42.71890445], [45.55657091, 42.7193317], [45.55570729, 42.7186764], [45.5552921, 42.71843289], [45.55400435, 42.71774707], [45.55376442, 42.71761449], [45.55357015, 42.71753425], [45.55256205, 42.71703661], [45.55231445, 42.71692071], [45.55141004, 42.716504], [45.55031873, 42.7159164], [45.54854467, 42.71530632], [45.54631951, 42.71428113], [45.54631652, 42.71426914], [45.54632151, 42.71420483], [45.54616427, 42.71389841], [45.54617549, 42.71390236], [45.54618373, 42.71391295], [45.54564324, 42.71405068], [45.54375791, 42.71879934], [45.54585354, 42.7211857], [45.5458259, 42.72155754], [45.54583189, 42.72156653], [45.54587583, 42.7215935], [45.54991655, 42.72127274], [45.54991456, 42.7212824], [45.54991755, 42.72129173], [45.55022192, 42.72369832], [45.55020392, 42.72374229], [45.54738768, 42.72531573], [45.55010563, 42.7261795], [45.55011262, 42.72618683], [45.55056267, 42.7276225], [45.55057367, 42.7276185], [45.55058467, 42.7276195], [45.55059433, 42.72762316], [45.55063096, 42.72771378], [45.55057899, 42.72769247], [45.55055966, 42.72769114], [45.550538, 42.7276928], [45.54491297, 42.72874049], [45.54474436, 42.72887209], [45.53945339, 42.72982277], [45.53897322, 42.72950227], [45.53835007, 42.72927216], [45.53429412, 42.72930315], [45.53220291, 42.72727126], [45.53032879, 42.72839756], [45.53017036, 42.72951484], [45.53018785, 42.72950512], [45.53016833, 42.72950246], [45.5301479, 42.72952705], [45.53018388, 42.72950889], [45.53016373, 42.72952079], [45.53001939, 42.73477068], [45.52822709, 42.74038358], [45.52685144, 42.74290912], [45.52649255, 42.74290715], [45.52671018, 42.74444028], [45.52624138, 42.74482989], [45.52630213, 42.74479652], [45.52622952, 42.74483579], [45.52622403, 42.74484548], [45.52208285, 42.74550281], [45.52207052, 42.74549948], [45.52205786, 42.74549848], [45.52132344, 42.74963225], [45.5199973, 42.7498484], [45.51978616, 42.74973783], [45.51789074, 42.75042724], [45.51730068, 42.75083563], [45.512932, 42.75167405], [45.50902509, 42.75347944], [45.50894044, 42.75350308], [45.50890412, 42.7535064], [45.50887013, 42.75350408], [45.50873917, 42.75346379], [45.50796691, 42.75361736], [45.50794637, 42.75426971], [45.50756793, 42.75646381], [45.50785545, 42.75686893], [45.50796674, 42.75686892], [45.50827751, 42.7574183], [45.50827485, 42.75742963], [45.50826919, 42.75744096], [45.50855552, 42.75809657], [45.50863942, 42.75883694], [45.50946755, 42.75977447], [45.50948152, 42.75983411], [45.50947986, 42.75984577], [45.50871798, 42.76083956], [45.50849306, 42.76164282], [45.50851482, 42.76087482], [45.50850516, 42.76086682], [45.50849283, 42.76086183], [45.50835555, 42.7608808], [45.50834389, 42.76088813], [45.50824727, 42.76102308], [45.50823827, 42.76103174], [45.50822794, 42.76103807], [45.50821594, 42.76104207], [45.50788535, 42.76104038], [45.50787738, 42.76104963], [45.50788431, 42.76103279], [45.50788552, 42.76101558], [45.50788123, 42.76102583], [45.50787297, 42.76102418], [45.50796047, 42.76100849], [45.50797813, 42.76099983], [45.50799312, 42.76099583], [45.50800512, 42.76099583], [45.50801345, 42.76100183], [45.50806203, 42.7609892], [45.50805703, 42.76097987], [45.50804837, 42.76097454], [45.50803871, 42.76097388], [45.5078681, 42.76104229], [45.50867533, 42.76323105], [45.50880964, 42.76328866], [45.50898458, 42.76344557], [45.50898425, 42.76345623], [45.50898025, 42.76346689], [45.50897192, 42.76347689], [45.5089356, 42.76350354], [45.50889129, 42.76352385], [45.50560779, 42.7647229], [45.50519252, 42.76580817], [45.50503037, 42.76620765], [45.50502138, 42.76621831], [45.50494208, 42.76634826], [45.50498169, 42.76648151], [45.50515457, 42.76663968], [45.50540682, 42.76692355], [45.50441222, 42.76738214], [45.50439656, 42.76738947], [45.50438256, 42.76739813], [45.50425762, 42.76759971], [45.50391536, 42.76852164], [45.50389503, 42.76854264], [45.50386704, 42.76855863], [45.50385071, 42.76856363], [45.50383405, 42.76856529], [45.50381639, 42.76856496], [45.50374941, 42.76854765], [45.50373442, 42.76854032], [45.5037071, 42.768522], [45.50366646, 42.76847369], [45.50272322, 42.76792485], [45.50111971, 42.76707882], [45.50111806, 42.7670795]]}, "properties": {"name": "Track"}}]}