{"type": "FeatureCollection", "features": [{"type": "Feature", "geometry": {"type": "LineString", "coordinates": [[41.74295033, 43.475393], [41.74266185, 43.47519443], [41.74217919, 43.47445503], [41.74240975, 43.47415649], [41.74211761, 43.4737084], [41.74151158, 43.47321037], [41.74105176, 43.47309716], [41.74050797, 43.47333324], [41.74021622, 43.47371964], [41.7394805, 43.47394169], [41.73909697, 43.47391805], [41.73848748, 43.47357327], [41.73764062, 43.47111495], [41.73675759, 43.46989496], [41.73571119, 43.46786543], [41.73560305, 43.46732773], [41.73476235, 43.46734164], [41.73369923, 43.46664352], [41.73277351, 43.46676092], [41.73211858, 43.46736855], [41.73143115, 43.46768962], [41.72983832, 43.46768928], [41.72821176, 43.46713832], [41.72713671, 43.46720316], [41.72586676, 43.4670388], [41.72483811, 43.46710831], [41.72362584, 43.46732922], [41.72282475, 43.46756429], [41.72054669, 43.46798249], [41.71928169, 43.4684627], [41.71830036, 43.46892467], [41.7164653, 43.46915954], [41.71587018, 43.46891155], [41.7147139, 43.46890724], [41.713359, 43.46916209], [41.71223502, 43.46920701], [41.71111669, 43.46952266], [41.71009441, 43.47021892], [41.7095606, 43.47043438], [41.70939238, 43.47070961], [41.70802616, 43.47091587], [41.70706779, 43.47117885], [41.70495685, 43.47125414], [41.70587818, 43.4716308], [41.70590943, 43.47212018], [41.70521307, 43.47177418], [41.70428841, 43.47174719], [41.70346036, 43.47147157], [41.70206022, 43.4714197], [41.70150319, 43.47169902], [41.70069092, 43.47235694], [41.70123299, 43.47272107], [41.7021, 43.47252928], [41.70161388, 43.47315359], [41.70102672, 43.47316363], [41.69999118, 43.47386049], [41.69963927, 43.47389113], [41.69900451, 43.47356273], [41.69832336, 43.47356242], [41.69782224, 43.47332665], [41.6967026, 43.47305236], [41.69359561, 43.47269377], [41.69261166, 43.47323169], [41.69186865, 43.47323166], [41.69105904, 43.47357588], [41.68921578, 43.47362339], [41.68770272, 43.47387087], [41.68673938, 43.47417289], [41.68579635, 43.47435827], [41.68519516, 43.47430911], [41.6838779, 43.4744415], [41.68265898, 43.47489514], [41.68164162, 43.47508055], [41.68106251, 43.4749541], [41.67951037, 43.47539719], [41.67873396, 43.47545066], [41.67791456, 43.47574603], [41.6764171, 43.47607108], [41.67586971, 43.47635951], [41.67554726, 43.47680029], [41.673641, 43.4763565], [41.67258773, 43.47623277], [41.67147652, 43.47623343], [41.67010393, 43.47594149], [41.6686131, 43.47601498], [41.66761412, 43.47616325], [41.66630634, 43.47602891], [41.66526409, 43.47622185], [41.6639442, 43.47626538], [41.66285328, 43.47621683], [41.66226342, 43.47652987], [41.66111446, 43.4768345], [41.65967293, 43.47666759], [41.65652239, 43.47709472], [41.65537982, 43.47694982], [41.65480003, 43.47700616], [41.65360997, 43.47801451], [41.65234174, 43.47864633], [41.65215625, 43.47894585], [41.65164545, 43.47919602], [41.65115763, 43.47962715], [41.6509348, 43.48003798], [41.65007012, 43.48064429], [41.64791845, 43.48129256], [41.6473252, 43.48091735], [41.6465259, 43.4809905], [41.64474588, 43.48079365], [41.6433407, 43.48087623], [41.64280385, 43.48080733], [41.64240739, 43.48116511], [41.64166635, 43.48151584], [41.64053299, 43.48156501], [41.63949398, 43.48133103], [41.63747335, 43.48136786], [41.63637012, 43.48121828], [41.63479716, 43.48115081], [41.63346244, 43.48064541], [41.63238557, 43.48004356], [41.63189887, 43.47954418], [41.630799, 43.47877576], [41.62929399, 43.4785457], [41.62832176, 43.47813391], [41.62776446, 43.47803753], [41.62617115, 43.47717325], [41.62545649, 43.47703323], [41.62378738, 43.4765191], [41.62269886, 43.4760385], [41.62236674, 43.47598699], [41.62019104, 43.47619732], [41.61884303, 43.4759624], [41.61835358, 43.47596872], [41.61628342, 43.4764473], [41.61603829, 43.47664811], [41.61505377, 43.47682065], [41.61447139, 43.47682333], [41.61328221, 43.47750157], [41.61314739, 43.47774233], [41.6118217, 43.47743073], [41.61113101, 43.477478], [41.60993402, 43.47779378], [41.60954662, 43.47769886], [41.60857772, 43.47798636], [41.60806369, 43.47828505], [41.60734133, 43.47844774], [41.6062862, 43.47835656], [41.60563741, 43.47852862], [41.60464262, 43.47929299], [41.60376829, 43.47939317], [41.60269063, 43.47980518], [41.60185928, 43.48002083], [41.60051186, 43.48011321], [41.59991697, 43.47976826], [41.59939817, 43.47980245], [41.59834154, 43.48010874], [41.5973492, 43.48003491], [41.59633297, 43.47969662], [41.59502741, 43.48001387], [41.59378644, 43.4804052], [41.59280738, 43.48057732], [41.59218522, 43.48055671], [41.5906077, 43.48094991], [41.58961893, 43.48102881], [41.58862185, 43.48093328], [41.58819331, 43.48102053], [41.58703763, 43.48096501], [41.58577435, 43.48104813], [41.58363064, 43.48093146], [41.58323008, 43.48156474], [41.58288126, 43.48164422], [41.5816041, 43.4816346], [41.58136733, 43.48186903], [41.58001175, 43.48162378], [41.57933543, 43.4813621], [41.57893335, 43.48088576], [41.57826773, 43.48091301], [41.57796197, 43.48115673], [41.57810909, 43.48219352], [41.57802891, 43.48307284], [41.57846577, 43.48379333], [41.5781973, 43.48408826], [41.57869448, 43.48472181], [41.57849545, 43.48571608], [41.57846853, 43.48692027], [41.57876425, 43.48760131], [41.57878025, 43.48798079], [41.57922453, 43.48900572], [41.57873226, 43.48987957], [41.57903178, 43.49111942], [41.57834107, 43.49151581], [41.57819858, 43.49231644], [41.57923107, 43.49337361], [41.57975798, 43.4943222], [41.57976662, 43.49486833], [41.58063156, 43.49630602], [41.58100536, 43.49779252], [41.58121918, 43.498152], [41.58136298, 43.49917589], [41.58129949, 43.4998756], [41.58178249, 43.50043895], [41.58175749, 43.50112358], [41.58225793, 43.50145698], [41.58242227, 43.50199391], [41.58369195, 43.50365763], [41.58392635, 43.50516528], [41.58438516, 43.50633428], [41.58420835, 43.50713788], [41.5838014, 43.50800245], [41.5835262, 43.5083076], [41.58305765, 43.50946273], [41.58309127, 43.510396], [41.58282965, 43.51121787], [41.58254455, 43.51166588], [41.58210479, 43.51187799], [41.58224099, 43.51206011], [41.5817794, 43.51301316], [41.58091975, 43.51367581], [41.58052678, 43.51517092], [41.57976182, 43.51594943], [41.57953027, 43.51642686], [41.58001811, 43.51654167], [41.58051821, 43.51627956], [41.58100267, 43.51636373], [41.58096367, 43.51672858], [41.58035675, 43.51729082], [41.58003821, 43.51812481], [41.57933821, 43.51862612], [41.57913268, 43.51907358], [41.57852624, 43.51908553], [41.57789951, 43.51945056], [41.57768135, 43.51976905], [41.57706525, 43.5201706], [41.5772288, 43.52034301], [41.57685915, 43.52087199], [41.57699708, 43.52147966], [41.57688629, 43.52203245], [41.57642652, 43.52264122], [41.57509111, 43.52340801], [41.57500982, 43.52373087], [41.57379209, 43.52447735], [41.57381707, 43.52508916], [41.57364193, 43.52546899], [41.57357735, 43.52615837], [41.57402078, 43.52676879], [41.57519252, 43.52919738], [41.5749245, 43.52965873], [41.57547925, 43.52978466], [41.57598011, 43.5309999], [41.57612099, 43.53180427], [41.57602206, 43.53207016], [41.57624756, 43.53267992], [41.57588454, 43.53307892], [41.57580865, 43.53361842], [41.57549519, 43.53408625], [41.57487342, 43.534447], [41.57456762, 43.53503648], [41.57344362, 43.53527119], [41.57256826, 43.53459526], [41.5712657, 43.53407933], [41.57077921, 43.53380225], [41.56989403, 43.53300807], [41.56901664, 43.53146945], [41.56859184, 43.53103231], [41.56763015, 43.53047838], [41.56600131, 43.53009779], [41.56562114, 43.52966042], [41.56314395, 43.52803228], [41.56152052, 43.5273869], [41.56051616, 43.52685852], [41.55836995, 43.525437], [41.55794281, 43.52505954], [41.55781887, 43.52442083], [41.55815995, 43.52377978], [41.55804672, 43.52334759], [41.55699597, 43.52205045], [41.55707845, 43.52151864], [41.55694191, 43.52116877], [41.55638846, 43.52071432], [41.55603314, 43.52000524], [41.5558257, 43.51930547], [41.55490032, 43.51881012], [41.55409184, 43.517577], [41.55351862, 43.51632648], [41.55255263, 43.51553985], [41.55179918, 43.51512644], [41.55178185, 43.51488256], [41.54967915, 43.51355405], [41.54905423, 43.512898], [41.54900498, 43.51246024], [41.54795909, 43.51183179], [41.54744163, 43.51138936], [41.5467955, 43.51129412], [41.54630772, 43.51073604], [41.54544204, 43.51011965], [41.54445536, 43.50973362], [41.54315013, 43.50878379], [41.5423727, 43.50842705], [41.54200219, 43.50808089], [41.54165577, 43.50748145], [41.54150464, 43.50691633], [41.54055718, 43.50558809], [41.54011102, 43.50526758], [41.53943036, 43.50452557], [41.53896594, 43.5038231], [41.53818194, 43.5029851], [41.53677318, 43.50069689], [41.53637306, 43.50022512], [41.53548776, 43.49957476], [41.53386, 43.49877764], [41.5322219, 43.49763931], [41.53178777, 43.4972628], [41.53017731, 43.49618571], [41.52890514, 43.49496993], [41.52783471, 43.49379081], [41.52547151, 43.49241907], [41.52451579, 43.49199505], [41.5224541, 43.4914883], [41.52118414, 43.49138547], [41.51969058, 43.4911889], [41.51838467, 43.49094828], [41.51776487, 43.49071949], [41.51692249, 43.49019383], [41.51603945, 43.48884954], [41.51553497, 43.48885718], [41.51500189, 43.48851486], [41.5146131, 43.48848158]]}, "properties": {"name": "Track"}}]}