{"type": "FeatureCollection", "features": [{"type": "Feature", "geometry": {"type": "LineString", "coordinates": [[45.70448766, 42.661617], [45.70377071, 42.66178383], [45.70390194, 42.66123648], [45.70298368, 42.66170318], [45.70306439, 42.66256363], [45.70180411, 42.66335715], [45.70125245, 42.6641938], [45.70074368, 42.66467691], [45.70085164, 42.66494814], [45.70156732, 42.6655122], [45.70005738, 42.66674582], [45.70026367, 42.66692369], [45.70100875, 42.66670755], [45.70014467, 42.66800463], [45.69955287, 42.66863861], [45.69908758, 42.66956224], [45.69837217, 42.66986101], [45.69774807, 42.67031674], [45.69671578, 42.67005971], [45.69616599, 42.66966294], [45.69543289, 42.66935049], [45.69383646, 42.66904102], [45.69248298, 42.66851382], [45.69183222, 42.66883955], [45.69151225, 42.66970524], [45.69066383, 42.67098763], [45.69036748, 42.67178268], [45.69035159, 42.6724238], [45.69104551, 42.67334877], [45.69155907, 42.67433974], [45.69155775, 42.67467062], [45.69076975, 42.67529768], [45.69042786, 42.6769366], [45.68963753, 42.67674461], [45.68928963, 42.67687951], [45.68860017, 42.67804568], [45.68837631, 42.67862207], [45.68883781, 42.6787672], [45.68834608, 42.67943455], [45.6885449, 42.67990864], [45.68787682, 42.68094577], [45.68535796, 42.68221286], [45.68353189, 42.68253024], [45.68291641, 42.68253853], [45.68194271, 42.68229449], [45.68065142, 42.68231777], [45.67965641, 42.68288907], [45.6792401, 42.68369406], [45.67848669, 42.68403544], [45.67768296, 42.68421847], [45.67756673, 42.68483419], [45.6756, 42.68557543], [45.67509528, 42.68624648], [45.67497951, 42.68707755], [45.6744837, 42.68733436], [45.67326609, 42.68757792], [45.67149473, 42.68773207], [45.66982915, 42.68794505], [45.66941563, 42.68811419], [45.66832182, 42.68910765], [45.66768591, 42.68998162], [45.66664223, 42.69044632], [45.66628339, 42.69078251], [45.66547634, 42.69107795], [45.66495553, 42.69155369], [45.66370098, 42.69229785], [45.66222581, 42.69251438], [45.66122834, 42.69242912], [45.66127264, 42.69275396], [45.66093045, 42.69310714], [45.66005479, 42.69341045], [45.65969631, 42.69374462], [45.65886592, 42.6938632], [45.65843874, 42.69417039], [45.65779452, 42.69530132], [45.65682385, 42.69571499], [45.65633482, 42.69642938], [45.65619485, 42.69737547], [45.65616989, 42.69841355], [45.65627247, 42.69882709], [45.65559848, 42.69960307], [45.6544865, 42.6996353], [45.65401732, 42.69984982], [45.65297906, 42.70066875], [45.65226133, 42.70084587], [45.65148091, 42.70129095], [45.65048566, 42.70218152], [45.64843266, 42.70306484], [45.64703549, 42.70301202], [45.64666036, 42.70347512], [45.64623282, 42.70365467], [45.6454374, 42.70367767], [45.64505726, 42.70309995], [45.64476008, 42.7031663], [45.64477975, 42.70367379], [45.64441123, 42.70368476], [45.64422449, 42.70305829], [45.64358978, 42.70271222], [45.6428748, 42.70206868], [45.64206972, 42.7021393], [45.6416129, 42.70233481], [45.64071619, 42.70241427], [45.6401304, 42.70217882], [45.6397513, 42.70172101], [45.63885199, 42.70106346], [45.63721655, 42.70085424], [45.63624921, 42.70118627], [45.63565075, 42.7009398], [45.63514191, 42.70092447], [45.63331398, 42.70048327], [45.63230307, 42.70035032], [45.63131608, 42.70081262], [45.63099696, 42.70127797], [45.63073411, 42.70130564], [45.63091029, 42.70051028], [45.63152161, 42.69970364], [45.63193244, 42.69941144], [45.63146661, 42.69936345], [45.62975212, 42.69991822], [45.62902936, 42.70040627], [45.6287398, 42.70035632], [45.62842341, 42.69975528], [45.62913785, 42.69939478], [45.62910719, 42.69909261], [45.6282398, 42.69941937], [45.62772696, 42.69946857], [45.62545138, 42.70023887], [45.62424944, 42.70024453], [45.62396589, 42.70001204], [45.62497792, 42.69967038], [45.62478101, 42.69936755], [45.62419851, 42.69920403], [45.62276122, 42.69901373], [45.62234738, 42.69904107], [45.62167966, 42.69942351], [45.62141983, 42.69911764], [45.62151407, 42.69873778], [45.6223974, 42.69820177], [45.62358908, 42.69730306], [45.62364267, 42.69703214], [45.62330271, 42.69603244], [45.62348962, 42.69584818], [45.62490915, 42.69544629], [45.62533867, 42.69508182], [45.62609578, 42.69532191], [45.62635406, 42.69496667], [45.62604495, 42.69444654], [45.62538851, 42.69418073], [45.6240414, 42.69404706], [45.62336535, 42.6938246], [45.62280086, 42.6934575], [45.62168355, 42.69327415], [45.62081311, 42.6934119], [45.61996101, 42.69335203], [45.61873341, 42.69366698], [45.61652683, 42.69463596], [45.6147523, 42.69504218], [45.61397754, 42.69547094], [45.61304791, 42.6963679], [45.61195905, 42.69755383], [45.61297101, 42.69799147], [45.61392929, 42.69872608], [45.61360482, 42.69906726], [45.61391964, 42.69964065], [45.61436181, 42.69999617], [45.6137477, 42.70039732], [45.6122828, 42.70079922], [45.61162533, 42.70086138], [45.61079361, 42.70112612], [45.60960396, 42.70099831], [45.60866385, 42.70111991], [45.60799208, 42.70161538], [45.60600042, 42.70235671], [45.60501808, 42.70254051], [45.60444606, 42.70338883], [45.60431657, 42.70380936], [45.60348796, 42.70471865], [45.60298271, 42.70567957], [45.60255665, 42.70603571], [45.60205877, 42.70720261], [45.60146399, 42.70725491], [45.60144697, 42.70680303], [45.6018841, 42.70625925], [45.60196791, 42.70574811], [45.60092699, 42.70609882], [45.5996908, 42.70626323], [45.59948548, 42.70722088], [45.59901742, 42.70769025], [45.5988015, 42.7075973], [45.59888907, 42.70657126], [45.59806317, 42.70564307], [45.59814644, 42.70529091], [45.59903779, 42.70485088], [45.59722766, 42.70493953], [45.59607566, 42.70474347], [45.59535253, 42.70493268], [45.59443319, 42.70574305], [45.59317691, 42.70628939], [45.59218684, 42.70652879], [45.59083927, 42.70712395], [45.58982069, 42.70725532], [45.58918699, 42.70795668], [45.58836726, 42.70841643], [45.58728734, 42.70878002], [45.58632626, 42.70890254], [45.58566263, 42.70955721], [45.58579088, 42.70969513], [45.58712482, 42.70929554], [45.58727144, 42.70943648], [45.58569606, 42.71067792], [45.58420557, 42.71142381], [45.58294247, 42.71343236], [45.58340495, 42.71400111], [45.58326206, 42.71438697], [45.58266708, 42.71514408], [45.58330316, 42.716004], [45.58177361, 42.71605528], [45.58144922, 42.71676836], [45.58088974, 42.71718551], [45.57987404, 42.71771122], [45.57951064, 42.71838929], [45.57878097, 42.71930455], [45.57894983, 42.71965843], [45.57817148, 42.72015407], [45.57746965, 42.72131525], [45.57737052, 42.72240927], [45.57711927, 42.72362889], [45.57651633, 42.72469388], [45.57647237, 42.72553257], [45.57532488, 42.72675491], [45.57493403, 42.72706877], [45.57317425, 42.72806823], [45.57249123, 42.72864733], [45.57244659, 42.72892315], [45.57143556, 42.72900625], [45.5705599, 42.72947763], [45.57137923, 42.73217506], [45.57169377, 42.73253722], [45.57294537, 42.73335661], [45.57244216, 42.73325978], [45.57173814, 42.73275478], [45.5710277, 42.73254635], [45.57000737, 42.73244833], [45.56891272, 42.73197573], [45.56778907, 42.73233939], [45.56715062, 42.73235971], [45.56633353, 42.73183266], [45.5654721, 42.73168129], [45.56440338, 42.73180679], [45.56413714, 42.73151224], [45.5654997, 42.73072109], [45.56547376, 42.73033388], [45.5648796, 42.72914873], [45.5645121, 42.72877454], [45.56307956, 42.72791237], [45.55996126, 42.72678315], [45.55949642, 42.72639066], [45.55861552, 42.72519713], [45.55804309, 42.72376224], [45.55798492, 42.72332604], [45.55744889, 42.7218383], [45.5571401, 42.72023582], [45.55668246, 42.71942223], [45.55663483, 42.71890112], [45.55708531, 42.71846029], [45.5572082, 42.7180581], [45.55764304, 42.71796891]]}, "properties": {"name": "Track"}}]}