{"type": "FeatureCollection", "features": [{"type": "Feature", "geometry": {"type": "LineString", "coordinates": [[48.11194933, 42.02505], [48.10928079, 42.02353323], [48.10926213, 42.02351824], [48.1092478, 42.02351291], [48.10881026, 42.02345471], [48.1053772, 42.02270984], [48.10508062, 42.02255893], [48.10506329, 42.02255427], [48.10504429, 42.02255228], [48.10500497, 42.0225546], [48.10491566, 42.0225649], [48.104902, 42.02256856], [48.10487369, 42.02259155], [48.10277547, 42.02495922], [48.1024226, 42.0251431], [48.10065291, 42.02594776], [48.09875398, 42.02658669], [48.09874799, 42.02659535], [48.09851072, 42.02669458], [48.09850339, 42.02670191], [48.09780762, 42.02680249], [48.09773133, 42.02686879], [48.09771633, 42.02687912], [48.09740778, 42.02703101], [48.09725382, 42.02712393], [48.09666268, 42.02721345], [48.09495493, 42.02666679], [48.09493194, 42.02665347], [48.09461638, 42.02665447], [48.09288713, 42.02706785], [48.09273453, 42.02722245], [48.0923821, 42.02767783], [48.09237577, 42.02768849], [48.09179697, 42.02786301], [48.09175998, 42.02787899], [48.09107821, 42.02818246], [48.08956323, 42.02877842], [48.0882407, 42.02943157], [48.08610372, 42.03048315], [48.08527865, 42.03060899], [48.08502803, 42.03089849], [48.08500922, 42.03090245], [48.08500757, 42.03089947], [48.08501549, 42.03089055], [48.08502241, 42.03089022], [48.08493006, 42.0308803], [48.08493007, 42.03086116], [48.08493867, 42.03087668], [48.08492333, 42.03089652], [48.08445872, 42.03067874], [48.08429812, 42.03069838], [48.08423881, 42.03068407], [48.08291718, 42.02959241], [48.0822414, 42.02906202], [48.08220809, 42.02901737], [48.08117018, 42.0280858], [48.08107954, 42.02800984], [48.08085196, 42.02778394], [48.07946655, 42.02679855], [48.07949781, 42.02672632], [48.07870016, 42.02602139], [48.07868783, 42.02601873], [48.07861819, 42.02603236], [48.0786022, 42.0260307], [48.07858787, 42.02602571], [48.07834652, 42.02423781], [48.07610701, 42.02089406], [48.07610568, 42.0208854], [48.07320288, 42.01466129], [48.07191849, 42.01327056], [48.07181055, 42.01315361], [48.06987187, 42.00996375], [48.06638009, 42.00345626], [48.06402231, 42.00052165], [48.06392435, 42.00049034], [48.06349548, 42.00025113], [48.06274938, 42.00005308], [48.06163579, 41.99952556], [48.06153182, 41.99948059], [48.0603501, 41.99914229], [48.05876767, 41.9985298], [48.05805723, 41.99829238], [48.05782865, 41.9982188], [48.05774801, 41.99821082], [48.05755772, 41.99823476], [48.05750473, 41.99822678], [48.05717582, 41.9980329], [48.05716249, 41.99802257], [48.0571315, 41.99800625], [48.05709551, 41.99799626], [48.05687858, 41.99795666], [48.05566901, 41.99736671], [48.05361512, 41.99764798], [48.05352486, 41.99765828], [48.05350988, 41.9976343], [48.05260554, 41.99753544], [48.04847383, 41.99583708], [48.04806663, 41.99567718], [48.04805497, 41.99566918], [48.04804764, 41.99566019], [48.04730241, 41.99529482], [48.04710148, 41.99529283], [48.04678825, 41.99539976], [48.04675259, 41.99540841], [48.04411013, 41.9951198], [48.04240729, 41.99513457], [48.03953011, 41.99552403], [48.03779702, 41.99538869], [48.03551469, 41.99568798], [48.03547569, 41.99568232], [48.03547237, 41.99567725], [48.03551808, 41.99581941], [48.03552263, 41.99583225], [48.03550524, 41.99584846], [48.03380019, 41.99603903], [48.03376886, 41.99604568], [48.03354561, 41.99604502], [48.03334166, 41.99613261], [48.0329075, 41.99654877], [48.03287985, 41.99656576], [48.03205843, 41.99662828], [48.03164024, 41.99659734], [48.02822187, 41.99530776], [48.02837647, 41.99540727], [48.0208056, 41.99386525], [48.02037825, 41.99242254], [48.0202883, 41.99230426], [48.02017938, 41.99213732], [48.02016705, 41.99213066], [48.02015372, 41.992128], [48.02015035, 41.99203304], [48.02013802, 41.99201471], [48.02012669, 41.99200838], [48.02011336, 41.99200572], [48.00929488, 41.99339405], [48.00721286, 41.99566544], [48.00697494, 41.99574803], [48.00683399, 41.99580565], [48.00120072, 41.99748973], [48.00118806, 41.99750006], [48.00110977, 41.99759268], [48.00110378, 41.99760401], [48.00110079, 41.997616], [48.00134375, 41.9984784], [48.00134242, 41.99849173], [48.00133843, 41.99850372], [48.00133077, 41.99851505], [48.00127912, 41.99855203], [48.00118588, 41.99862565], [48.00117722, 41.99861465], [48.00116523, 41.99860665], [48.00115157, 41.99860132], [47.99701829, 41.99766999], [47.99697098, 41.99766766], [47.99418715, 41.99893646], [47.99349879, 42.00045182], [47.9934688, 42.00046715], [47.9934558, 42.00047614], [47.99308966, 42.00096424], [47.99308101, 42.00103255], [47.99130253, 42.0032387], [47.99125124, 42.00334366], [47.99124024, 42.00335166], [47.99122558, 42.00335799], [47.99120958, 42.00336165], [47.98993027, 42.00345484], [47.98987529, 42.00346216], [47.98864362, 42.00300635], [47.98844501, 42.00296342], [47.9865332, 42.00172073], [47.98636593, 42.00171175], [47.98379856, 42.00247493], [47.98216449, 42.00297872], [47.98191689, 42.00292714], [47.97553239, 42.00125084], [47.97538409, 42.00131173], [47.97538375, 42.0012929], [47.97539899, 42.00131747], [47.97539238, 42.00130065], [47.97537341, 42.00126676], [47.97539518, 42.00129417], [47.97379461, 42.00026171], [47.97377895, 42.00026537], [47.97352537, 42.00040659], [47.97350737, 42.00040825], [47.97347238, 42.00040293], [47.97345539, 42.00039593], [47.97185153, 41.99963446], [47.96856253, 41.99841247], [47.95916755, 41.9995218], [47.9542308, 42.00011291], [47.95099624, 42.00114197], [47.94865427, 42.00162672], [47.94635243, 41.99979943], [47.94631078, 41.99978979], [47.94437935, 42.00042196], [47.94411385, 42.00048027], [47.94314502, 42.00095214], [47.92333092, 41.99238893], [47.92334381, 41.9923767], [47.91903401, 41.99096401], [47.91771736, 41.99216263], [47.91765937, 41.99215798], [47.90685589, 41.98900083], [47.90330204, 41.98844605], [47.90323372, 41.98843541], [47.90294482, 41.98825318], [47.90290483, 41.98819454], [47.90249563, 41.9880726], [47.90238267, 41.98811492], [47.90236801, 41.98812258], [47.90227206, 41.98823154], [47.90198964, 41.9887979], [47.90158311, 41.98910007], [47.90157778, 41.98911473], [47.90157312, 41.98917138], [47.90157578, 41.98918571], [47.90158111, 41.98919871], [47.90202892, 41.98962686], [47.9024591, 41.98973473], [47.90320685, 41.99007282], [47.90340613, 41.99008643], [47.90345845, 41.99010709], [47.90353241, 41.99017239], [47.90354272, 41.99021204], [47.90333016, 41.99050661], [47.90345172, 41.99079718], [47.90352302, 41.99089447], [47.90351699, 41.99151761], [47.90331275, 41.99167821], [47.90312946, 41.99175582], [47.90311313, 41.99175416], [47.9030968, 41.99175017], [47.90238501, 41.9915797], [47.90155093, 41.99148357], [47.90120837, 41.99137498], [47.90118804, 41.99137199], [47.89990015, 41.9914083], [47.89986683, 41.99140963], [47.8996417, 41.99134837], [47.8997327, 41.99125304], [47.89977601, 41.99098832], [47.89977368, 41.99097466], [47.89976036, 41.99095134], [47.89975604, 41.99040091], [47.89990232, 41.99021768], [47.89989699, 41.99020768], [47.89982674, 41.99021994], [47.89969221, 41.99030444], [47.89967989, 41.99025678], [47.89989438, 41.99038054], [47.89987039, 41.99039086], [47.89978042, 41.99040149], [47.89975809, 41.99041815], [47.89974876, 41.99043115], [47.89971811, 41.9905419], [47.8997311, 41.99053557], [47.8997411, 41.99052591], [47.89974943, 41.99051391], [47.89966954, 41.99023075], [47.89891184, 41.98959493], [47.8988459, 41.98941197], [47.89878993, 41.98933766], [47.8987686, 41.98931434], [47.89872828, 41.98928736], [47.89871928, 41.98927636], [47.89862537, 41.98906877], [47.89860005, 41.98904644], [47.89845442, 41.98898113], [47.89833147, 41.98891784], [47.89831347, 41.98891418], [47.89805858, 41.98874028], [47.89800893, 41.98871096], [47.89794462, 41.98868931], [47.89747652, 41.98843738], [47.89746719, 41.98845371], [47.89745619, 41.98846771], [47.89702235, 41.98876987], [47.89700602, 41.9887712], [47.89628958, 41.98848043], [47.89608598, 41.98853305], [47.89607232, 41.98854138], [47.89378193, 41.9883609], [47.88377678, 41.99411275], [47.88301281, 41.99436033], [47.88203991, 41.99454047], [47.87944255, 41.99539665], [47.879187, 41.99517744], [47.87903008, 41.99505816], [47.87889913, 41.9950728], [47.87889347, 41.99508346], [47.87913699, 41.99684424], [47.87916165, 41.99684756], [47.87917331, 41.9968449], [47.87933192, 41.99686391], [47.87946921, 41.99698645]]}, "properties": {"name": "Track"}}]}