{"type": "FeatureCollection", "features": [{"type": "Feature", "geometry": {"type": "LineString", "coordinates": [[39.89347866, 43.93056933], [39.89301358, 43.93104271], [39.89110362, 43.93147288], [39.89038566, 43.93216005], [39.890372, 43.93216071], [39.89028269, 43.93213908], [39.89026669, 43.93214141], [39.88740498, 43.93373194], [39.88740097, 43.93379591], [39.88662018, 43.93367135], [39.88631525, 43.9342784], [39.88631326, 43.93428873], [39.88630526, 43.93429906], [39.88628194, 43.93431738], [39.88627394, 43.93432871], [39.88627161, 43.93434104], [39.88626828, 43.93441366], [39.88568855, 43.93442033], [39.88567055, 43.93442], [39.88562223, 43.93443066], [39.88503682, 43.9346302], [39.88503516, 43.93464253], [39.88505081, 43.93467485], [39.88505447, 43.93470051], [39.88504415, 43.93472583], [39.88503349, 43.93473383], [39.88430042, 43.93464695], [39.88386524, 43.93484087], [39.88348376, 43.93452234], [39.88301758, 43.9342455], [39.88196409, 43.93343042], [39.88087523, 43.93253433], [39.88086524, 43.93250834], [39.87914947, 43.93106459], [39.87913514, 43.93105993], [39.87787988, 43.93039175], [39.8778259, 43.93039907], [39.87773426, 43.93045271], [39.87771826, 43.93045771], [39.8777016, 43.93045937], [39.87768527, 43.93045671], [39.87757036, 43.93029782], [39.87710285, 43.93018227], [39.87676365, 43.92997873], [39.8765142, 43.92993251], [39.87637528, 43.92981219], [39.87644786, 43.92997094], [39.87637955, 43.9298407], [39.87553789, 43.92929997], [39.8731221, 43.92948329], [39.87262562, 43.92956924], [39.87167498, 43.92984332], [39.87165932, 43.92984732], [39.8712052, 43.93000651], [39.86916062, 43.92835461], [39.86896935, 43.92825969], [39.86651119, 43.92711082], [39.86575452, 43.92707084], [39.86490441, 43.92596292], [39.86228327, 43.9249301], [39.8606489, 43.9251134], [39.86062558, 43.92512172], [39.8605573, 43.92503143], [39.86029571, 43.92500113], [39.86028605, 43.92499547], [39.86028073, 43.92496515], [39.86028805, 43.92493816], [39.85983425, 43.92426989], [39.85982059, 43.92426356], [39.85980993, 43.92425457], [39.85937197, 43.92229527], [39.85855848, 43.92090022], [39.85829922, 43.92085296], [39.85828323, 43.92084696], [39.85822491, 43.92081165], [39.85740466, 43.92012043], [39.85740359, 43.91991192], [39.85743725, 43.919744], [39.85701692, 43.91908036], [39.85537891, 43.91734293], [39.85497276, 43.91716277], [39.85377716, 43.91702894], [39.85128474, 43.9170094], [39.85090358, 43.91730926], [39.85088958, 43.91731592], [39.85087492, 43.91731658], [39.85075598, 43.91729028], [39.84947643, 43.91678966], [39.84946577, 43.91678166], [39.84932983, 43.91664939], [39.84920687, 43.91662709], [39.84899096, 43.91648782], [39.84672612, 43.91361226], [39.84686102, 43.91345767], [39.8468883, 43.91305221], [39.84617199, 43.91216728], [39.84545475, 43.91159368], [39.84530684, 43.91140915], [39.84526652, 43.91138683], [39.84465751, 43.91110476], [39.84451195, 43.91096421], [39.84426241, 43.91082362], [39.84319999, 43.9103054], [39.84209179, 43.90884836], [39.84190964, 43.90864487], [39.84153728, 43.90807525], [39.84151163, 43.90806059], [39.84149664, 43.9080576], [39.84143299, 43.90806491], [39.84093993, 43.90788643], [39.84087724, 43.90723433], [39.840794, 43.90696481], [39.84119446, 43.9039724], [39.84064892, 43.90211222], [39.83883965, 43.90265094], [39.83800996, 43.90278346], [39.83706338, 43.9027443], [39.83223667, 43.90033108], [39.82884703, 43.9002918], [39.82866117, 43.89999878], [39.82387074, 43.89408444], [39.81982073, 43.89063501], [39.81956878, 43.89070192], [39.81983096, 43.89065233], [39.82073507, 43.88940971], [39.8209082, 43.88910723], [39.82488132, 43.88106114], [39.82498529, 43.88101586], [39.81561077, 43.87638758], [39.81559577, 43.87428272], [39.81536666, 43.87339068], [39.81084655, 43.87227032], [39.81096984, 43.87235624], [39.80774968, 43.87258357], [39.80773535, 43.87259256], [39.80770636, 43.87262355], [39.80641925, 43.87247265], [39.80475219, 43.87244776], [39.80341926, 43.87213791], [39.79568525, 43.87108427], [39.79204902, 43.87101374], [39.78970007, 43.87125316], [39.78955512, 43.87125948], [39.78326442, 43.87121964], [39.77950202, 43.87040437], [39.77918211, 43.87033479], [39.77826946, 43.86966313], [39.77570189, 43.86919962], [39.77523106, 43.86903776], [39.77484452, 43.86878757], [39.77446425, 43.86799764], [39.77449355, 43.86790468], [39.77440133, 43.86763612], [39.77435936, 43.86735754], [39.77302324, 43.86588685], [39.77301091, 43.86587886], [39.77261178, 43.86486855], [39.77165981, 43.86386239], [39.77159917, 43.86381207], [39.77158951, 43.86379774], [39.7715342, 43.86375709], [39.77148055, 43.86374344], [39.76918053, 43.86044283], [39.76781504, 43.85974518], [39.76767309, 43.85967555], [39.76709991, 43.85970984], [39.76704027, 43.85969986], [39.76594141, 43.8587177], [39.7657668, 43.85864642], [39.76575247, 43.85863676], [39.76544359, 43.85831329], [39.7654266, 43.85825964], [39.76536566, 43.85813738], [39.76526437, 43.85807576], [39.76489824, 43.85806773], [39.76482326, 43.85806041], [39.76470198, 43.85800477], [39.76562572, 43.85665139], [39.76569634, 43.85525159], [39.76567702, 43.85520694], [39.7656417, 43.85517495], [39.76493247, 43.85427068], [39.76472586, 43.8542201], [39.76461358, 43.85407252], [39.76449699, 43.85390426], [39.7644637, 43.85378331], [39.76445437, 43.85376898], [39.76427751, 43.85340011], [39.76441541, 43.85296593], [39.7647363, 43.85263639], [39.76476094, 43.85258109], [39.76463877, 43.85158743], [39.76471209, 43.85148281], [39.76572938, 43.85085284], [39.7659103, 43.85062529], [39.76603127, 43.85055966], [39.76682616, 43.84960971], [39.76683482, 43.84959638], [39.76696741, 43.84897628], [39.76696408, 43.84896028], [39.76695675, 43.84894795], [39.76685679, 43.84888533], [39.76660968, 43.84803071], [39.76661968, 43.84801905], [39.76675757, 43.84763887], [39.76671393, 43.8475329], [39.76676819, 43.84702107], [39.76615757, 43.84572025], [39.76613228, 43.84559661], [39.76578924, 43.84446802], [39.76575926, 43.84443138], [39.76556239, 43.8440025], [39.7654861, 43.84392485], [39.76594089, 43.84300941], [39.76542797, 43.84259576], [39.7647272, 43.84250323], [39.7643392, 43.84148768], [39.76408271, 43.84105053], [39.76387813, 43.84095158], [39.76356227, 43.84067039], [39.76307374, 43.84078298], [39.76305741, 43.84078464], [39.76303942, 43.84078064], [39.76282716, 43.84071404], [39.76150327, 43.84094809], [39.76067793, 43.84020411], [39.76042304, 43.8399569], [39.75977337, 43.83919653], [39.75964143, 43.83905659], [39.75918957, 43.83883139], [39.75792966, 43.83841536], [39.75744115, 43.83838136], [39.75544985, 43.83571619], [39.75543085, 43.83570153], [39.75539786, 43.8356712], [39.75538087, 43.83565954], [39.75536354, 43.83565088], [39.75476568, 43.83540775], [39.75269033, 43.83564619], [39.7512248, 43.83581612], [39.75116581, 43.83579847], [39.75114815, 43.83578848], [39.75113382, 43.83577582], [39.75112316, 43.83576316], [39.75111717, 43.8357515], [39.75111983, 43.83572651], [39.75139399, 43.83475559], [39.75137766, 43.83474026], [39.75134201, 43.83471593], [39.75132268, 43.83470594], [39.75130235, 43.83469794], [39.75115738, 43.83465598], [39.75035595, 43.83451876], [39.74967622, 43.83421096], [39.74967522, 43.83419563], [39.74967954, 43.83416464], [39.74916081, 43.83348861], [39.74913483, 43.83345129], [39.74846152, 43.83261964], [39.74818064, 43.83240176], [39.74598095, 43.83034589], [39.74520773, 43.8293586], [39.74481522, 43.82903276], [39.74469925, 43.82893114], [39.74292536, 43.82737493], [39.74280675, 43.82724331], [39.7424745, 43.82714274], [39.73952036, 43.82533917], [39.73814885, 43.82467593], [39.73712565, 43.82383535], [39.73557515, 43.82358052], [39.73523133, 43.82328237], [39.73514169, 43.82327273], [39.73494241, 43.8231938], [39.73490542, 43.82316448], [39.73411074, 43.82247283], [39.73369655, 43.82227295], [39.7337551, 43.82191673], [39.73373945, 43.82187241], [39.73372845, 43.82185908], [39.73369979, 43.82183809], [39.73368346, 43.8218321], [39.73359115, 43.82182545], [39.73286937, 43.82184481], [39.73264679, 43.82184773], [39.72717638, 43.82100919], [39.72689181, 43.8210421], [39.72538056, 43.82089159], [39.71908883, 43.81964374], [39.71907017, 43.81964607], [39.71882092, 43.81972665], [39.71530009, 43.8184992], [39.71233143, 43.81686059], [39.7123221, 43.8168516], [39.71238441, 43.81672799], [39.71400721, 43.8159862], [39.71408285, 43.81594055], [39.71417746, 43.81579827], [39.71420245, 43.81577762], [39.71468426, 43.81534247], [39.71515779, 43.81507927], [39.71228785, 43.81338167], [39.71060712, 43.81263084], [39.71057547, 43.81261351], [39.71055647, 43.81260818], [39.70876784, 43.81125183], [39.70867862, 43.81003848], [39.70785525, 43.80966776], [39.70739644, 43.80952723], [39.7039105, 43.8084184], [39.70379223, 43.8082861], [39.70194692, 43.80765845], [39.70112815, 43.80740892], [39.69899478, 43.8067679], [39.69874651, 43.8067649], [39.69826967, 43.80673861], [39.69555605, 43.80646817], [39.69478761, 43.8063057], [39.69358397, 43.8063454], [39.69346035, 43.80638603], [39.69017143, 43.80566086], [39.69021375, 43.80565121], [39.69023008, 43.80564388], [39.69033438, 43.80561257], [39.69041797, 43.80537401], [39.69004551, 43.80487834], [39.69004019, 43.80484668], [39.69004685, 43.80483535], [39.68797998, 43.80606125], [39.68216917, 43.801647], [39.68213385, 43.80160502], [39.68210386, 43.80159603], [39.67773039, 43.8008818], [39.67956139, 43.80449797], [39.67955406, 43.80448897], [39.6795494, 43.80447631], [39.6798875, 43.80441731]]}, "properties": {"name": "Track"}}]}