{"type": "FeatureCollection", "features": [{"type": "Feature", "geometry": {"type": "LineString", "coordinates": [[46.20793133, 42.67082533], [46.20731491, 42.67082233], [46.20645961, 42.6710809], [46.20472953, 42.67188737], [46.20422048, 42.67240711], [46.20383614, 42.6731625], [46.20111761, 42.67552179], [46.20032788, 42.67585982], [46.1991929, 42.67590792], [46.19582198, 42.67567487], [46.1931478, 42.67579095], [46.1915731, 42.67654826], [46.19122661, 42.67684109], [46.19086832, 42.67760704], [46.19112033, 42.67856231], [46.19114058, 42.67963948], [46.19157003, 42.6807963], [46.19167776, 42.68142398], [46.19255961, 42.68325704], [46.19268443, 42.68389614], [46.19241812, 42.6847191], [46.19298391, 42.68525482], [46.19292062, 42.68551037], [46.19086477, 42.6858107], [46.18987329, 42.6855488], [46.18712788, 42.68581643], [46.18664203, 42.68591028], [46.18538683, 42.68661877], [46.18373002, 42.68701561], [46.18191633, 42.68754459], [46.18078708, 42.68827374], [46.1786085, 42.6886774], [46.17691139, 42.68879663], [46.17454034, 42.68888009], [46.17292418, 42.68898898], [46.17135232, 42.68838654], [46.16996271, 42.68819823], [46.16784585, 42.68856512], [46.16666988, 42.68908105], [46.16591617, 42.68973813], [46.16566266, 42.6900973], [46.16515548, 42.69027747], [46.16320339, 42.6901862], [46.16176651, 42.69004325], [46.1599361, 42.69020219], [46.15713331, 42.69037716], [46.15591139, 42.69000021], [46.1552926, 42.68957045], [46.1546858, 42.68932863], [46.1535188, 42.68914563], [46.15250049, 42.688864], [46.15221799, 42.68950948], [46.15053921, 42.68912732], [46.15027534, 42.688441], [46.14869681, 42.68851132], [46.14817032, 42.68874948], [46.14768795, 42.68962353], [46.14724244, 42.68997102], [46.1467376, 42.69004889], [46.14617078, 42.68969941], [46.14501909, 42.68973554], [46.14439898, 42.68947442], [46.14397098, 42.68871474], [46.14333016, 42.68867012], [46.14259923, 42.68823358], [46.14144591, 42.68843089], [46.14031192, 42.68908811], [46.13913059, 42.68895266], [46.13866376, 42.68876954], [46.13861148, 42.68822545], [46.13769662, 42.6876949], [46.13739665, 42.68740044], [46.13783971, 42.68701822], [46.13756889, 42.68654407], [46.13758681, 42.68613459], [46.13724501, 42.68600966], [46.13635069, 42.68611222], [46.13635925, 42.68674204], [46.13511813, 42.68657571], [46.13482675, 42.68702329], [46.13306474, 42.68712459], [46.13262139, 42.68745464], [46.131923, 42.68724395], [46.13194058, 42.68693942], [46.13252324, 42.68641247], [46.13279532, 42.68593075], [46.1317267, 42.68574519], [46.13067407, 42.68586836], [46.12976676, 42.68537613], [46.12937419, 42.68496487], [46.12880683, 42.68467715], [46.12735476, 42.68448768], [46.12667031, 42.68431593], [46.12587708, 42.68436586], [46.12494141, 42.68468454], [46.12459954, 42.68493108], [46.12445972, 42.68536918], [46.12348377, 42.68568876], [46.12263019, 42.68539905], [46.1236094, 42.68510936], [46.12398312, 42.6846623], [46.12437934, 42.68363435], [46.12470577, 42.68319101], [46.12557491, 42.68272912], [46.12636957, 42.68218716], [46.12659697, 42.68179811], [46.12722378, 42.68199753], [46.12796657, 42.68184368], [46.12917923, 42.68078139], [46.12903699, 42.68055773], [46.1281741, 42.68039187], [46.12743223, 42.67963059], [46.12609325, 42.67847466], [46.1251854, 42.67752684], [46.12504302, 42.67688422], [46.12461228, 42.67667683], [46.12349174, 42.67658973], [46.12164235, 42.67655982], [46.1200886, 42.67623282], [46.11939414, 42.6762053], [46.11886198, 42.67635044], [46.11793724, 42.67626936], [46.11725789, 42.6760024], [46.11666714, 42.67558895], [46.1158234, 42.67542287], [46.11433528, 42.67576017], [46.11373585, 42.67671125], [46.11263858, 42.67689589], [46.1122631, 42.6771517], [46.11193297, 42.6769445], [46.11142608, 42.67616223], [46.10998453, 42.67547359], [46.10910779, 42.67536015], [46.10853535, 42.67511439], [46.10763098, 42.67507617], [46.10720568, 42.67520867], [46.1064769, 42.67510325], [46.10511932, 42.67525838], [46.10457259, 42.67464567], [46.10453901, 42.67371909], [46.10379065, 42.67386087], [46.10214344, 42.67353946], [46.10184939, 42.67426746], [46.10150328, 42.67468627], [46.10160293, 42.67506195], [46.1008667, 42.67572418], [46.10013726, 42.67577247], [46.09993636, 42.67597735], [46.1001775, 42.67649874], [46.09983864, 42.67662659], [46.09770259, 42.67616643], [46.0984637, 42.676133], [46.09887983, 42.67592025], [46.09864376, 42.67488118], [46.09823244, 42.67498885], [46.09816812, 42.67449594], [46.0979653, 42.67459593], [46.09794841, 42.67514332], [46.09766221, 42.67521094], [46.09677598, 42.67492098], [46.09440466, 42.67402469], [46.09400423, 42.67394948], [46.09241525, 42.67319153], [46.09192684, 42.67317424], [46.09046549, 42.67275979], [46.08902071, 42.67201639], [46.08861613, 42.67193879], [46.08853452, 42.6728717], [46.0875456, 42.67319162], [46.08660393, 42.67297431], [46.08575853, 42.67290312], [46.08600946, 42.67273897], [46.08708477, 42.67277414], [46.08686303, 42.67199093], [46.08739149, 42.67178274], [46.08660345, 42.67163337], [46.0859259, 42.67193491], [46.08449771, 42.67173866], [46.08385189, 42.67172403], [46.08239768, 42.67187215], [46.08130973, 42.67205373], [46.07947489, 42.67166198], [46.07796458, 42.67164135], [46.07701919, 42.67187735], [46.07649037, 42.6718497], [46.07484352, 42.67136329], [46.07394515, 42.67133333], [46.07335437, 42.67114345], [46.0735477, 42.67178996], [46.0741248, 42.67212101], [46.07339012, 42.67215862], [46.07371318, 42.67270562], [46.07596717, 42.67358449], [46.07727636, 42.67352969], [46.07764277, 42.67396448], [46.07749718, 42.67415237], [46.07660348, 42.67401296], [46.07559882, 42.67415537], [46.0746931, 42.6741683], [46.07425524, 42.6743125], [46.07292228, 42.67434615], [46.07216319, 42.67382643], [46.07111387, 42.67382712], [46.07074851, 42.67435852], [46.06956456, 42.67494045], [46.06825298, 42.67519442], [46.067941, 42.67509144], [46.06788139, 42.6745284], [46.06750119, 42.67456267], [46.06721571, 42.67408627], [46.06691859, 42.6743545], [46.06623835, 42.67430636]]}, "properties": {"name": "Track"}}]}