{"type": "FeatureCollection", "features": [{"type": "Feature", "geometry": {"type": "LineString", "coordinates": [[47.87935999, 41.99691933], [47.87901319, 41.9968434], [47.87874189, 41.99592025], [47.87786669, 41.99517943], [47.87749064, 41.99464376], [47.87698751, 41.99451099], [47.87625788, 41.99508196], [47.8757284, 41.99515783], [47.87551558, 41.99477375], [47.87386021, 41.99362143], [47.87395784, 41.99320116], [47.87271062, 41.99296535], [47.87085822, 41.99208612], [47.87076033, 41.9916871], [47.86995201, 41.991741], [47.86928059, 41.99146196], [47.867952, 41.99157473], [47.86611231, 41.99186779], [47.86569488, 41.99141638], [47.86434299, 41.99073618], [47.86325724, 41.98981622], [47.86271909, 41.98949944], [47.86287005, 41.98790087], [47.86280121, 41.98759706], [47.86198428, 41.98715182], [47.86203119, 41.98667269], [47.86099887, 41.98639863], [47.85984891, 41.98595206], [47.85926244, 41.98586214], [47.85801455, 41.98630042], [47.85719481, 41.98584933], [47.8566147, 41.98608075], [47.85520721, 41.98592727], [47.85439543, 41.98611805], [47.85382981, 41.98669614], [47.85223702, 41.98557995], [47.85178486, 41.98394016], [47.85060728, 41.98299433], [47.84999721, 41.98237957], [47.84938406, 41.98212747], [47.84850334, 41.98217005], [47.84699546, 41.9825139], [47.84615845, 41.9824984], [47.84455057, 41.98229057], [47.84197283, 41.98172238], [47.8413131, 41.98147938], [47.84012312, 41.9816588], [47.83934135, 41.98161732], [47.8383703, 41.98124489], [47.83811738, 41.98139113], [47.83673086, 41.98169045], [47.83538129, 41.98208433], [47.83452691, 41.98253669], [47.83434804, 41.98286725], [47.83377495, 41.98321702], [47.83245129, 41.98444107], [47.83213789, 41.98511814], [47.83135155, 41.98584615], [47.83022256, 41.98621907], [47.82884499, 41.98683961], [47.8283488, 41.98717777], [47.828182, 41.98760863], [47.82820262, 41.98874021], [47.82805535, 41.98884481], [47.82624896, 41.9888295], [47.82417362, 41.98907507], [47.82374676, 41.98921356], [47.82335641, 41.98973527], [47.82278397, 41.99004538], [47.82317032, 41.99067969], [47.82153792, 41.99196334], [47.8211148, 41.99215731], [47.82019286, 41.99134872], [47.81931943, 41.99045257], [47.81893245, 41.98967527], [47.81954942, 41.98913062], [47.82072422, 41.98860358], [47.82158106, 41.98798212], [47.82149783, 41.9876697], [47.81856353, 41.98690083], [47.8185883, 41.98656669], [47.81743438, 41.98658729], [47.81694226, 41.9864502], [47.81556835, 41.98653144], [47.81479139, 41.98609081], [47.8142079, 41.98624464], [47.81331484, 41.98610229], [47.81194533, 41.98628614], [47.81054296, 41.9861459], [47.81042247, 41.98632974], [47.80934073, 41.98640595], [47.80800227, 41.98681792], [47.80745176, 41.9867757], [47.80708495, 41.98649021], [47.80660823, 41.98648893], [47.80605934, 41.98611535], [47.80524954, 41.9860515], [47.80490596, 41.98632248], [47.80480777, 41.9857211], [47.805092, 41.98468994], [47.80494554, 41.98431612], [47.80522813, 41.98304321], [47.80567836, 41.98213128], [47.80566408, 41.98177148], [47.80456755, 41.98235331], [47.80313347, 41.98290304], [47.80237971, 41.98401113], [47.80226624, 41.98441358], [47.80146666, 41.98396969], [47.80107015, 41.98398402], [47.79978304, 41.98353158], [47.79936946, 41.98357495], [47.79854411, 41.98457994], [47.79845769, 41.98548009], [47.7985665, 41.9857332], [47.79789962, 41.98537218], [47.79740347, 41.98537952], [47.79637161, 41.98474843], [47.79557886, 41.9840434], [47.79504325, 41.98376847], [47.79395241, 41.98402471], [47.79316811, 41.98394349], [47.79261089, 41.9843224], [47.79224925, 41.9849634], [47.79231408, 41.98533986], [47.79187512, 41.98537717], [47.79057943, 41.98509967], [47.78981746, 41.98534594], [47.7891885, 41.98510366], [47.78956694, 41.9843053], [47.78994406, 41.98399388], [47.78973676, 41.98337693], [47.78869446, 41.98315208], [47.78790073, 41.98325181], [47.78667738, 41.9828443], [47.78646096, 41.98216387], [47.7861179, 41.98208848], [47.78544673, 41.98242769], [47.7842673, 41.98248582], [47.78259228, 41.98209922], [47.78217088, 41.98217198], [47.78077029, 41.98126552], [47.77921236, 41.98070693], [47.77793058, 41.98121808], [47.77672667, 41.98132649], [47.77539506, 41.98077793], [47.77496664, 41.9803289], [47.77397037, 41.97963786], [47.77304577, 41.97916099], [47.77216252, 41.97856902], [47.77090712, 41.97801531], [47.76817692, 41.97721386], [47.76703105, 41.97693695], [47.76574456, 41.97633851], [47.76471718, 41.9761462], [47.76349904, 41.97560113], [47.76245327, 41.97573298], [47.76143356, 41.97570082], [47.76069544, 41.9758119], [47.75932382, 41.97621224], [47.75745563, 41.97636954], [47.75643643, 41.9765908], [47.75553001, 41.97648175], [47.7552192, 41.97628861], [47.75372515, 41.97646692], [47.75255006, 41.97628183], [47.75175686, 41.97679401], [47.75107377, 41.97688089], [47.74986821, 41.97682458], [47.74963425, 41.97656326], [47.7487434, 41.97615372], [47.74819516, 41.97613076], [47.7465749, 41.97575396], [47.74578286, 41.97580046], [47.74517125, 41.97558689], [47.74438541, 41.97581219], [47.74415922, 41.97651494], [47.74204438, 41.97633451], [47.7417034, 41.97658786], [47.74159209, 41.97747596], [47.74121149, 41.97790384], [47.74144918, 41.9787907], [47.74065828, 41.97898888], [47.74052905, 41.97958724], [47.73984753, 41.97979528], [47.73884487, 41.9792953], [47.73832241, 41.97887571], [47.73847422, 41.97937818], [47.73914401, 41.98025601], [47.74005226, 41.98070888], [47.74113262, 41.98061265], [47.74141352, 41.98139219], [47.74209588, 41.98278654], [47.74316152, 41.98397081], [47.74314799, 41.98440357], [47.74281357, 41.98550544], [47.74297633, 41.98607918], [47.74287942, 41.98674354], [47.7421525, 41.98760209], [47.74114716, 41.98795645], [47.73998755, 41.98818178], [47.73950663, 41.98883974], [47.73967443, 41.98981546], [47.73916086, 41.99056739], [47.7385702, 41.99111137], [47.7375619, 41.99154458], [47.73652727, 41.9916263], [47.73579194, 41.99188912], [47.73499364, 41.99161981], [47.73406733, 41.99153134], [47.73267657, 41.99163976], [47.73213628, 41.99149907], [47.73154741, 41.99161544], [47.73127858, 41.99140796], [47.73063216, 41.99166483], [47.72755007, 41.99198752], [47.72657569, 41.99238115], [47.72557145, 41.99320372], [47.72494724, 41.99415662], [47.7234491, 41.99491273], [47.72266747, 41.99560438], [47.72179444, 41.99593574], [47.72075326, 41.99556581], [47.72014856, 41.99592082], [47.71974943, 41.99664195], [47.71937266, 41.99700634], [47.71936032, 41.99744668], [47.7199333, 41.99833936], [47.71979738, 41.99948922], [47.72000075, 41.99989818], [47.7198591, 42.00081427], [47.71909014, 42.00191475], [47.7193591, 42.00265843], [47.71874232, 42.00357493], [47.71945895, 42.00457169], [47.7196077, 42.00560776], [47.71917193, 42.00650613], [47.71835457, 42.00861775], [47.71759955, 42.00859146], [47.71613907, 42.00881612], [47.71518538, 42.00908344], [47.71384803, 42.00963387], [47.71340235, 42.00928576], [47.71435445, 42.00822947], [47.71374454, 42.0082129], [47.71273295, 42.00861595], [47.71138587, 42.00834256], [47.71094647, 42.00844172], [47.70949832, 42.00822533]]}, "properties": {"name": "Track"}}]}