{"type": "FeatureCollection", "features": [{"type": "Feature", "geometry": {"type": "LineString", "coordinates": [[40.96179, 43.64772233], [40.96173909, 43.6492788], [40.96173642, 43.64927613], [40.96177777, 43.64926686], [40.96145886, 43.64922264], [40.96047723, 43.64918499], [40.96046124, 43.64918499], [40.96116199, 43.65255195], [40.94991334, 43.65748981], [40.94252095, 43.66040892], [40.93278287, 43.65970883], [40.93321035, 43.65931519], [40.93321768, 43.65930719], [40.93321901, 43.65929919], [40.92956309, 43.65799765], [40.92614758, 43.6578885], [40.92194319, 43.65835366], [40.92191119, 43.65834834], [40.9072677, 43.65048925], [40.90677588, 43.6503856], [40.90483041, 43.64950117], [40.90480475, 43.64948252], [40.90465479, 43.64940057], [40.90334274, 43.64847184], [40.90026601, 43.64689692], [40.8996473, 43.64668782], [40.89871199, 43.64609679], [40.89829124, 43.64561038], [40.89813334, 43.64535417], [40.89784443, 43.64525227], [40.89752789, 43.64499974], [40.89732775, 43.64464659], [40.89732706, 43.64452628], [40.89679639, 43.64395726], [40.89647386, 43.64368975], [40.89604787, 43.64268103], [40.89561866, 43.64258848], [40.89536574, 43.64249888], [40.89502383, 43.64242199], [40.89390486, 43.64217064], [40.89383655, 43.64218295], [40.89335235, 43.64213268], [40.89333302, 43.64213035], [40.89244761, 43.6420006], [40.89205741, 43.6419214], [40.89194044, 43.6418841], [40.89184346, 43.64185113], [40.89032699, 43.64194536], [40.88822941, 43.64175643], [40.88808443, 43.64172346], [40.88764123, 43.64163491], [40.88567627, 43.64277434], [40.88433202, 43.64294504], [40.87968366, 43.64302791], [40.87763504, 43.6416225], [40.8758937, 43.64247505], [40.8754996, 43.6434477], [40.87552521, 43.64465524], [40.87549758, 43.64474985], [40.8739145, 43.6458182], [40.87371194, 43.64591677], [40.87308746, 43.64617189], [40.87273556, 43.64628043], [40.87271956, 43.64628743], [40.87246798, 43.64641835], [40.86966059, 43.64787697], [40.86853964, 43.64894237], [40.86852931, 43.64895337], [40.86829375, 43.64918658], [40.86828576, 43.64922857], [40.86806485, 43.64945781], [40.86803153, 43.64946946], [40.86789993, 43.64958973], [40.86584145, 43.65144818], [40.86530419, 43.65222208], [40.86519457, 43.65235403], [40.86518824, 43.65236902], [40.86491175, 43.65280783], [40.86403768, 43.65479074], [40.86408364, 43.65489969], [40.86376692, 43.65605095], [40.86281868, 43.6571495], [40.86277969, 43.65716416], [40.86180432, 43.65710494], [40.8615984, 43.65725819], [40.86139848, 43.65737178], [40.86113722, 43.65748871], [40.86060838, 43.65761894], [40.86056939, 43.65762227], [40.8595367, 43.65786299], [40.85863534, 43.65807345], [40.85818884, 43.65822399], [40.85621468, 43.66005019], [40.8562999, 43.66071354], [40.85629724, 43.66072387], [40.85598413, 43.6602024], [40.8559708, 43.66019807], [40.85476683, 43.66084965], [40.85288907, 43.66175602], [40.85081764, 43.66203315], [40.84976803, 43.66281677], [40.84961177, 43.66302001], [40.84950349, 43.66314894], [40.84946653, 43.66324491], [40.84945454, 43.66325657], [40.84937256, 43.66331621], [40.84920766, 43.66355911], [40.84859971, 43.66443311], [40.84675995, 43.66658953], [40.84581194, 43.66710117], [40.84530344, 43.66727136], [40.84502353, 43.66734661], [40.84371776, 43.66863273], [40.84350984, 43.66882064], [40.84323793, 43.6689139], [40.84233323, 43.66946052], [40.84232024, 43.66947085], [40.84231158, 43.66948185], [40.84122986, 43.66976755], [40.84123455, 43.6697759], [40.83923077, 43.67144333], [40.83872882, 43.67233229], [40.83331441, 43.67896339], [40.83154966, 43.68035235], [40.82850315, 43.68267184], [40.82784286, 43.68460454], [40.82748316, 43.68551251], [40.82747185, 43.68561913], [40.82736093, 43.68600799], [40.8272993, 43.68611592], [40.82678506, 43.68747902], [40.82662488, 43.68776558], [40.82693528, 43.68901212], [40.82783319, 43.69062071], [40.82780059, 43.69087764], [40.82780192, 43.69088997], [40.82792877, 43.69130784], [40.82781173, 43.69289057], [40.82772614, 43.6931215], [40.82769982, 43.69315616], [40.82750305, 43.6941122], [40.8261917, 43.69360111], [40.82533159, 43.69350933], [40.82505797, 43.69354699], [40.82647297, 43.69510132], [40.82732, 43.6958053], [40.82776443, 43.69636571], [40.82717604, 43.69828669], [40.8271604, 43.69853461], [40.8271614, 43.69855094], [40.82703565, 43.70022273], [40.82812126, 43.70229065], [40.82812959, 43.70230131], [40.82859229, 43.70302198], [40.82842712, 43.70392794], [40.82822631, 43.70460299], [40.82821667, 43.70470596], [40.82851492, 43.70542039], [40.82871615, 43.7057006], [40.82917861, 43.70621306], [40.82995036, 43.70665248], [40.83032392, 43.70681905], [40.83247817, 43.70801504], [40.83258615, 43.70807202], [40.83259814, 43.70808268], [40.8326138, 43.70809267], [40.83338213, 43.70883066], [40.83387229, 43.70923615], [40.83418709, 43.70969065], [40.83424973, 43.70974929], [40.83451349, 43.71054771], [40.83469497, 43.71129312], [40.83462207, 43.71189022], [40.83461541, 43.71190155], [40.83456914, 43.71204651], [40.83466169, 43.71244702], [40.83471394, 43.71270359], [40.83499835, 43.71332403], [40.83502268, 43.71334902], [40.83509264, 43.71348465], [40.83520757, 43.71360958], [40.83718368, 43.71537174], [40.83841019, 43.71619632], [40.83874536, 43.71654853], [40.83882799, 43.71661317], [40.83883599, 43.71662516], [40.83888762, 43.71676044], [40.83914812, 43.7170096], [40.83927734, 43.71750407], [40.83922237, 43.71763735], [40.83951031, 43.71823745], [40.83918379, 43.72016665], [40.83935004, 43.72038025], [40.83950631, 43.7204992], [40.83995901, 43.72182996], [40.84059338, 43.7230891], [40.84111097, 43.72507653], [40.84112263, 43.72509152], [40.84113096, 43.72510685], [40.84123554, 43.7253754], [40.84168658, 43.72601415], [40.84203311, 43.72640764], [40.84306904, 43.72692798], [40.8436938, 43.72835617], [40.84366281, 43.72837149], [40.84349522, 43.72853808], [40.84381069, 43.72921348], [40.84382635, 43.72924414], [40.84385566, 43.72928012], [40.8440102, 43.72959567], [40.84388674, 43.73030244], [40.84308837, 43.73219707], [40.84274587, 43.73260756], [40.84270425, 43.73271986], [40.84013211, 43.73686976], [40.84035993, 43.7375425], [40.84082202, 43.73832086], [40.8411088, 43.738861], [40.841222, 43.73912056], [40.8412683, 43.73923152], [40.8415387, 43.73991531], [40.84170238, 43.74027544], [40.84172036, 43.7403131], [40.84336635, 43.74174769], [40.84336411, 43.74368544], [40.84323233, 43.74441749], [40.84321635, 43.74447081], [40.84320673, 43.74486467], [40.84332465, 43.74520418], [40.84328203, 43.74603789], [40.8438217, 43.74709382], [40.84417445, 43.74756592], [40.84417279, 43.74761858], [40.8442674, 43.74773186], [40.84456143, 43.74840098], [40.84472472, 43.74872012], [40.84473004, 43.7488371], [40.8446162, 43.74991537], [40.84447105, 43.75036786], [40.8445899, 43.75100565], [40.84460556, 43.75102898], [40.84467652, 43.75109394], [40.84469612, 43.75126721], [40.84472411, 43.75129119], [40.8447414, 43.75145478], [40.84476905, 43.75150609], [40.84483436, 43.75206119], [40.84442783, 43.7525063], [40.84441217, 43.75251096], [40.84428856, 43.75253159], [40.84375407, 43.75288337], [40.84360081, 43.7530393], [40.84351956, 43.75321989], [40.84349426, 43.75358143], [40.84383795, 43.75427311], [40.84493921, 43.75530366], [40.84494487, 43.75531665], [40.8448972, 43.75648976], [40.84544787, 43.75821941], [40.84640675, 43.75909795], [40.84665167, 43.75927751], [40.84673198, 43.75932515], [40.84676097, 43.75935381], [40.8467813, 43.75937681], [40.84720001, 43.76003185], [40.84723165, 43.7600875], [40.84738521, 43.76126935], [40.84740054, 43.76129934], [40.84742885, 43.76165821], [40.84784234, 43.76236197], [40.84958248, 43.76285587], [40.8508651, 43.76332284], [40.85094208, 43.76334049], [40.85151396, 43.76338935], [40.85158095, 43.76359227], [40.85161458, 43.76367758], [40.85165452, 43.76384018], [40.85180469, 43.76424105], [40.85323705, 43.76590965], [40.85334234, 43.76599527], [40.85340966, 43.76602457], [40.85396511, 43.76641502], [40.85408408, 43.76649032], [40.85414234, 43.76669159], [40.8542453, 43.76676521], [40.85544913, 43.76810798], [40.85696526, 43.76877051], [40.85791531, 43.76898829], [40.86016495, 43.77148461], [40.86030811, 43.77255457], [40.86064128, 43.7730487], [40.86119244, 43.77323692], [40.86129441, 43.77321929], [40.86133707, 43.7732173], [40.86137739, 43.77322162], [40.86141638, 43.77323228], [40.86176261, 43.77336487], [40.862658, 43.77376362], [40.86377626, 43.7747162], [40.86415277, 43.77517304], [40.86474721, 43.77583509], [40.86483951, 43.77592806], [40.86556555, 43.77649642], [40.86561919, 43.77650807], [40.86739697, 43.77727218], [40.86803808, 43.77749131], [40.86890416, 43.77772374], [40.86953496, 43.77797985], [40.86980709, 43.77845367], [40.86992768, 43.7786819], [40.87036576, 43.77930234], [40.8704427, 43.77952726], [40.87045335, 43.77967953], [40.87058988, 43.77999407], [40.87072412, 43.7801863], [40.87245426, 43.78100181], [40.87263087, 43.78108009], [40.87266519, 43.78110242], [40.8727255, 43.7811284], [40.87285944, 43.78118836], [40.87363485, 43.78165043], [40.87458124, 43.78194316], [40.87464689, 43.78197415], [40.87526201, 43.78220205], [40.87639336, 43.78262543], [40.87691655, 43.78251191], [40.87918319, 43.78203404], [40.8827343, 43.78201206], [40.88348672, 43.78242119], [40.88350671, 43.78242585], [40.88362401, 43.78243449], [40.88423683, 43.78254037], [40.88514326, 43.78263953], [40.88529122, 43.78266082], [40.8869288, 43.78236171], [40.88722869, 43.78217981], [40.88776652, 43.78210787], [40.89052794, 43.78246253], [40.89072056, 43.78251448], [40.89134872, 43.78252213], [40.89177027, 43.78266535], [40.89236425, 43.78395409], [40.89235894, 43.7839924], [40.8924425, 43.78422629], [40.89319603, 43.78622981], [40.8933625, 43.78669193], [40.89341514, 43.78676256], [40.89868563, 43.79336386], [40.89872228, 43.79337085], [40.90033535, 43.79419931], [40.90590134, 43.79763563], [40.90609756, 43.79794417], [40.90610155, 43.79795883], [40.9060656, 43.79873556], [40.90682961, 43.79971821], [40.90663669, 43.80015603], [40.90681397, 43.80029329], [40.90737678, 43.80059343], [40.90762463, 43.80106859], [40.90756736, 43.80274529], [40.90756802, 43.80278194], [40.90757235, 43.80279493], [40.90781418, 43.80319511], [40.90818064, 43.80380289], [40.90908021, 43.80473879], [40.91043123, 43.80592435]]}, "properties": {"name": "Track"}}]}