{"type": "FeatureCollection", "features": [{"type": "Feature", "geometry": {"type": "LineString", "coordinates": [[46.569412, 42.43284566], [46.57017116, 42.43361201], [46.57041029, 42.4341498], [46.5708178, 42.43440964], [46.5707829, 42.43529097], [46.57038424, 42.43579166], [46.56927311, 42.43675716], [46.56926548, 42.43700903], [46.56864951, 42.43754169], [46.56825999, 42.43810763], [46.56852325, 42.43815328], [46.56945424, 42.43742796], [46.57011768, 42.43713149], [46.57125844, 42.43600769], [46.57146439, 42.43595473], [46.56995506, 42.4380525], [46.5692261, 42.43874846], [46.56806531, 42.43949619], [46.56752498, 42.4401232], [46.56589572, 42.44150094], [46.56602464, 42.44163451], [46.56729078, 42.44087934], [46.56836965, 42.44097638], [46.56945292, 42.4403172], [46.57074619, 42.44011718], [46.57078219, 42.44034268], [46.56990246, 42.44058206], [46.56959096, 42.44106152], [46.56860771, 42.44196043], [46.56944445, 42.44233144], [46.56961089, 42.44264989], [46.56943848, 42.44316857], [46.5688514, 42.4433257], [46.56882978, 42.44376612], [46.56711125, 42.44577999], [46.56815021, 42.44576508], [46.56862067, 42.44611356], [46.56905051, 42.44613317], [46.57016479, 42.44558619], [46.57222657, 42.44532206], [46.57319998, 42.44506565], [46.5740107, 42.44467319], [46.57521172, 42.44435255], [46.57572056, 42.44434589], [46.5762394, 42.44469005], [46.5761341, 42.44519721], [46.57498822, 42.44641276], [46.57512552, 42.44666534], [46.57582128, 42.4461206], [46.57668067, 42.44575583], [46.57687996, 42.44588112], [46.57582099, 42.44656378], [46.57539986, 42.44696829], [46.57343541, 42.447897], [46.5719838, 42.44815161], [46.57209478, 42.44842115], [46.57278759, 42.44831898], [46.57431214, 42.44829233], [46.57233868, 42.44912344], [46.57078377, 42.44921101], [46.57057353, 42.44950614], [46.57313581, 42.44978012], [46.57302983, 42.4499763], [46.57184683, 42.44995638], [46.57089307, 42.45023977], [46.5697408, 42.45039053], [46.56924065, 42.45082129], [46.56848554, 42.45119873], [46.56782239, 42.45130119], [46.56780608, 42.45154308], [46.56970517, 42.45167089], [46.56966488, 42.45187548], [46.56677774, 42.45207993], [46.56474632, 42.45210045], [46.56399556, 42.45178732], [46.56390874, 42.45114688], [46.56361021, 42.45082234], [46.5614992, 42.44945871], [46.56053451, 42.44934584], [46.56034006, 42.45046218], [46.5599132, 42.45016203], [46.5591515, 42.45009809], [46.5581598, 42.45021359], [46.55675756, 42.44997625], [46.55561129, 42.44945662], [46.55537709, 42.44916473], [46.55382388, 42.4483153], [46.55298248, 42.44773494], [46.55252845, 42.44718156], [46.55163907, 42.44525037], [46.55260194, 42.44486773], [46.55158856, 42.44318863], [46.55086603, 42.44224248], [46.54947119, 42.44070461], [46.54850642, 42.44029466], [46.54802755, 42.44050843], [46.5474459, 42.43968578], [46.54670413, 42.43943337], [46.54610507, 42.43874374], [46.54575292, 42.4375696], [46.54567348, 42.43622882], [46.54600093, 42.43507495], [46.54546838, 42.43417704], [46.5454366, 42.43315675], [46.54486842, 42.43302495], [46.54391174, 42.43318347], [46.54317203, 42.43348184], [46.54290163, 42.4339916], [46.54078665, 42.43434198], [46.53828049, 42.43500367], [46.53740918, 42.4355719], [46.53633787, 42.43588916], [46.53534005, 42.43637221], [46.53502149, 42.43639082], [46.5334568, 42.43587583], [46.53297468, 42.43551538], [46.53237321, 42.43538687], [46.53172542, 42.43553467], [46.5311331, 42.43621701], [46.53007484, 42.43699924], [46.52950705, 42.43756838], [46.52898268, 42.4377079], [46.52818787, 42.43719202], [46.52756251, 42.43715687], [46.52511225, 42.43739192], [46.52322847, 42.43713592], [46.52312771, 42.43800558], [46.5219925, 42.43786981], [46.52078686, 42.43819646], [46.52022913, 42.43859214], [46.52029574, 42.43897494], [46.51995757, 42.43930973], [46.52030545, 42.43949189], [46.52020692, 42.43988799], [46.51931904, 42.44022606], [46.51906565, 42.43973649], [46.51833687, 42.43958011], [46.51860322, 42.43869413], [46.51842736, 42.4383923], [46.51769734, 42.43835541], [46.51741394, 42.43879349], [46.51609655, 42.43948177], [46.51556513, 42.43906466], [46.51552185, 42.43940045], [46.5150155, 42.43973648], [46.51444737, 42.43977699], [46.5144241, 42.44048523], [46.51359423, 42.44053113], [46.51378734, 42.43968453], [46.51450044, 42.43930311], [46.51441458, 42.43887193], [46.51497368, 42.43831854], [46.51553486, 42.43823433], [46.51565252, 42.43747673], [46.51524318, 42.43790152], [46.51419526, 42.43801611], [46.51461506, 42.43744447], [46.51395566, 42.43766289], [46.51420147, 42.43683578], [46.51352706, 42.43699584], [46.51293124, 42.43854906], [46.51247217, 42.43845054], [46.51205409, 42.43868642], [46.51188131, 42.43834064], [46.51238245, 42.43755922], [46.51222638, 42.43662905], [46.51327855, 42.43587658], [46.51411246, 42.4349675], [46.51314892, 42.43497673], [46.51220408, 42.43560488], [46.51193089, 42.43560385], [46.5118903, 42.43506308], [46.51113617, 42.43540454], [46.50998177, 42.43557068], [46.50938172, 42.43614769], [46.50938177, 42.43736952], [46.5086984, 42.43781123], [46.50823558, 42.43779593], [46.50665361, 42.43871325], [46.50599746, 42.43974012], [46.50549152, 42.44144134], [46.50587149, 42.44197359], [46.50573659, 42.44227875], [46.50578325, 42.44320102], [46.50631947, 42.44350432], [46.5062769, 42.44384384], [46.50499434, 42.44456249], [46.50438544, 42.44473014], [46.50442854, 42.44565681], [46.50419533, 42.44603227], [46.50454629, 42.44620779], [46.50446103, 42.44696276], [46.50457014, 42.44771141], [46.50543666, 42.44890696], [46.50526181, 42.4494101], [46.50546735, 42.4497766], [46.50518819, 42.45019276], [46.50540442, 42.45039166], [46.50550693, 42.45113768], [46.5051402, 42.45165876], [46.50591737, 42.45230968], [46.50608727, 42.45292673], [46.50593049, 42.45347448], [46.50634016, 42.45506806], [46.50660976, 42.45562365], [46.50549385, 42.45767275], [46.50549324, 42.45811083], [46.50502121, 42.45854149], [46.50473197, 42.45965713], [46.50434216, 42.45987559], [46.50426215, 42.46044863], [46.50456603, 42.46066152], [46.50461277, 42.4613176], [46.50427432, 42.46186036], [46.50425166, 42.4623522], [46.5038787, 42.46317084], [46.50399326, 42.46340776], [46.50345104, 42.46472484], [46.50248863, 42.46565156], [46.50072049, 42.46638684], [46.50154033, 42.46654675], [46.50164512, 42.46689159], [46.50101713, 42.46692002], [46.49976481, 42.46741186], [46.49881709, 42.46825365], [46.49819954, 42.46928817], [46.49749809, 42.4696566], [46.49702743, 42.46960896], [46.49579497, 42.46993205], [46.49493674, 42.46968879], [46.49491178, 42.46992672], [46.49388017, 42.47000623], [46.49311642, 42.47037761], [46.49236235, 42.47052001], [46.4902751, 42.47113842], [46.48974798, 42.47143617], [46.48794264, 42.47204676], [46.48734386, 42.47209192], [46.48611161, 42.47256579], [46.48560809, 42.47242627], [46.48477308, 42.4727427], [46.48407033, 42.47279655], [46.48328368, 42.47310158], [46.48158789, 42.47324044], [46.48093913, 42.47307], [46.47988492, 42.47449904], [46.47882556, 42.4754986], [46.47839337, 42.47635716], [46.47745018, 42.47675075], [46.47634889, 42.47667332], [46.47624524, 42.4770278], [46.47453925, 42.47813145], [46.47345787, 42.47895581], [46.47296478, 42.47969028], [46.47261167, 42.48074839], [46.47181091, 42.48180958], [46.47078542, 42.48264169], [46.46901788, 42.48327558], [46.46828712, 42.4837306], [46.46719936, 42.48394242], [46.4663132, 42.48475746], [46.46501245, 42.48551058], [46.46440631, 42.48551657], [46.46319411, 42.48588804], [46.46271104, 42.48623941], [46.46180898, 42.48638611], [46.46100308, 42.48704701], [46.45914749, 42.48784356], [46.4585765, 42.48833623], [46.45730171, 42.48860828], [46.45677342, 42.48933819], [46.45578423, 42.49018308], [46.45511316, 42.49035353], [46.45386331, 42.49033579], [46.45393822, 42.49079746], [46.45354277, 42.49116325], [46.45346986, 42.49164271], [46.45277158, 42.4924243], [46.4520599, 42.49291494], [46.45143183, 42.49384565], [46.45031536, 42.49464178], [46.45007171, 42.49444761]]}, "properties": {"name": "Track"}}]}