{"type": "FeatureCollection", "features": [{"type": "Feature", "geometry": {"type": "LineString", "coordinates": [[47.603859, 42.08545233], [47.60161719, 42.08669543], [47.60165818, 42.08667511], [47.59801897, 42.08746188], [47.59644815, 42.08784207], [47.59642915, 42.08784141], [47.5896927, 42.08976483], [47.58959073, 42.0898038], [47.58913755, 42.09009029], [47.58874671, 42.09049411], [47.58891481, 42.09141299], [47.58892481, 42.09142032], [47.58893714, 42.09142565], [47.5890221, 42.09143097], [47.58902976, 42.09143796], [47.58903242, 42.09144662], [47.58704322, 42.09233979], [47.58516639, 42.09200266], [47.57720438, 42.09403731], [47.57719338, 42.09404397], [47.57595765, 42.09470948], [47.57516392, 42.09442161], [47.57427479, 42.09438299], [47.5742568, 42.09439198], [47.57424114, 42.09440298], [47.57422881, 42.09441464], [47.57422081, 42.09442864], [47.57421815, 42.09444264], [47.57423012, 42.09451229], [47.57423711, 42.09452495], [47.5742848, 42.09490585], [47.57419221, 42.09511345], [47.57418955, 42.09512811], [47.5741942, 42.0951741], [47.57429381, 42.09536105], [47.57428616, 42.09540238], [47.57388464, 42.09572827], [47.57194193, 42.0974351], [47.57110148, 42.09759221], [47.56947859, 42.09702882], [47.56789378, 42.09721052], [47.56761056, 42.0973554], [47.56299093, 42.09469369], [47.56256648, 42.09420437], [47.56254915, 42.09420204], [47.56241129, 42.09434258], [47.56241229, 42.09435424], [47.56191116, 42.09706058], [47.56192194, 42.09801156], [47.56190961, 42.09799923], [47.56190495, 42.0979859], [47.56190528, 42.09797224], [47.56190961, 42.09795824], [47.5620129, 42.0978543], [47.56190962, 42.0977467], [47.56200723, 42.09783229], [47.56188465, 42.09800987], [47.56254794, 42.09800415], [47.56258526, 42.09797683], [47.56258194, 42.09796315], [47.56256661, 42.09796748], [47.56255428, 42.09797514], [47.56254495, 42.09798747], [47.55849281, 42.10131731], [47.55811425, 42.10148353], [47.55798595, 42.10154684], [47.55751909, 42.10183701], [47.55484358, 42.1030389], [47.55476328, 42.10310121], [47.55473629, 42.1031422], [47.55533066, 42.10401281], [47.55539264, 42.1040558], [47.55536165, 42.10430902], [47.55534765, 42.10432002], [47.55533732, 42.10433201], [47.55532199, 42.10435833], [47.555312, 42.10436966], [47.55528735, 42.10439198], [47.55485318, 42.10472616], [47.55446834, 42.10492036], [47.55445268, 42.10491803], [47.55269262, 42.10482676], [47.55264222, 42.10481586], [47.55264988, 42.10480853], [47.54818061, 42.10210894], [47.54100341, 42.10217059], [47.54004437, 42.10186469], [47.53872954, 42.10363661], [47.53557447, 42.10469046], [47.53150856, 42.1061431], [47.53168417, 42.10605352], [47.53487024, 42.10786388], [47.53487824, 42.10787088], [47.53448707, 42.10901011], [47.5327239, 42.11124952], [47.53217678, 42.11145998], [47.53173297, 42.11182775], [47.53149271, 42.11181277], [47.53147538, 42.11181576], [47.53145872, 42.11182109], [47.5304374, 42.11202927], [47.53042074, 42.11203393], [47.53036512, 42.11235623], [47.53039445, 42.11204102], [47.53040878, 42.11203469], [47.53042277, 42.11203135], [47.53039642, 42.11237052], [47.52845285, 42.1160439], [47.52943018, 42.1165646], [47.52983972, 42.11678082], [47.52995102, 42.11730865], [47.52995668, 42.11731931], [47.52972667, 42.11821662], [47.52970435, 42.11823695], [47.52969902, 42.11824861], [47.53000782, 42.12000368], [47.5299815, 42.12003467], [47.52998216, 42.12002067], [47.5299785, 42.12000867], [47.52997017, 42.12000134], [47.52995884, 42.11999901], [47.52954155, 42.12018047], [47.5299591, 42.12002525], [47.52996509, 42.12003258], [47.52996775, 42.12004224], [47.52996509, 42.12005424], [47.52969489, 42.1203761], [47.52740033, 42.12243111], [47.53090785, 42.12323355], [47.53095817, 42.1232442], [47.53099016, 42.12325752], [47.53102682, 42.12326517], [47.53104548, 42.1232655], [47.53109613, 42.12325718], [47.53119409, 42.12318422], [47.53136228, 42.12285768], [47.5313776, 42.12283736], [47.53142526, 42.12282104], [47.53144225, 42.12282038], [47.53150823, 42.12283837], [47.53151889, 42.1228467], [47.53152722, 42.12285703], [47.53156884, 42.12295334], [47.53161848, 42.12301498], [47.53167013, 42.12305563], [47.53169046, 42.12308128], [47.53169612, 42.12309394], [47.53169678, 42.12310727], [47.5328124, 42.12403706], [47.5329557, 42.12404704], [47.53325159, 42.12412263], [47.53330557, 42.12415928], [47.5333129, 42.12417061], [47.53331723, 42.12418327], [47.53331457, 42.12420892], [47.53330891, 42.12422158], [47.53326259, 42.12425323], [47.53293435, 42.12431379], [47.53278039, 42.12435909], [47.53204424, 42.12423625], [47.52924651, 42.12434813], [47.5291972, 42.12438677], [47.52823343, 42.12522986], [47.5282311, 42.12525385], [47.52751041, 42.12536878], [47.5261755, 42.12531353], [47.52505931, 42.12544434], [47.52504965, 42.12545234], [47.52504399, 42.125462], [47.52504366, 42.12547199], [47.52505465, 42.12549432], [47.5250903, 42.12552497], [47.52696169, 42.12614099], [47.52605963, 42.12619161], [47.52603964, 42.1262066], [47.52605962, 42.12628556], [47.52607028, 42.12629222], [47.52608327, 42.12629621], [47.52723114, 42.1267915], [47.52739236, 42.12679952], [47.5279634, 42.12674493], [47.52795474, 42.12675559], [47.52614343, 42.127193], [47.5261331, 42.12719966], [47.52612644, 42.12721032], [47.52612278, 42.12722265], [47.52614176, 42.12728562], [47.52616309, 42.12730828], [47.52636501, 42.12748122], [47.52650696, 42.12753351], [47.52866435, 42.12784426], [47.52306832, 42.13927568], [47.52262887, 42.1403975], [47.52263286, 42.1403942], [47.52169362, 42.1421324], [47.5216823, 42.14215872], [47.52168562, 42.14224137], [47.52264514, 42.14592581], [47.5226578, 42.14593714], [47.52266679, 42.1459498], [47.52268776, 42.1461774], [47.52226523, 42.14907579], [47.5222509, 42.14908145], [47.52222724, 42.14909978], [47.52221925, 42.14911177], [47.52221459, 42.14912476], [47.52221891, 42.14917141], [47.52249349, 42.15063979], [47.52044225, 42.15533522], [47.52042659, 42.15534188], [47.51986041, 42.15551438], [47.5197871, 42.15557434], [47.51945387, 42.15583087], [47.51847397, 42.15679806], [47.51768108, 42.15795001], [47.51559453, 42.1584359], [47.51276252, 42.16213217], [47.51123493, 42.1641373], [47.50958327, 42.16625952], [47.50898596, 42.1668744], [47.50685197, 42.17044929], [47.50685497, 42.17045929], [47.50689396, 42.17069218], [47.50690995, 42.17070917], [47.50730082, 42.17061161], [47.50731482, 42.17061095], [47.50754446, 42.17075213]]}, "properties": {"name": "Track"}}]}