{"type": "FeatureCollection", "features": [{"type": "Feature", "geometry": {"type": "LineString", "coordinates": [[46.27137233, 42.605365], [46.26744942, 42.60567889], [46.26742476, 42.6056719], [46.2592755, 42.6067155], [46.25926217, 42.60672083], [46.25925551, 42.60672949], [46.25925684, 42.60673915], [46.25926283, 42.60674915], [46.25923651, 42.60675351], [46.25842499, 42.60634646], [46.25714203, 42.6064542], [46.25141414, 42.60815072], [46.25088399, 42.60824955], [46.25080471, 42.60828285], [46.2498713, 42.60843898], [46.24690564, 42.60883456], [46.24461433, 42.60939012], [46.24254924, 42.60951607], [46.2381731, 42.60963638], [46.23280862, 42.61047605], [46.23233347, 42.61062579], [46.23061101, 42.61104993], [46.23059635, 42.61105292], [46.22469983, 42.61240926], [46.22479693, 42.61295849], [46.22459248, 42.61303375], [46.22458215, 42.61303774], [46.22434904, 42.61311596], [46.22433638, 42.61312296], [46.22432805, 42.61313262], [46.22924198, 42.61666982], [46.22925164, 42.61665949], [46.22935725, 42.61655287], [46.22956252, 42.61658152], [46.22956718, 42.61659318], [46.22708686, 42.61835331], [46.22709119, 42.61838963], [46.22711751, 42.61842095], [46.2271305, 42.61842961], [46.22716149, 42.61844226], [46.22723047, 42.61845123], [46.2277213, 42.6182674], [46.2271468, 42.61865979], [46.22710481, 42.61877642], [46.22788654, 42.61880811], [46.22776091, 42.61916258], [46.22776524, 42.61917358], [46.2277729, 42.61918257], [46.22778356, 42.6191879], [46.22779622, 42.61918823], [46.22776155, 42.61914698], [46.22778018, 42.61918263], [46.2278005, 42.61918562], [46.22848303, 42.61872561], [46.22819131, 42.61951782], [46.22820264, 42.61951516], [46.23129474, 42.61925105], [46.23131421, 42.61924114], [46.23194857, 42.61932047], [46.23278931, 42.61914839], [46.23296854, 42.61887616], [46.23279716, 42.6195431], [46.23235817, 42.61995378], [46.23234717, 42.61995578], [46.23326904, 42.62038749], [46.2395987, 42.62238943], [46.24140261, 42.62505408], [46.24659347, 42.63202449], [46.24658914, 42.63205615], [46.24562329, 42.63163196], [46.24540038, 42.63240898], [46.24299685, 42.63329756], [46.24241059, 42.6351963], [46.24239894, 42.63522062], [46.24237695, 42.63522428], [46.24174658, 42.63497768], [46.24119347, 42.63651652], [46.24118251, 42.63720655], [46.24069768, 42.63963756], [46.24069635, 42.63964755], [46.24070667, 42.63966687], [46.240717, 42.63967586], [46.24121512, 42.63948068], [46.24137076, 42.63948565], [46.24157463, 42.64006302], [46.24142229, 42.64071999], [46.24141463, 42.64072765], [46.24140497, 42.64073231], [46.24139298, 42.64073431], [46.24127412, 42.64069669], [46.24117095, 42.64073299], [46.24119195, 42.640728], [46.24128451, 42.64071832], [46.24127494, 42.64070676], [46.24128088, 42.64070211], [46.24128916, 42.64070938], [46.23977098, 42.64161888], [46.23977724, 42.64163011], [46.23729662, 42.64690508], [46.23705208, 42.64710563], [46.23260971, 42.65008644], [46.2309303, 42.65207404], [46.23039326, 42.65270676], [46.23010046, 42.65312057], [46.22962323, 42.65396815], [46.22952932, 42.65413573], [46.22813485, 42.65540858], [46.22728216, 42.6559049], [46.22694928, 42.65618239], [46.22650176, 42.65645785], [46.2251931, 42.65779851], [46.22454622, 42.65870748], [46.22446691, 42.65896702], [46.22445992, 42.65899267], [46.22429466, 42.65912926], [46.22411905, 42.65915624], [46.22404177, 42.65925887], [46.22399716, 42.65934882], [46.2237869, 42.66062719], [46.22462094, 42.66415334], [46.22456562, 42.66498366], [46.22456162, 42.66499599], [46.22476468, 42.66575265], [46.22454273, 42.66570971], [46.2245304, 42.66570205], [46.2245224, 42.66569372], [46.22451041, 42.66565374], [46.22450508, 42.66564808], [46.22424488, 42.66555581], [46.22383106, 42.66557643], [46.2233285, 42.66543939], [46.2233146, 42.66543572], [46.2233146, 42.6654466], [46.22241072, 42.66552102], [46.2223514, 42.66554633], [46.22233041, 42.66555299], [46.22230442, 42.66555598], [46.22207155, 42.66558126], [46.22205156, 42.66558726], [46.22203056, 42.66559159], [46.22199058, 42.66561224], [46.22140968, 42.66592256], [46.22140271, 42.66599884], [46.22159569, 42.66617351], [46.22146936, 42.66635384], [46.22143471, 42.66637548], [46.2207443, 42.66646942], [46.2207283, 42.66646776], [46.22061132, 42.66643012], [46.22032875, 42.66627054], [46.21824861, 42.66497538], [46.21823528, 42.66496772], [46.21819797, 42.66496139], [46.21766529, 42.66515347], [46.217587, 42.66520311], [46.21576681, 42.66651722], [46.21554855, 42.66661747], [46.21537228, 42.66654382], [46.21533798, 42.66651285], [46.21532998, 42.66651318], [46.21532465, 42.66651851], [46.21532598, 42.66652584], [46.2157955, 42.6664965], [46.21580416, 42.66648617], [46.21593532, 42.666195], [46.21597894, 42.6661067], [46.21597794, 42.66609204], [46.21594596, 42.66604039], [46.21593363, 42.66603039], [46.2149353, 42.66572867], [46.21473306, 42.66553344], [46.21370386, 42.66600932], [46.21368953, 42.66601065], [46.21363588, 42.66600599], [46.21361655, 42.66600665], [46.21359856, 42.66600964], [46.21354891, 42.66602895], [46.21302022, 42.6665383], [46.21264532, 42.66659686], [46.21262799, 42.66659819], [46.21261333, 42.66659686], [46.20815992, 42.67042759], [46.20818457, 42.67049122], [46.20818358, 42.67050288], [46.20812096, 42.67069347], [46.20796737, 42.67097262], [46.20798036, 42.67098328]]}, "properties": {"name": "Track"}}]}