{"type": "FeatureCollection", "features": [{"type": "Feature", "geometry": {"type": "LineString", "coordinates": [[42.16051833, 43.41918333], [42.15948236, 43.41986626], [42.15941471, 43.41991524], [42.15940438, 43.4199269], [42.15939738, 43.41993923], [42.15939239, 43.41995989], [42.15935308, 43.41998754], [42.15866129, 43.42009501], [42.15861697, 43.42011966], [42.15541297, 43.42190352], [42.15540464, 43.42191385], [42.15539364, 43.42192351], [42.15532499, 43.42195482], [42.15510307, 43.42201306], [42.15508507, 43.4220104], [42.15286468, 43.42094391], [42.15126899, 43.42045998], [42.15126633, 43.42047231], [42.15126932, 43.4205143], [42.15112747, 43.42091716], [42.15111615, 43.42094248], [42.15078696, 43.42122735], [42.15075198, 43.42126067], [42.15010567, 43.42222565], [42.15011333, 43.42223231], [42.15009848, 43.4222879], [42.14817616, 43.42325454], [42.14611224, 43.42426809], [42.14591362, 43.42440769], [42.14584464, 43.424425], [42.14552307, 43.42445694], [42.14549975, 43.4244726], [42.14308794, 43.42681206], [42.14290521, 43.42711763], [42.14290357, 43.42709882], [42.14289465, 43.42711005], [42.1429035, 43.42713932], [42.1429821, 43.4272178], [42.14361367, 43.42930419], [42.14291139, 43.43033343], [42.14190216, 43.43169588], [42.14189917, 43.43170954], [42.14165531, 43.43223405], [42.14156537, 43.43217411], [42.14083697, 43.43251886], [42.14079465, 43.43254151], [42.14075999, 43.43254983], [42.14074199, 43.43255183], [42.13982932, 43.43215681], [42.1396967, 43.43217542], [42.13967937, 43.43217975], [42.13894563, 43.43248282], [42.13840213, 43.43267831], [42.13838813, 43.43268697], [42.13821453, 43.43289655], [42.13816955, 43.43293953], [42.13803659, 43.43301149], [42.13736017, 43.43343691], [42.1366151, 43.43382763], [42.13660177, 43.43383762], [42.13647182, 43.43395359], [42.1353894, 43.43408349], [42.13190966, 43.43613653], [42.13187801, 43.43616985], [42.12918724, 43.43773729], [42.12789036, 43.43857716], [42.12610706, 43.44035718], [42.12616104, 43.44039016], [42.12608541, 43.44046042], [42.12627902, 43.44034549], [42.1262111, 43.44040875], [42.12619644, 43.44041274], [42.12595126, 43.44051378], [42.12288868, 43.44211297], [42.11689529, 43.44340219], [42.11654907, 43.44353277], [42.11645444, 43.44361673], [42.11418772, 43.44625076], [42.11332047, 43.4469251], [42.11330414, 43.44693176], [42.11154703, 43.44748599], [42.11044403, 43.44754662], [42.11029573, 43.44755294], [42.10980991, 43.44766388], [42.10963966, 43.44761162], [42.10962133, 43.44760929], [42.10950869, 43.44760432], [42.10947137, 43.44760931], [42.10943638, 43.4476213], [42.10942139, 43.4476293], [42.10940773, 43.44763863], [42.10936075, 43.44769494], [42.10871274, 43.44845895], [42.1083782, 43.44863816], [42.10771208, 43.44885295], [42.10765576, 43.44888093], [42.10757212, 43.44890924], [42.10722292, 43.4490308], [42.10572312, 43.44985663], [42.105119, 43.45018675], [42.10419635, 43.4506971], [42.10392117, 43.45097729], [42.10392018, 43.45099062], [42.10399853, 43.4514151], [42.10467618, 43.45207445], [42.10219768, 43.45375955], [42.10202308, 43.45389482], [42.10197306, 43.45506111], [42.10196706, 43.4550841], [42.10195074, 43.4551061], [42.10193841, 43.45511509], [42.10190909, 43.45513008], [42.1018921, 43.45513408], [42.1002642, 43.45537667], [42.09827269, 43.45708346], [42.09824736, 43.45710278], [42.09822105, 43.45713509], [42.0981101, 43.45723437], [42.09718049, 43.45817796], [42.09718282, 43.45819029], [42.09718815, 43.45820295], [42.09719081, 43.45859004], [42.09689492, 43.45876293], [42.09686226, 43.45876359], [42.09674131, 43.45872796], [42.09672498, 43.4587253], [42.09632688, 43.45854131], [42.09440124, 43.45763641], [42.08259933, 43.46027587], [42.07304229, 43.4597015], [42.07309665, 43.45967408], [42.0721772, 43.45951441], [42.07055229, 43.46046827], [42.06994607, 43.46032005], [42.05727836, 43.46236291], [42.0571534, 43.4625177], [42.05717652, 43.46250978], [42.05718776, 43.46250978], [42.05718576, 43.46252431], [42.05531328, 43.4624797], [42.05417561, 43.4624495], [42.05385369, 43.46246776], [42.05268574, 43.46255545], [42.05084915, 43.46279805], [42.05038995, 43.46292056], [42.05032664, 43.46293787], [42.04950628, 43.4633852], [42.04762487, 43.46311982], [42.04746393, 43.46308022], [42.04624435, 43.46181006], [42.0449142, 43.46105491], [42.04489472, 43.46105822], [42.04098999, 43.46096464], [42.03085953, 43.46101608]]}, "properties": {"name": "Track"}}]}