{"type": "FeatureCollection", "features": [{"type": "Feature", "geometry": {"type": "LineString", "coordinates": [[44.36634466, 42.77457966], [44.36677805, 42.77455373], [44.3671995, 42.77477183], [44.36763919, 42.77599849], [44.36755266, 42.77618638], [44.36789093, 42.77690038], [44.36895906, 42.77872941], [44.36937596, 42.77976202], [44.37018713, 42.78100873], [44.37058301, 42.78251408], [44.37063052, 42.78319478], [44.37044065, 42.78392983], [44.37059681, 42.78514628], [44.3705528, 42.78588053], [44.37128505, 42.78723511], [44.37161662, 42.788174], [44.37214679, 42.78925592], [44.37340118, 42.79144701], [44.3734647, 42.79193081], [44.37343302, 42.79306196], [44.37380939, 42.79326318], [44.37359427, 42.79356565], [44.37404325, 42.79440088], [44.37408711, 42.79531483], [44.37394296, 42.79593453], [44.37405195, 42.79691281], [44.37405827, 42.79793404], [44.37430099, 42.79859609], [44.37432196, 42.79915084], [44.37460298, 42.79984858], [44.37526731, 42.80056726], [44.37586205, 42.80100796], [44.37665239, 42.80182727], [44.37721197, 42.80275222], [44.37857027, 42.80447325], [44.37962729, 42.80599118], [44.38041073, 42.80723102], [44.38097018, 42.80851073], [44.38148513, 42.80933041], [44.38198528, 42.80948287], [44.38178072, 42.80984237], [44.38216811, 42.81043745], [44.38225764, 42.81086861], [44.38209461, 42.81156929], [44.38203965, 42.81248983], [44.38149254, 42.81346838], [44.38124038, 42.81371193], [44.38063827, 42.81394305], [44.38052999, 42.81452642], [44.38154844, 42.81553991], [44.38164445, 42.81630622], [44.38201385, 42.81756098], [44.38251583, 42.81816695], [44.38252479, 42.81869905], [44.38279564, 42.81893921], [44.38446556, 42.81936737], [44.38493838, 42.81955785], [44.3860352, 42.82022902], [44.38625738, 42.82046554], [44.38737989, 42.82107232], [44.38855582, 42.82141997], [44.39098848, 42.82282559], [44.39184082, 42.82318055], [44.39303985, 42.8243605], [44.39428218, 42.82502309], [44.39473628, 42.82539352], [44.39540676, 42.82562788], [44.39640219, 42.82640198], [44.39805167, 42.826937], [44.39887471, 42.82738094], [44.40027844, 42.8279493], [44.40192725, 42.82855604], [44.40415481, 42.8290631], [44.40535793, 42.82944586], [44.40600696, 42.82984217], [44.40698087, 42.8302647], [44.40770231, 42.83048214], [44.40782632, 42.83081629], [44.40738725, 42.83188771], [44.40721612, 42.83209687], [44.40787567, 42.83310669], [44.40714147, 42.83324803], [44.40659124, 42.83350838], [44.40445299, 42.83530025], [44.40321299, 42.83557949], [44.40252887, 42.83535071], [44.40198414, 42.835037], [44.40079123, 42.83525557], [44.39777736, 42.83557804], [44.39542347, 42.83572056], [44.39426067, 42.8364577], [44.3935703, 42.83631197], [44.39287351, 42.83629106], [44.39185913, 42.83650303], [44.39053362, 42.83707515], [44.38993339, 42.83772227], [44.38953754, 42.83789508], [44.3889587, 42.83783579], [44.38817927, 42.83811899], [44.38811311, 42.83831992], [44.38771103, 42.83771651], [44.38689904, 42.83744239], [44.38625163, 42.83757277], [44.38468819, 42.83755912], [44.38322871, 42.83742158], [44.38255261, 42.83743585], [44.38087018, 42.83761456], [44.38027803, 42.83757902], [44.37962328, 42.83774244], [44.37918174, 42.83824778], [44.37893271, 42.83829134], [44.37785812, 42.83775817], [44.37690264, 42.83771476], [44.37572484, 42.83782093], [44.3750031, 42.83820033], [44.37422115, 42.838337], [44.37345542, 42.83835949], [44.37245916, 42.83853737], [44.37183283, 42.8389973], [44.37069276, 42.83916549], [44.37028932, 42.83947861], [44.36957687, 42.83947831], [44.36888548, 42.83932984], [44.36814209, 42.83931858], [44.36769464, 42.83955934], [44.36749555, 42.83994905], [44.36682175, 42.83924988], [44.36635926, 42.83925718], [44.36572287, 42.83897583], [44.36335172, 42.83917948], [44.36296958, 42.83952294], [44.36254041, 42.83966419], [44.36197695, 42.83954969], [44.36167912, 42.83976014], [44.36158031, 42.84041587], [44.36110241, 42.84133898], [44.36038141, 42.84089092], [44.35946198, 42.84068838], [44.35866841, 42.84122849], [44.35809928, 42.84144457], [44.35703001, 42.84140783], [44.35637422, 42.84156693], [44.3555328, 42.84151247], [44.3546621, 42.84167054], [44.35295565, 42.84174221], [44.3519041, 42.84231241], [44.35121764, 42.84252847], [44.34989312, 42.84269265], [44.34941303, 42.84297404], [44.34829516, 42.8432626], [44.34772589, 42.84261061], [44.34660271, 42.84255565], [44.34604684, 42.84186673], [44.34404689, 42.84184833], [44.34315148, 42.84215209], [44.34242578, 42.84268475], [44.34200724, 42.84271341], [44.34120282, 42.84252764], [44.34065566, 42.84216684], [44.34011251, 42.84198762], [44.33900719, 42.84215702], [44.33845903, 42.84234484], [44.33807816, 42.84221129], [44.3373514, 42.84225784], [44.33556036, 42.8425607], [44.33516816, 42.84275922], [44.33435783, 42.84342824], [44.33366371, 42.84354705], [44.33284332, 42.84385574], [44.33247085, 42.84420285], [44.33143211, 42.84484655], [44.33069202, 42.84520791], [44.32919912, 42.84538822], [44.32844452, 42.84590044], [44.32741623, 42.84566169], [44.32655874, 42.84602223], [44.32603042, 42.84640324], [44.32533129, 42.84645354], [44.32489517, 42.84667833], [44.32451523, 42.84722732], [44.32379921, 42.84767898], [44.32346272, 42.84801612], [44.32224812, 42.84818754], [44.32126908, 42.84820514], [44.31995808, 42.84849617], [44.31946558, 42.84867965], [44.31895554, 42.8490747], [44.31842953, 42.84920746], [44.31735257, 42.849766], [44.31685221, 42.85027372], [44.31651953, 42.85016018], [44.31654432, 42.84873964], [44.31696204, 42.84813954], [44.31731923, 42.84707738], [44.31734088, 42.84672283], [44.31685776, 42.8456839], [44.31670696, 42.84516582], [44.31657336, 42.84394408], [44.31608387, 42.84310546], [44.31547646, 42.84269907], [44.31415655, 42.8423129], [44.31273654, 42.84017087], [44.31195633, 42.83917197], [44.31186236, 42.83917429], [44.31096563, 42.83806896], [44.30946339, 42.83596334], [44.30915816, 42.83575316], [44.30763113, 42.83516787], [44.30511945, 42.83408613], [44.30480493, 42.83404822], [44.30362735, 42.83357968], [44.30346449, 42.83335047], [44.30186244, 42.83266596], [44.30035547, 42.83215836], [44.29977067, 42.83204224], [44.29876067, 42.83168625], [44.29827222, 42.83169723], [44.29718532, 42.83200316], [44.29738884, 42.83232635], [44.29922995, 42.8340515], [44.29934778, 42.83452999], [44.29976312, 42.83515628], [44.29960866, 42.83518897]]}, "properties": {"name": "Track"}}]}