{"type": "FeatureCollection", "features": [{"type": "Feature", "geometry": {"type": "LineString", "coordinates": [[47.11790466, 42.16985965], [47.11857295, 42.17215219], [47.11873115, 42.1724644], [47.11887223, 42.173658], [47.11973432, 42.17420204], [47.12134777, 42.17492448], [47.12374264, 42.17663977], [47.1250819, 42.17743002], [47.12730314, 42.17830427], [47.12817351, 42.17871127], [47.13274115, 42.1803886], [47.13511162, 42.18128702], [47.13620956, 42.18186396], [47.13828994, 42.18331679], [47.13888569, 42.18381822], [47.14074586, 42.18580947], [47.14116639, 42.18618562], [47.14287334, 42.18729797], [47.14400558, 42.18741384], [47.1444206, 42.18782789], [47.14692745, 42.18858797], [47.14857055, 42.18941908], [47.14874793, 42.19018274], [47.14850455, 42.19052977], [47.14800639, 42.1906778], [47.14779733, 42.19105383], [47.14727407, 42.19128011], [47.1470808, 42.19175898], [47.14593686, 42.19335625], [47.14531615, 42.19389799], [47.14490116, 42.19552595], [47.14462984, 42.19613492], [47.1450055, 42.19677353], [47.14477412, 42.1973149], [47.14497067, 42.19870815], [47.14523773, 42.19916321], [47.14494531, 42.20001119], [47.14710882, 42.20136567], [47.14790348, 42.20148917], [47.14810896, 42.20185467], [47.14800511, 42.20236878], [47.14722845, 42.20288247], [47.14732211, 42.20385869], [47.14603587, 42.20442823], [47.14560784, 42.20496566], [47.14512732, 42.20517979], [47.14328066, 42.20485162], [47.14286179, 42.20458341], [47.14276787, 42.20491029], [47.14317001, 42.20532673], [47.14343609, 42.20596109], [47.14313464, 42.20647121], [47.14311652, 42.20755138], [47.14296798, 42.20776623], [47.14198183, 42.20834203], [47.14173839, 42.20869615], [47.14233129, 42.20971707], [47.14247497, 42.21068784], [47.14274069, 42.21105827], [47.14251489, 42.21152369], [47.1429033, 42.21185476], [47.14348311, 42.21186538], [47.14418542, 42.21222333], [47.14464484, 42.21265235], [47.14585475, 42.21288966], [47.14724836, 42.21424878], [47.14703753, 42.2145766], [47.14741986, 42.21510027], [47.14739815, 42.21559674], [47.14691024, 42.21624272], [47.14668618, 42.21713492], [47.1462217, 42.21717892], [47.14674878, 42.21767262], [47.14753102, 42.21810957], [47.14899238, 42.21818319], [47.1488179, 42.21869657], [47.1501218, 42.21916517], [47.15027667, 42.21959646], [47.15075003, 42.21974315], [47.15101152, 42.22030992], [47.15150184, 42.22075585], [47.15001046, 42.22177168], [47.14884721, 42.22206561], [47.14810277, 42.2221198], [47.14700285, 42.22158655], [47.1452841, 42.22153336], [47.14432473, 42.2216341], [47.14362867, 42.22144463], [47.14304258, 42.22169734], [47.14257492, 42.22233138], [47.14216711, 42.22250313], [47.14238513, 42.2227871], [47.14213951, 42.22347033], [47.14200564, 42.22437419], [47.14068805, 42.22514185], [47.14029203, 42.22566798], [47.13906564, 42.2262737], [47.13876687, 42.22689728], [47.14000501, 42.2272831], [47.14027026, 42.22813672], [47.1420103, 42.22797124], [47.14314458, 42.22804031], [47.14333113, 42.22841539], [47.14231102, 42.22909923], [47.14122223, 42.22941727], [47.14104575, 42.23019629], [47.14055962, 42.23048107], [47.14040104, 42.23158324], [47.14080055, 42.23216505], [47.14151562, 42.23255409], [47.14226615, 42.23265799], [47.14273549, 42.23330798], [47.14286866, 42.23381471], [47.14290422, 42.23520876], [47.14275462, 42.23581677], [47.14288633, 42.23669672], [47.14259488, 42.23717658], [47.14272008, 42.23754671], [47.14251273, 42.23807512], [47.1425539, 42.23877147], [47.14200821, 42.23936748], [47.14152068, 42.24045337], [47.14187114, 42.24160558], [47.14245219, 42.24224293], [47.14256984, 42.24308612], [47.14185765, 42.24345158], [47.1420844, 42.24413465], [47.14173622, 42.24454847], [47.14077658, 42.24519337], [47.14028768, 42.24610028], [47.14031334, 42.24664701], [47.13989358, 42.24710179], [47.13997184, 42.24790712], [47.13941211, 42.24829017], [47.13882777, 42.24822873], [47.1384125, 42.24892396], [47.13855289, 42.25033589], [47.13885268, 42.25066669], [47.13856751, 42.25088219], [47.13796, 42.25085654], [47.1365004, 42.25045772], [47.13582992, 42.25018335], [47.13450734, 42.25035186], [47.13401615, 42.2501744], [47.1339428, 42.25054022], [47.13342216, 42.25120617], [47.13299869, 42.25132485], [47.13239537, 42.25191488], [47.13224995, 42.25111291], [47.1318701, 42.25047277], [47.13175369, 42.25113201], [47.1308912, 42.25196295], [47.13073982, 42.2524913], [47.1304337, 42.25275346], [47.12877935, 42.25299531], [47.12751569, 42.2525619], [47.12607065, 42.25273193], [47.12438319, 42.25356431], [47.12382626, 42.25398665], [47.12403341, 42.25410515], [47.12352165, 42.25470286], [47.12268588, 42.25471073], [47.12264773, 42.25519156], [47.12382627, 42.25595397], [47.12393017, 42.25653401], [47.1236724, 42.25734459], [47.12384917, 42.2577987], [47.12482086, 42.25820286], [47.12556419, 42.25867651], [47.12615299, 42.25882943], [47.12700951, 42.25953991], [47.12766215, 42.2595894], [47.12819753, 42.25942098], [47.12864399, 42.25974956], [47.12775416, 42.25998824], [47.12744025, 42.26040647], [47.12625701, 42.26117795], [47.12570967, 42.26124981], [47.12531631, 42.26184973], [47.12490787, 42.26196928], [47.12447437, 42.26168568], [47.12483584, 42.26158263], [47.1245004, 42.26094502], [47.1227387, 42.26121554], [47.12245126, 42.26138668], [47.12144598, 42.26139332], [47.12035687, 42.2612234], [47.11969665, 42.26142561], [47.11926175, 42.2613444], [47.11801064, 42.26152723], [47.11646713, 42.26241882], [47.11577969, 42.26244741], [47.11475275, 42.26270002], [47.11436138, 42.26315505], [47.11410976, 42.26392298], [47.11288592, 42.2637271], [47.10999702, 42.26365699], [47.10919642, 42.2638266], [47.10788635, 42.26461896], [47.10632125, 42.26506099], [47.10549425, 42.26549832], [47.1039718, 42.26557434], [47.10283336, 42.26542722], [47.10222307, 42.26594117], [47.10124536, 42.26621153], [47.10005017, 42.26587296], [47.0987961, 42.26635462], [47.09821683, 42.26701187], [47.09796416, 42.26794548], [47.09788667, 42.26899263], [47.09822909, 42.26996617], [47.09818453, 42.27031135], [47.09840468, 42.27157728], [47.09813578, 42.2720422], [47.09808856, 42.27298981], [47.09767222, 42.27379646], [47.09772385, 42.27437043], [47.09747086, 42.2747227], [47.09737165, 42.27556823], [47.09765584, 42.2770672], [47.09687544, 42.27809855], [47.09744129, 42.2776364], [47.09833249, 42.27756354], [47.09813609, 42.27818021], [47.09836658, 42.27866211], [47.09805715, 42.27930974], [47.09882175, 42.27951758], [47.09870984, 42.27973734], [47.099406, 42.27993093], [47.09953038, 42.2805882], [47.09902507, 42.28065734], [47.09915241, 42.28131434], [47.0986911, 42.28110099], [47.09792984, 42.28139022], [47.09884241, 42.28159852], [47.09883517, 42.28237763], [47.09858062, 42.28233669], [47.09792435, 42.28275292], [47.0982501, 42.28340618], [47.09871952, 42.28371492], [47.09823679, 42.2839833], [47.09690429, 42.28440019], [47.09651385, 42.28465422]]}, "properties": {"name": "Track"}}]}