{"type": "FeatureCollection", "features": [{"type": "Feature", "geometry": {"type": "LineString", "coordinates": [[43.02507433, 43.456673], [43.02514896, 43.45669396], [43.02612131, 43.45728774], [43.02568504, 43.4584087], [43.02562007, 43.45842201], [43.02598383, 43.45952027], [43.01917252, 43.4595393], [43.01915719, 43.45954396], [43.01910721, 43.45954961], [43.01509923, 43.45731407], [43.01510522, 43.45730741], [43.01511455, 43.45730241], [43.01512721, 43.45729942], [43.01537214, 43.4572801], [43.01537747, 43.45727244], [43.01537946, 43.45726378], [43.01511269, 43.45705061], [43.01537024, 43.45724309], [43.01537024, 43.45725842], [43.01439837, 43.45710063], [43.01386889, 43.45727776], [43.00914501, 43.45726728], [43.01027493, 43.46027599], [42.99358711, 43.46129262], [42.99324361, 43.4622556], [42.99322828, 43.46225427], [42.99321262, 43.46225593], [42.99319996, 43.46226159], [42.99268534, 43.46277279], [42.99257824, 43.46303104], [42.99256637, 43.46303106], [42.99253136, 43.46305297], [42.99225544, 43.46296174], [42.99228971, 43.46294543], [42.99227238, 43.46294743], [42.99225672, 43.46295176], [42.99213189, 43.46297003], [42.99213557, 43.46296475], [42.99215199, 43.46298606], [42.99216782, 43.4629778], [42.99280244, 43.46224844], [42.99280244, 43.46224111], [42.99277679, 43.46222812], [42.99414187, 43.45977138], [42.99435708, 43.45959885], [42.99486984, 43.45900045], [42.99490116, 43.45895912], [42.99492613, 43.45885715], [42.9947627, 43.4583097], [42.99476237, 43.45829637], [42.99488487, 43.45732844], [42.99477525, 43.45727883], [42.9934256, 43.45813653], [42.99341361, 43.45813886], [42.99340128, 43.45813786], [42.99338828, 43.45813387], [42.99337662, 43.45812754], [42.99336562, 43.45811821], [42.99354876, 43.4568498], [42.99353343, 43.45684781], [42.9927817, 43.45729848], [42.99276637, 43.45729715], [42.99273804, 43.45728816], [42.99272638, 43.45728083], [42.99266593, 43.45649492], [42.99256629, 43.45646528], [42.9925493, 43.45645795], [42.99253431, 43.45644896], [42.99252232, 43.4564383], [42.99241209, 43.4560904], [42.99241742, 43.45607574], [42.99242608, 43.45606241], [42.99243708, 43.45604975], [42.99252337, 43.45596945], [42.99106031, 43.45267216], [42.99101399, 43.45266451], [42.99096667, 43.45266983], [42.99095267, 43.45267516], [42.99094101, 43.45268316], [42.99093202, 43.45269349], [42.99092669, 43.45270482], [42.99092403, 43.45271681], [42.99092503, 43.45273014], [42.99104464, 43.45283807], [42.9911126, 43.45290037], [42.99109262, 43.45306762], [42.98981573, 43.45371579], [42.98976741, 43.45375344], [42.98849749, 43.45428663], [42.98706625, 43.45574308], [42.9871695, 43.45605731], [42.9870256, 43.45674996], [42.98701427, 43.45675696], [42.98636648, 43.45709371], [42.98404226, 43.45819031], [42.98368404, 43.45824221], [42.98367004, 43.4582482], [42.98358909, 43.45832917], [42.9835485, 43.45831555], [42.98354617, 43.45830522], [42.98354084, 43.45829589], [42.98353218, 43.45828889], [42.98352118, 43.4582839], [42.98091759, 43.45875256], [42.98072435, 43.45884249], [42.98071436, 43.45884882], [42.98065644, 43.45883526], [42.9806731, 43.45883859], [42.98069043, 43.45883793], [42.98070709, 43.45883494], [42.98072342, 43.45882928], [42.98089135, 43.45871534], [42.98090301, 43.45871068], [42.98091234, 43.45871101], [42.980918, 43.45871567], [42.980918, 43.45872166], [42.98072909, 43.45885223], [42.98071343, 43.45885157], [42.98049856, 43.45888729], [42.98047024, 43.45888895], [42.97579531, 43.45725606], [42.97573333, 43.45724442], [42.97572, 43.45723876], [42.97542349, 43.45701532], [42.97248727, 43.45578497], [42.97247428, 43.45578231], [42.97241198, 43.45580761], [42.97232633, 43.45579496], [42.97227201, 43.45577031], [42.97189547, 43.45586818], [42.97177218, 43.45593882], [42.9720071, 43.45559203], [42.97094801, 43.45498104], [42.94764133, 43.44662218], [42.94762667, 43.44662085], [42.94764567, 43.44658862], [42.94775431, 43.44655565], [42.9488877, 43.44612159], [42.94920629, 43.44600431], [42.95068332, 43.44534329], [42.95072129, 43.44529731], [42.95072595, 43.44528298], [42.95083051, 43.4449831], [42.95083251, 43.44497244], [42.95083051, 43.44496278], [42.95075323, 43.44478219], [42.9507469, 43.44477653], [42.9507359, 43.44477187], [42.95070457, 43.44476455], [42.95069057, 43.44475856], [42.95078861, 43.44461544], [42.95080442, 43.44462703], [42.94645577, 43.44675835], [42.94629882, 43.4467823], [42.94626983, 43.44679529], [42.94434947, 43.44739138], [42.94401925, 43.44745661], [42.94169335, 43.44810484], [42.94124047, 43.44808557], [42.94115084, 43.44806159], [42.94090491, 43.44804264], [42.94087359, 43.44802733], [42.93964333, 43.4479784], [42.93661129, 43.44783623], [42.93615735, 43.44776879], [42.9332122, 43.44643967], [42.93010454, 43.44487735], [42.9279723, 43.44417567], [42.92536988, 43.44295269], [42.92379835, 43.44263167], [42.92174358, 43.44216837], [42.92172494, 43.44214472], [42.92170646, 43.44213943], [42.92089771, 43.44222426], [42.92050917, 43.44230544], [42.9198644, 43.44224055], [42.9198484, 43.44223722], [42.91968679, 43.44223557], [42.91967013, 43.44223224], [42.91888272, 43.44211545], [42.9183179, 43.44185329], [42.90420318, 43.43487667], [42.90369409, 43.4342436], [42.90327757, 43.4340984], [42.89896811, 43.43334111], [42.89894846, 43.43330945], [42.89889614, 43.4332598], [42.89888314, 43.4332518], [42.89882349, 43.43323516], [42.89859662, 43.43316953], [42.89841634, 43.43308227], [42.89787726, 43.43291252], [42.89732817, 43.43257791], [42.89728019, 43.43257459], [42.89546405, 43.43229248], [42.89457826, 43.43218702], [42.89428965, 43.43214811], [42.89363821, 43.43199062], [42.89324001, 43.43194903], [42.89320602, 43.43194737], [42.89274882, 43.43185049], [42.89273116, 43.43184416], [42.89093107, 43.43083076], [42.89033591, 43.43069225], [42.88929992, 43.43048524], [42.88925193, 43.43047958], [42.88887903, 43.43025972], [42.88875908, 43.43016943], [42.88856247, 43.43006584], [42.88853681, 43.43005018], [42.88845485, 43.43003388], [42.8874189, 43.42964201], [42.88492751, 43.42933163], [42.88495283, 43.42932664], [42.88519025, 43.42911767], [42.88513969, 43.42909581], [42.88024507, 43.42683158], [42.88026205, 43.42680859], [42.8789961, 43.42639813], [42.87396871, 43.42533464], [42.87011571, 43.42568089], [42.86383098, 43.42397695]]}, "properties": {"name": "Track"}}]}