{"type": "FeatureCollection", "features": [{"type": "Feature", "geometry": {"type": "LineString", "coordinates": [[45.32156933, 42.86297933], [45.3211859, 42.86303224], [45.32150281, 42.86299168], [45.32151414, 42.86298502], [45.32116621, 42.86320376], [45.31927891, 42.86381906], [45.31984592, 42.86489699], [45.32006603, 42.8655166], [45.32018197, 42.86559654], [45.32029327, 42.86598667], [45.32028561, 42.86599367], [45.32027362, 42.865998], [45.31998535, 42.86598604], [45.31958314, 42.86581651], [45.31897201, 42.86550004], [45.31631496, 42.86589642], [45.31461545, 42.86593704], [45.31399562, 42.86587574], [45.31381534, 42.86566917], [45.3136223, 42.86468807], [45.30879079, 42.86786915], [45.30566274, 42.86876929], [45.30524051, 42.86885156], [45.30384361, 42.86933111], [45.30329476, 42.8695473], [45.30324711, 42.86958628], [45.30273763, 42.86994044], [45.30273962, 42.8699681], [45.30293479, 42.87033755], [45.30318605, 42.87039181], [45.30354442, 42.87068157], [45.30357713, 42.8707989], [45.30360397, 42.87080974], [45.30370522, 42.87082081], [45.3037204, 42.87083006], [45.30372833, 42.87083963], [45.30375574, 42.87083633], [45.30374386, 42.87082708], [45.30311402, 42.87035614], [45.30296274, 42.87034118], [45.30271027, 42.86997833], [45.30269494, 42.86997333], [45.30266228, 42.86996934], [45.30264695, 42.869972], [45.30263229, 42.869978], [45.3024194, 42.87016186], [45.30182495, 42.87062397], [45.30181095, 42.8706313], [45.30096364, 42.86918422], [45.30094304, 42.86934983], [45.30278605, 42.86587836], [45.30256119, 42.86169604], [45.3025522, 42.86170404], [45.30009164, 42.85658142], [45.30015194, 42.85649449], [45.29736848, 42.85294184], [45.29735882, 42.85293284], [45.29416419, 42.8502508], [45.29358541, 42.84973576], [45.28748297, 42.84887683], [45.28647504, 42.84828791], [45.28501033, 42.84778366], [45.28102271, 42.84737994], [45.28064282, 42.84752415], [45.27999574, 42.84777966], [45.27783907, 42.84736767], [45.27695443, 42.84763104], [45.27346245, 42.84740499], [45.26960421, 42.84944536], [45.26957055, 42.84945135], [45.26793903, 42.84957164], [45.26525211, 42.85228149], [45.26387661, 42.85255062], [45.2635117, 42.85244174], [45.26311568, 42.85155312], [45.26325192, 42.85129089], [45.26150047, 42.85219592], [45.26099219, 42.85439091], [45.26035953, 42.85541752], [45.26064041, 42.85564475], [45.26071625, 42.85618127], [45.25962905, 42.85730665], [45.25954408, 42.85741728], [45.25945911, 42.85745358], [45.25406552, 42.86063088], [45.25350543, 42.86118497], [45.25349012, 42.86123661], [45.25348279, 42.86124761], [45.25324867, 42.86170104], [45.25323901, 42.8617117], [45.25322635, 42.86171936], [45.25321169, 42.86172269], [45.25319636, 42.86172136], [45.25318236, 42.8617167], [45.25317037, 42.86170904], [45.25315937, 42.86169838], [45.25315237, 42.86168705], [45.25356785, 42.86026019], [45.25285012, 42.85946965], [45.25283412, 42.85946532], [45.25281713, 42.85946399], [45.25278181, 42.85946964], [45.25276482, 42.8594753], [45.25274949, 42.8594833], [45.2527275, 42.85950329], [45.25272184, 42.85951528], [45.25271985, 42.85952794], [45.25272184, 42.85954027], [45.25281411, 42.85965555], [45.25292735, 42.85989847], [45.25294101, 42.85991813], [45.25291969, 42.8600211], [45.25290969, 42.86003143], [45.2526491, 42.8601567], [45.25263744, 42.86016403], [45.25260946, 42.86019134], [45.25241286, 42.86029626], [45.25234656, 42.86039089], [45.25217033, 42.86069241], [45.252169, 42.8607294], [45.25216434, 42.86074006], [45.25196077, 42.86096128], [45.25086915, 42.86154188], [45.24984615, 42.86179134], [45.24976024, 42.86197858], [45.24973425, 42.8619939], [45.24972025, 42.8619979], [45.24970526, 42.86199923], [45.24969027, 42.86199657], [45.24938352, 42.86104856], [45.24899995, 42.86085369], [45.24551729, 42.85648024], [45.24545593, 42.85645324], [45.24544193, 42.85645191], [45.2454286, 42.85645324], [45.24483853, 42.85663854], [45.24476326, 42.85660652], [45.24481484, 42.85664808], [45.24517866, 42.85666981], [45.24526178, 42.85676756], [45.24533337, 42.85669963], [45.24532659, 42.85659885], [45.24521795, 42.85677437], [45.24530828, 42.85676735], [45.24525744, 42.85678523], [45.24526276, 42.85679054], [45.24535206, 42.8567569], [45.24541267, 42.85672128], [45.24542166, 42.85671728], [45.24535505, 42.85668271], [45.24522893, 42.85668738], [45.2452276, 42.85674004], [45.24522062, 42.85677703], [45.24531553, 42.85680688], [45.24536049, 42.85675527], [45.2452975, 42.85681826], [45.24533324, 42.85677675], [45.24533394, 42.85678245], [45.24535965, 42.856827], [45.24534743, 42.85682832], [45.2453676, 42.85668218], [45.24531859, 42.85675651], [45.24531562, 42.85675049], [45.24531719, 42.85672116], [45.24532294, 42.8566944], [45.245295, 42.85671258], [45.24532966, 42.85670728], [45.24525964, 42.85678989], [45.24524539, 42.85677434], [45.24518753, 42.85685707], [45.24523053, 42.85680641], [45.24525919, 42.85676309], [45.24526952, 42.8567431], [45.24527652, 42.85672444], [45.24526944, 42.85638803], [45.23791104, 42.8586273], [45.23716265, 42.85907298], [45.23382264, 42.85830019], [45.23214722, 42.85852226], [45.2295501, 42.85915199], [45.22872769, 42.85939073], [45.22867438, 42.85939073], [45.22855844, 42.8592808], [45.22894219, 42.85889702], [45.22966469, 42.85779253], [45.2307226, 42.85695995], [45.23137861, 42.85670977], [45.23175282, 42.85659624], [45.23175709, 42.85644867], [45.23174943, 42.85645133], [45.22974536, 42.856535], [45.22107474, 42.8587636], [45.22167687, 42.85702945], [45.22169918, 42.85696814], [45.22170818, 42.85695748], [45.20732463, 42.85695094], [45.20168946, 42.85612737], [45.19686943, 42.85136099], [45.19092785, 42.85174838], [45.19089054, 42.85178436], [45.18792977, 42.85134817], [45.18784784, 42.85068703], [45.1851937, 42.84528686], [45.18517885, 42.84527265], [45.18517753, 42.84526439], [45.18516796, 42.84524952], [45.18516763, 42.84524192], [45.18517555, 42.84523828], [45.18517753, 42.84526106], [45.18516891, 42.84527461], [45.18304711, 42.8426845], [45.18306064, 42.84268845], [45.18300134, 42.84269843], [45.18276359, 42.84135457], [45.18235223, 42.84067615], [45.18240415, 42.8396478], [45.18222688, 42.83951154], [45.18177765, 42.83932834], [45.18171834, 42.83931869], [45.1816207, 42.83929737], [45.18132612, 42.83921345], [45.18123047, 42.8391728], [45.18079499, 42.83866432], [45.18055806, 42.83845407], [45.18029317, 42.8381202], [45.18026285, 42.83808754], [45.18023653, 42.83803922], [45.18001695, 42.83779867], [45.18001329, 42.83778667], [45.18001428, 42.83777468], [45.18001894, 42.83776202], [45.18004225, 42.83772703], [45.17549472, 42.83467825], [45.17488491, 42.83469355], [45.17302493, 42.83322499], [45.17307689, 42.83313101], [45.17616471, 42.82950614], [45.17645629, 42.82934425], [45.17708767, 42.82861454], [45.17815521, 42.82629027], [45.17870104, 42.82610277], [45.18033918, 42.82596903], [45.18041882, 42.82593105], [45.18044314, 42.82590972], [45.1804528, 42.82589672], [45.18039452, 42.82362981], [45.1805467, 42.82319561], [45.18070697, 42.82305066], [45.18072097, 42.823044], [45.1807373, 42.82303901], [45.18163373, 42.82314115], [45.18183366, 42.82315712], [45.18198795, 42.82321941], [45.18216919, 42.82335233], [45.18388561, 42.82438209], [45.1839426, 42.82438541], [45.18683637, 42.82508794], [45.18931765, 42.82513272], [45.18941762, 42.82518003], [45.18967688, 42.82531093], [45.19008575, 42.82526397], [45.19011541, 42.82524465], [45.19060192, 42.82494181], [45.19277922, 42.82412874], [45.19300649, 42.82397413], [45.19411947, 42.8233575], [45.19377876, 42.82058906], [45.19385836, 42.81737382], [45.19408956, 42.81729352], [45.19415752, 42.81732949], [45.19411561, 42.81729647], [45.19399138, 42.81732541], [45.19399271, 42.81731608], [45.19416421, 42.81732545], [45.19420181, 42.8173631], [45.19426733, 42.81742204], [45.194208, 42.81737571], [45.19416601, 42.81734605], [45.19409437, 42.81728343], [45.19410636, 42.81739597], [45.19405972, 42.81741628], [45.19405274, 42.81740696], [45.19404941, 42.81738963], [45.19403875, 42.81738031], [45.19404241, 42.81737398], [45.19406739, 42.81729273], [45.19406972, 42.8172814], [45.19405107, 42.81723775], [45.19402574, 42.81719309], [45.19402574, 42.81718376], [45.19403673, 42.81716744], [45.19402137, 42.81722336]]}, "properties": {"name": "Track"}}]}