{"type": "FeatureCollection", "features": [{"type": "Feature", "geometry": {"type": "LineString", "coordinates": [[41.20708933, 43.57996033], [41.20361424, 43.58092388], [41.20360324, 43.58092888], [41.20355575, 43.58090458], [41.20333888, 43.58092984], [41.20332855, 43.58092718], [41.20330489, 43.5809305], [41.20289957, 43.58127178], [41.20288158, 43.58128743], [41.19614024, 43.58454426], [41.19606555, 43.58456653], [41.19605389, 43.5845482], [41.19594995, 43.5845459], [41.19606025, 43.58452361], [41.19608357, 43.58453359], [41.1960909, 43.58454192], [41.19607332, 43.58461419], [41.19606601, 43.58454916], [41.19351352, 43.58598755], [41.19337489, 43.58604349], [41.19227995, 43.58633717], [41.18640293, 43.58770672], [41.18638661, 43.58771771], [41.1863969, 43.58772967], [41.18639305, 43.58772027], [41.1856429, 43.58834107], [41.18297194, 43.59248246], [41.18291928, 43.59253143], [41.1826711, 43.59282726], [41.18170162, 43.5936544], [41.18068561, 43.59443343], [41.18060765, 43.5944944], [41.18018777, 43.59455603], [41.17912451, 43.5947511], [41.17819547, 43.59490794], [41.17808883, 43.59490329], [41.17807117, 43.59490595], [41.17805651, 43.59491261], [41.17790092, 43.59502021], [41.17789159, 43.59502854], [41.17750741, 43.59522872], [41.17698715, 43.59593529], [41.176624, 43.59617575], [41.17662334, 43.59618441], [41.17661701, 43.59619207], [41.17650672, 43.59623935], [41.17637743, 43.59622105], [41.17636044, 43.59621939], [41.17520115, 43.59724234], [41.17454868, 43.59778025], [41.1745007, 43.59782556], [41.17448571, 43.59782955], [41.17384868, 43.59789305], [41.17325429, 43.59785082], [41.17324396, 43.59784816], [41.173174, 43.5978122], [41.17316167, 43.59781319], [41.16857328, 43.59885985], [41.16853296, 43.5988462], [41.16704548, 43.59998479], [41.16695657, 43.60052383], [41.16703912, 43.60072609], [41.16729361, 43.60119454], [41.16739327, 43.60139042], [41.16779619, 43.60187932], [41.16783217, 43.60192463], [41.16783783, 43.60193362], [41.16768177, 43.60271292], [41.16768943, 43.60273424], [41.16755515, 43.6028379], [41.16381198, 43.60525999], [41.16305368, 43.60594365], [41.16297275, 43.60608056], [41.16276416, 43.60618779], [41.16275217, 43.60619078], [41.1624393, 43.60610222], [41.16242464, 43.60609989], [41.16241031, 43.60610122], [41.16209109, 43.6061658], [41.16162757, 43.60609196], [41.16130501, 43.60601276], [41.16129135, 43.60601043], [41.16127735, 43.60601076], [41.16126269, 43.60601375], [41.15915361, 43.60608776], [41.15907798, 43.60606712], [41.15906099, 43.60606579], [41.15902701, 43.60606778], [41.15905171, 43.60605519], [41.15850637, 43.60612851], [41.15849053, 43.6061249], [41.15848655, 43.60611663], [41.15833973, 43.60599382], [41.15760662, 43.6058464], [41.15694797, 43.60646405], [41.1569493, 43.60647538], [41.15697193, 43.60653869], [41.15729494, 43.60759283], [41.15683319, 43.60789327], [41.15556144, 43.60932724], [41.15492344, 43.609559], [41.15491278, 43.60956233], [41.15433758, 43.61007813], [41.1543206, 43.61028206], [41.15428799, 43.61036236], [41.15429032, 43.61037169], [41.15401086, 43.61155967], [41.15359673, 43.61295821], [41.15342554, 43.6132674], [41.15343981, 43.61359359], [41.15346839, 43.61382781], [41.15257611, 43.61587321], [41.15255014, 43.61594318], [41.15254881, 43.61595517], [41.15238696, 43.61643313], [41.15232364, 43.6164691], [41.15230465, 43.61648809], [41.15230099, 43.61649775], [41.15230365, 43.61654774], [41.15217576, 43.61681728], [41.15209975, 43.61746274], [41.15217866, 43.61760964], [41.15213036, 43.6176916], [41.15213803, 43.61783853], [41.15133677, 43.61914999], [41.1507027, 43.61954102], [41.14960236, 43.61994422], [41.14937379, 43.61996159], [41.14899392, 43.62003764], [41.14632863, 43.62429764], [41.14581997, 43.62491262], [41.14581766, 43.62500923], [41.14562457, 43.62568797], [41.14562091, 43.62569897], [41.14532118, 43.6263114], [41.14386117, 43.6282044], [41.14375657, 43.62831901], [41.14345349, 43.62884301], [41.14341517, 43.62885499], [41.14340184, 43.62886132], [41.14328158, 43.62899893], [41.14327225, 43.62900826], [41.14283164, 43.62981923], [41.14206947, 43.63119599], [41.14204517, 43.63137525], [41.14197359, 43.63156252], [41.13947453, 43.63298814], [41.13917343, 43.63370274], [41.13916344, 43.63370973], [41.13804772, 43.63462446], [41.13802572, 43.63462712], [41.13793076, 43.63459683], [41.13791943, 43.63459949], [41.13729436, 43.6344589], [41.1339428, 43.63343379], [41.13351237, 43.63323233], [41.13341611, 43.63322137], [41.13239626, 43.63279112], [41.1262994, 43.63075827], [41.12629307, 43.63074928], [41.12585994, 43.63053147], [41.11960138, 43.62589308], [41.11938307, 43.62420657], [41.11933976, 43.62416028], [41.11719023, 43.62281832], [41.11632724, 43.62286223], [41.11173291, 43.62280822], [41.11165463, 43.62274692], [41.11156632, 43.62272756], [41.11154266, 43.62273198], [41.11162729, 43.62277959], [41.11156001, 43.62272299], [41.10967249, 43.62328825], [41.10872016, 43.62492752], [41.10742683, 43.62767897], [41.09840788, 43.63221368], [41.09806077, 43.63237475], [41.09805378, 43.63238141], [41.08924658, 43.63128695], [41.08687711, 43.63250377], [41.08642249, 43.63289069], [41.08104397, 43.63544121], [41.08103903, 43.63573198], [41.08150266, 43.63691248]]}, "properties": {"name": "Track"}}]}