{"type": "FeatureCollection", "features": [{"type": "Feature", "geometry": {"type": "LineString", "coordinates": [[43.91286566, 42.92071066], [43.91139987, 42.92173803], [43.91117286, 42.9219341], [43.91112389, 42.92207671], [43.91111223, 42.92209137], [43.91109557, 42.92210703], [43.91107458, 42.92212236], [43.91104992, 42.92213536], [43.91096427, 42.92216868], [43.91093427, 42.92217801], [43.91087561, 42.92219133], [43.91103998, 42.92213281], [43.91112861, 42.92206418], [43.91116855, 42.92195222], [43.91116689, 42.92193956], [43.90917689, 42.92249878], [43.90862553, 42.92381846], [43.90862354, 42.92382946], [43.90855726, 42.92394607], [43.90601765, 42.92706238], [43.90603628, 42.92714635], [43.90491094, 42.93118316], [43.90491126, 42.93117688], [43.90493305, 42.93117691], [43.90480681, 42.93147198], [43.9030996, 42.93310304], [43.90161234, 42.93377197], [43.9013591, 42.93384987], [43.90128245, 42.93386286], [43.90069872, 42.93423327], [43.89935065, 42.93494501], [43.89716155, 42.93573846], [43.89595706, 42.93880145], [43.89596406, 42.93881011], [43.89600937, 42.93924151], [43.89598376, 42.94005203], [43.89599542, 42.94005969], [43.89603507, 42.94008067], [43.89604506, 42.94009], [43.8963099, 42.94030252], [43.89649718, 42.94042646], [43.89651682, 42.94047611], [43.89651516, 42.94048877], [43.89615476, 42.94093084], [43.89631269, 42.94154214], [43.89632435, 42.94148016], [43.89630935, 42.94150482], [43.89629402, 42.94152615], [43.89627703, 42.94154248], [43.89551116, 42.94186636], [43.8954855, 42.94189135], [43.89545221, 42.94197564], [43.89546386, 42.94200929], [43.8955348, 42.94204057], [43.89553414, 42.94206222], [43.89554047, 42.94206922], [43.89544824, 42.94205095], [43.89525999, 42.94213186], [43.89466183, 42.94225138], [43.89449559, 42.94227964], [43.89449026, 42.94229064], [43.89448926, 42.94230164], [43.89448393, 42.94231197], [43.89445063, 42.94235562], [43.89435114, 42.94238458], [43.89437754, 42.94238556], [43.8943872, 42.94240745], [43.89433155, 42.94241809], [43.89435454, 42.94241176], [43.89451449, 42.9423495], [43.89450184, 42.94236448], [43.89439418, 42.94232415], [43.89431924, 42.94232983], [43.89430591, 42.94233616], [43.89429191, 42.94233749], [43.89427758, 42.94233549], [43.8942306, 42.94232451], [43.89414929, 42.94232816], [43.89404966, 42.94226218], [43.89402, 42.94223619], [43.89401601, 42.9422242], [43.89400735, 42.94220687], [43.89398305, 42.94216756], [43.89395639, 42.94219088], [43.89392306, 42.94223421], [43.89396138, 42.94224353], [43.89419604, 42.9422312], [43.8942107, 42.9422312], [43.89422603, 42.94223419], [43.89424236, 42.94224285], [43.89427302, 42.94226951], [43.89428302, 42.94228351], [43.89428901, 42.94229817], [43.89429967, 42.94231483], [43.894315, 42.94232982], [43.89433733, 42.94234282], [43.89435966, 42.94235148], [43.89438099, 42.94235181], [43.89440298, 42.94234415], [43.89001622, 42.94109682], [43.88809395, 42.94101485], [43.8878739, 42.94098939], [43.88788545, 42.94098808], [43.88646669, 42.94173846], [43.88646403, 42.94172746], [43.88556225, 42.94201982], [43.88416157, 42.94270992], [43.88175055, 42.94394153], [43.87855472, 42.94525902], [43.87848743, 42.94533499], [43.87845877, 42.94534998], [43.8770854, 42.94661357], [43.8761954, 42.94747551], [43.87618507, 42.94748584], [43.87377899, 42.94805445], [43.87370971, 42.94840791], [43.87290577, 42.94922587], [43.86944781, 42.95362408], [43.86854266, 42.9549736], [43.86746418, 42.95575682], [43.86745185, 42.95576248], [43.86573146, 42.95685495], [43.86541358, 42.95793576], [43.86344286, 42.95868376], [43.86190495, 42.96028234], [43.86099418, 42.96192378], [43.86096788, 42.96198642], [43.8601638, 42.96219916], [43.86013281, 42.96222814], [43.86012815, 42.9622398], [43.85979203, 42.96262127], [43.85767715, 42.96428636], [43.85705079, 42.96466199], [43.85703746, 42.96466732], [43.8569395, 42.96468396], [43.8569235, 42.96469062], [43.85678525, 42.96482186], [43.85366266, 42.96596366], [43.85120948, 42.96908819], [43.85100824, 42.96917175], [43.85080702, 42.96967501], [43.85081138, 42.96965391], [43.85081709, 42.96965163], [43.85081082, 42.96964502], [43.85082304, 42.96963744], [43.84423893, 42.97043382], [43.84421931, 42.97019864], [43.83977257, 42.9678584], [43.83975558, 42.9678564], [43.83952567, 42.96777282], [43.83945068, 42.9677685], [43.83867424, 42.9678393], [43.83865691, 42.96783697], [43.83831668, 42.96773209], [43.83748284, 42.96795137], [43.83479468, 42.96985663], [43.83484159, 42.96983351], [43.83354245, 42.97033948], [43.83477446, 42.96986881], [43.83504644, 42.96966555], [43.83519198, 42.96941604], [43.83518899, 42.96940904], [43.83242097, 42.9703084], [43.83236999, 42.97027976], [43.83235666, 42.9702791], [43.82996796, 42.97032911], [43.82992892, 42.9702701], [43.82941729, 42.97030879], [43.82912739, 42.97026349], [43.82888654, 42.96948233], [43.82806674, 42.96831031], [43.82529345, 42.96748285], [43.82465146, 42.96727805], [43.82366952, 42.96686856], [43.8169028, 42.9636222], [43.81712161, 42.96405325], [43.81674486, 42.96432672], [43.81676052, 42.96432206], [43.81677485, 42.96431473], [43.81678718, 42.9643044], [43.81679551, 42.96429341], [43.81679884, 42.96428141], [43.81498116, 42.96412424], [43.8134967, 42.96711634], [43.81282705, 42.96779001], [43.81274809, 42.96788729], [43.81180199, 42.96832451], [43.81178799, 42.96833351], [43.81024155, 42.9694926], [43.80840124, 42.97365594], [43.80838558, 42.97365794], [43.807063, 42.97209277], [43.80569023, 42.96953641], [43.80554126, 42.96948447], [43.80416047, 42.97042787], [43.80402719, 42.97043353], [43.80401319, 42.97042687], [43.80400153, 42.97041821], [43.80336486, 42.96932728], [43.80190706, 42.97211232], [43.80249206, 42.97280299], [43.80250538, 42.97282765], [43.79960636, 42.97295205], [43.79884537, 42.97358863], [43.79553963, 42.97730546], [43.79777371, 42.98274381], [43.79781236, 42.98279778], [43.79876396, 42.98749337], [43.8077057, 42.99713796], [43.80891325, 42.99799864], [43.80892758, 42.99800097], [43.80944209, 42.99801064], [43.80844696, 43.00021426], [43.80817447, 42.99990974], [43.80667917, 43.00202308], [43.80501165, 43.0049012], [43.80506225, 43.00505547], [43.80504493, 43.00509078], [43.80499636, 43.00537104], [43.80499137, 43.0053837], [43.80493441, 43.00545001], [43.80335982, 43.00709146], [43.80318615, 43.00813758], [43.80244984, 43.00839893], [43.80244051, 43.00840559], [43.80236055, 43.00844622], [43.80145693, 43.00933585], [43.7999818, 43.01038736], [43.79995115, 43.01041167], [43.79993915, 43.01041567], [43.79992716, 43.01041633], [43.79961107, 43.0094896], [43.79959741, 43.00950492], [43.79958045, 43.00957856], [43.79957412, 43.00958922], [43.79956446, 43.00959855], [43.79955213, 43.00960455], [43.79953913, 43.00960621], [43.79947473, 43.00965515], [43.79879581, 43.00851393], [43.79889641, 43.00789309], [43.79784392, 43.00648961], [43.79776625, 43.00644575], [43.79783423, 43.00638687], [43.79776594, 43.00637056], [43.79778593, 43.00635223], [43.79778426, 43.00634226], [43.79767412, 43.00632027], [43.79765413, 43.00631428], [43.79763714, 43.0063216], [43.79763847, 43.00633026], [43.79764813, 43.00634426], [43.79767569, 43.00641916]]}, "properties": {"name": "Track"}}]}