{"type": "FeatureCollection", "features": [{"type": "Feature", "geometry": {"type": "LineString", "coordinates": [[40.70850766, 43.969507], [40.7083238, 43.96944937], [40.70499126, 43.96818485], [40.70496894, 43.96816386], [40.69255105, 43.97011261], [40.69255172, 43.97010667], [40.68507769, 43.96807973], [40.68286558, 43.96661504], [40.68276962, 43.96658843], [40.67936389, 43.96635659], [40.6765208, 43.96610967], [40.67488866, 43.9657801], [40.67499193, 43.96568148], [40.67502825, 43.96566549], [40.66002023, 43.9624651], [40.66097669, 43.96109186], [40.66098535, 43.96107986], [40.66099668, 43.96106987], [40.66106333, 43.96104155], [40.66328341, 43.95850153], [40.66295313, 43.95851913], [40.66270953, 43.95851912], [40.66200515, 43.95842015], [40.66149366, 43.95863468], [40.66144034, 43.958651], [40.66133704, 43.95866664], [40.65868907, 43.95774217], [40.65867308, 43.95774316], [40.65827229, 43.95805433], [40.65805069, 43.95816091], [40.65500729, 43.95987205], [40.65480937, 43.96002927], [40.65309588, 43.96062777], [40.6530379, 43.96064341], [40.65259339, 43.96060015], [40.65258073, 43.96059182], [40.65253976, 43.96052251], [40.65251644, 43.96050685], [40.65199266, 43.96033434], [40.65181872, 43.96024673], [40.65179573, 43.96025639], [40.65176941, 43.96028538], [40.65175541, 43.96029271], [40.65167211, 43.96029936], [40.65139753, 43.96028171], [40.65123524, 43.96023209], [40.65122191, 43.9602231], [40.6511826, 43.96019178], [40.65031795, 43.95997698], [40.64919672, 43.95969801], [40.6491524, 43.95971398], [40.64804986, 43.95923555], [40.64729281, 43.95885044], [40.64680429, 43.95866296], [40.64666933, 43.958604], [40.64645806, 43.95854772], [40.64613148, 43.95853074], [40.64611449, 43.9585344], [40.6460022, 43.95855006], [40.64561335, 43.95860302], [40.64560102, 43.95860036], [40.64558969, 43.95859436], [40.64555473, 43.95850774], [40.64549576, 43.95853172], [40.6454871, 43.95854371], [40.64546847, 43.95860903], [40.64546147, 43.95862003], [40.64545114, 43.95862936], [40.64495261, 43.95864706], [40.64488333, 43.95857243], [40.6439197, 43.95806784], [40.64381674, 43.95803221], [40.64312933, 43.95749114], [40.64305469, 43.95745083], [40.64215804, 43.95713461], [40.64131434, 43.95708798], [40.64130768, 43.95707798], [40.6393384, 43.95592137], [40.63929376, 43.9558664], [40.63711164, 43.95445433], [40.63706632, 43.95442668], [40.63692341, 43.95419174], [40.63529483, 43.95269817], [40.63500267, 43.95232731], [40.63464391, 43.95093645], [40.63394221, 43.95036573], [40.63389323, 43.9503061], [40.63388757, 43.9502941], [40.63390855, 43.95020282], [40.63340942, 43.94953655], [40.63278552, 43.94916095], [40.6284171, 43.94627786], [40.62533577, 43.94648082], [40.6244651, 43.94614242], [40.62444644, 43.94613943], [40.62444268, 43.9461667], [40.62408055, 43.94612846], [40.62434555, 43.94617657], [40.62465278, 43.94622516], [40.62613306, 43.94724969], [40.62632729, 43.94831838], [40.62653107, 43.95225394], [40.62601559, 43.95273441], [40.62600459, 43.95274541], [40.62584901, 43.95297264], [40.62567808, 43.95310456], [40.62511035, 43.95364402], [40.62452788, 43.95403982], [40.62447824, 43.95400285], [40.62447758, 43.95399152], [40.62446293, 43.95397153], [40.6244516, 43.9539642], [40.6244376, 43.95396054], [40.6244226, 43.95395988], [40.6242517, 43.95418844], [40.62424237, 43.95420043], [40.62350931, 43.95476415], [40.62301744, 43.95499065], [40.62300644, 43.95500065], [40.62299878, 43.95501198], [40.62027633, 43.9562704], [40.61959425, 43.95682778], [40.61948596, 43.95694804], [40.61938968, 43.95710499], [40.61940235, 43.95718261], [40.61637262, 43.9603992], [40.61629467, 43.96056014], [40.61598148, 43.96085566], [40.61586384, 43.96092528], [40.61559593, 43.96105616], [40.61541132, 43.96119741], [40.61537334, 43.96125638], [40.61340195, 43.96203061], [40.61346423, 43.96215456], [40.60956694, 43.9640572], [40.60940832, 43.96415249], [40.6092144, 43.96427908], [40.60918174, 43.9643134], [40.60750638, 43.9662604], [40.6065978, 43.96702967], [40.60356244, 43.97014939], [40.60118085, 43.96902232], [40.6003048, 43.96896571], [40.60010064, 43.96897504], [40.59973873, 43.96903661], [40.5997224, 43.96903861], [40.5977547, 43.96915005], [40.59772171, 43.9691637], [40.59756777, 43.96926765], [40.59755477, 43.96927798], [40.59750678, 43.9693003], [40.59738081, 43.96933894], [40.59722518, 43.9693859], [40.59716921, 43.96941088], [40.59700328, 43.96956113], [40.5969743, 43.96959312], [40.59684169, 43.96968541], [40.59162844, 43.96895276], [40.59159345, 43.9689511], [40.59157479, 43.9689461], [40.59151613, 43.96891479], [40.59099996, 43.96878325], [40.5867905, 43.96850623], [40.58648228, 43.96862546], [40.58626305, 43.96871401], [40.58609909, 43.9687543], [40.58604577, 43.96875595], [40.58552966, 43.96886878], [40.58528641, 43.96896137], [40.5852101, 43.96897334], [40.58509546, 43.96896504], [40.58492483, 43.96889343], [40.5847256, 43.9688042], [40.584559, 43.96881453], [40.58446702, 43.96878222], [40.58445269, 43.96878222], [40.58409287, 43.96888407], [40.58032189, 43.96938339], [40.57838745, 43.96910751], [40.57706133, 43.96945055], [40.57655982, 43.9696427], [40.5764442, 43.96971366], [40.57011001, 43.97040739], [40.57006236, 43.97041304], [40.57002804, 43.9704227], [40.56992409, 43.97053832], [40.56944126, 43.97075315], [40.56943193, 43.97076481], [40.5694276, 43.97077814], [40.56943126, 43.97081513], [40.5694266, 43.97082446], [40.5693073, 43.97084775], [40.56904355, 43.97378458], [40.56863234, 43.97386145], [40.56149375, 43.97080836]]}, "properties": {"name": "Track"}}]}