{"type": "FeatureCollection", "features": [{"type": "Feature", "geometry": {"type": "LineString", "coordinates": [[40.39922399, 44.06197633], [40.3993841, 44.06173832], [40.3991933, 44.06136168], [40.39886964, 44.06124326], [40.39775868, 44.06135633], [40.39662445, 44.06123004], [40.39647325, 44.06108289], [40.39519356, 44.06120147], [40.39459863, 44.06173538], [40.39366838, 44.06213097], [40.39348319, 44.0626119], [40.39390593, 44.06289099], [40.39386397, 44.06325448], [40.39336037, 44.06375788], [40.39249224, 44.06388731], [40.39245107, 44.06458787], [40.39290902, 44.06491512], [40.39308751, 44.06544776], [40.39245121, 44.06562617], [40.39232271, 44.06601656], [40.39247766, 44.0664659], [40.39232991, 44.06664398], [40.3925245, 44.06721169], [40.39201401, 44.06772643], [40.39105404, 44.06845664], [40.39083566, 44.06949938], [40.39104199, 44.07077256], [40.39044545, 44.07158275], [40.38979212, 44.07168622], [40.38788749, 44.07246199], [40.38649114, 44.07282491], [40.38584427, 44.07315991], [40.38536961, 44.0731067], [40.38485124, 44.07336769], [40.38342864, 44.07364919], [40.38273026, 44.073476], [40.38150796, 44.07336989], [40.38096725, 44.07317685], [40.38044668, 44.07322605], [40.38002635, 44.07289472], [40.37972099, 44.07311357], [40.37956021, 44.07354522], [40.37969032, 44.0739989], [40.37942842, 44.07491221], [40.37959926, 44.07545553], [40.37887296, 44.07650832], [40.37892895, 44.07697207], [40.37917383, 44.0771136], [40.3792464, 44.0779679], [40.37873297, 44.078374], [40.37830391, 44.07896106], [40.37791806, 44.08004319], [40.37744772, 44.08079688], [40.37755459, 44.08234338], [40.37712249, 44.08267179], [40.37723538, 44.08351478], [40.37685069, 44.08566611], [40.37722139, 44.0863341], [40.37759382, 44.08672856], [40.37746029, 44.08747462], [40.37748993, 44.08817585], [40.37786984, 44.08914359], [40.37838255, 44.08941156], [40.3782584, 44.08991498], [40.37786364, 44.09035474], [40.37804552, 44.09099441], [40.37798426, 44.09147848], [40.37702059, 44.09204445], [40.37672291, 44.09301899], [40.3764624, 44.09328182], [40.37654032, 44.09363781], [40.37636094, 44.09407377], [40.37644475, 44.09473081], [40.37609449, 44.09580467], [40.37586559, 44.09707669], [40.37583934, 44.09800036], [40.37611202, 44.09900894], [40.37618999, 44.09966935], [40.37586667, 44.10066059], [40.37593191, 44.10134692], [40.37576411, 44.10154636], [40.37463762, 44.10152218], [40.37344599, 44.10172781], [40.37189087, 44.10150127], [40.37091552, 44.10156813], [40.36955701, 44.10217128], [40.36864895, 44.1024716], [40.3678046, 44.10286153], [40.3668329, 44.1030162], [40.36550767, 44.10303519], [40.36446332, 44.10325615], [40.36332069, 44.10328612], [40.36223703, 44.10363071], [40.36170324, 44.10357409], [40.36038235, 44.10394132], [40.36003412, 44.10391105], [40.35899588, 44.10355277], [40.35767264, 44.103963], [40.35703454, 44.10423741], [40.35605087, 44.10444105], [40.35473435, 44.10440117], [40.35387367, 44.10404217], [40.35296363, 44.10396372], [40.35254176, 44.10407993], [40.35127523, 44.10478009], [40.34975538, 44.1051672], [40.34805257, 44.10595811], [40.34702604, 44.10679363], [40.34671229, 44.10770888], [40.34631984, 44.10822164], [40.34563576, 44.1086177], [40.34513871, 44.10909175], [40.34516534, 44.10960457], [40.34488865, 44.11038593], [40.34367578, 44.11100872], [40.34261092, 44.11177892], [40.34234883, 44.11218908], [40.34140331, 44.1131523], [40.34080604, 44.11404921], [40.34081276, 44.11493908], [40.34114376, 44.11551277], [40.34105695, 44.11582812], [40.3401007, 44.11636135], [40.33918543, 44.11716564], [40.3380424, 44.11851077], [40.33753494, 44.11895987], [40.33641667, 44.11965778], [40.33514119, 44.12033461], [40.33440444, 44.12041617], [40.33370569, 44.12078685], [40.33286651, 44.12181704], [40.33188902, 44.12240922], [40.33128795, 44.12263429], [40.32953688, 44.12287282], [40.32892241, 44.1227846], [40.32762425, 44.12330794], [40.32663568, 44.12402615], [40.32615956, 44.12412262], [40.3257678, 44.12400283], [40.32414251, 44.12463344], [40.32369671, 44.12472492], [40.32270956, 44.1252901], [40.32210093, 44.12600408], [40.32158776, 44.12716291], [40.32090523, 44.12800275], [40.32081804, 44.12851781], [40.32030104, 44.12888641], [40.31986683, 44.1289799], [40.31875217, 44.12889975], [40.31785881, 44.1289806], [40.31685207, 44.12934908], [40.31649138, 44.12979412], [40.3162827, 44.13037016], [40.31576909, 44.13072384], [40.31426948, 44.1313685], [40.31366171, 44.13180885], [40.31301925, 44.13187706], [40.31256136, 44.13217985], [40.3121472, 44.13219846], [40.31194132, 44.13247796], [40.31115924, 44.13293144], [40.31010165, 44.13305943], [40.30993375, 44.13317066], [40.30747959, 44.13327241], [40.30593241, 44.13381117], [40.30557026, 44.13403564], [40.30368792, 44.13662413], [40.30305229, 44.13760244], [40.30210979, 44.13870058], [40.30170081, 44.1398022], [40.30220827, 44.1403593], [40.30372646, 44.14086855], [40.30425495, 44.14130671], [40.30506551, 44.14266015], [40.30538654, 44.14350554], [40.30496724, 44.14437553], [40.3047425, 44.14508826], [40.30415087, 44.14598323], [40.30418508, 44.14707385], [40.30353702, 44.14771193], [40.30279194, 44.14810575], [40.30192763, 44.14888412], [40.30173276, 44.14917501], [40.30091136, 44.14959304], [40.30032822, 44.14975516], [40.29935049, 44.14971692], [40.29801219, 44.14956117], [40.297489, 44.14985936], [40.29652829, 44.15069903], [40.29580286, 44.15102284], [40.29570658, 44.15146104], [40.29601316, 44.15153862], [40.29703685, 44.15111828], [40.29744443, 44.15105671], [40.29824714, 44.15139577], [40.29804605, 44.15223982], [40.29829052, 44.15277132], [40.2990226, 44.15317446], [40.29970274, 44.1533446], [40.30023658, 44.15332095], [40.30085169, 44.15309053], [40.30131519, 44.15315507], [40.30261537, 44.15389957], [40.3027406, 44.1549649], [40.30182416, 44.1562464], [40.30169671, 44.15705748], [40.30095205, 44.15789342], [40.29990537, 44.15803958], [40.29896128, 44.1584063], [40.29853877, 44.158799], [40.29875526, 44.15961974], [40.29801792, 44.16039244], [40.29791562, 44.16155373], [40.29814082, 44.16220203], [40.29859965, 44.16240551], [40.29862072, 44.16284731], [40.29885258, 44.16326782], [40.30048504, 44.16403098], [40.30086086, 44.16438145], [40.30072504, 44.16489829], [40.29976742, 44.1657529], [40.29936986, 44.1669495], [40.29929476, 44.167529], [40.29892509, 44.16845906], [40.29840738, 44.16911747], [40.29829955, 44.16950134], [40.29838201, 44.17132907], [40.29912607, 44.17199548], [40.29962515, 44.17257295], [40.30024933, 44.17366877], [40.30034119, 44.17409765], [40.2999621, 44.17586476], [40.29950833, 44.17646283], [40.29873156, 44.17691523], [40.29743727, 44.17742881], [40.29739331, 44.17784466], [40.29702313, 44.17821747], [40.29594164, 44.1790204], [40.2953883, 44.17984442], [40.29524647, 44.18027662], [40.29450259, 44.18140456], [40.29377484, 44.18286343], [40.29337973, 44.18337054], [40.29233973, 44.18402079], [40.29174431, 44.18456116], [40.291401, 44.18539576], [40.29215701, 44.18935491], [40.29266968, 44.19021894], [40.29424434, 44.19188056], [40.29484638, 44.19261291], [40.29548251, 44.19301234], [40.29689374, 44.19364492], [40.29755288, 44.19354001], [40.29798575, 44.19326116], [40.29861491, 44.19318234], [40.29926498, 44.19346877], [40.29958387, 44.19462134], [40.29967706, 44.19536113], [40.29939417, 44.19562867], [40.29797262, 44.1958507], [40.29687529, 44.19635899], [40.29638914, 44.19631669], [40.29537617, 44.19565772], [40.29479965, 44.19561279], [40.29397559, 44.19585319], [40.29310694, 44.19650083], [40.29237359, 44.19723886], [40.29203649, 44.19778462], [40.29088339, 44.19883547], [40.28862646, 44.20026132], [40.28707101, 44.20139303], [40.28621131, 44.20192476], [40.28478407, 44.20294047], [40.28431678, 44.2034588], [40.28421269, 44.20460137], [40.28373367, 44.20523907], [40.27769062, 44.20779504], [40.27778524, 44.20794796], [40.28075822, 44.20865436], [40.28089517, 44.20878362], [40.28035642, 44.2096646], [40.27989459, 44.20995606], [40.2787653, 44.20957678], [40.27789167, 44.20898357], [40.2768017, 44.20864628], [40.27545852, 44.20785514], [40.27432186, 44.2076698], [40.27227413, 44.20781336], [40.2702054, 44.20821637], [40.26828598, 44.20868853], [40.26761553, 44.20905193], [40.2670595, 44.20976628], [40.26656331, 44.21004613], [40.26500941, 44.21056467], [40.26402073, 44.21064013], [40.26300005, 44.21087514], [40.2606611, 44.2121144], [40.25946278, 44.21232172], [40.2584028, 44.21218769], [40.25683801, 44.21176879], [40.25490487, 44.21157563], [40.25432003, 44.21164619], [40.25320204, 44.21215082], [40.25189707, 44.21236841], [40.24746718, 44.21225423], [40.24704384, 44.2135365], [40.24515221, 44.21475875], [40.24526183, 44.21510692], [40.24594456, 44.21566296], [40.2453741, 44.21581171]]}, "properties": {"name": "Track"}}]}