{"type": "FeatureCollection", "features": [{"type": "Feature", "geometry": {"type": "LineString", "coordinates": [[43.44162933, 43.11094399], [43.44108653, 43.11121714], [43.43853808, 43.11206801], [43.43849542, 43.11213297], [43.44122038, 43.11614558], [43.44177525, 43.11706894], [43.44252487, 43.11773434], [43.44325393, 43.11826476], [43.44772475, 43.12118268], [43.45056954, 43.12258914], [43.45252458, 43.12358826], [43.45477823, 43.12466626], [43.45678819, 43.12553322], [43.45678352, 43.12570843], [43.45842964, 43.12608028], [43.4585686, 43.12625218], [43.45782183, 43.1262349], [43.45740073, 43.12675531], [43.45837334, 43.12749222], [43.45859007, 43.12807394], [43.45852212, 43.12910743], [43.45388999, 43.13104051], [43.45341578, 43.13091397], [43.45296893, 43.13100051], [43.45256807, 43.13126532], [43.45161869, 43.13233008], [43.45093296, 43.13259382], [43.45034016, 43.1326387], [43.4496238, 43.13296722], [43.4482822, 43.1333511], [43.44721854, 43.13352946], [43.44652743, 43.13339763], [43.44562006, 43.1329723], [43.44297805, 43.13264275], [43.44170111, 43.13227053], [43.44084302, 43.13221066], [43.4401756, 43.13234944], [43.43882942, 43.13228589], [43.43791375, 43.13195519], [43.43745665, 43.13158806], [43.43731132, 43.13202693], [43.43657743, 43.13156574], [43.43584003, 43.13144105], [43.43439519, 43.13165818], [43.43359242, 43.13163829], [43.43195159, 43.13174399], [43.43072366, 43.13139978], [43.43006253, 43.131291], [43.42896623, 43.13132329], [43.4271405, 43.13162264], [43.42641213, 43.13220133], [43.42518822, 43.13255062], [43.42340612, 43.13345515], [43.42292162, 43.13350934], [43.42191364, 43.13380635], [43.42169808, 43.13397925], [43.42159363, 43.13451998], [43.42219703, 43.13419087], [43.42302446, 43.13394611], [43.4241308, 43.13378312], [43.42494184, 43.1335434], [43.42606081, 43.13346458], [43.42739708, 43.13378109], [43.42842447, 43.13375484], [43.42949116, 43.13407645], [43.42948584, 43.13427101], [43.428896, 43.13442809], [43.42807863, 43.13437794], [43.42784839, 43.13449384], [43.42801223, 43.13479539], [43.42709224, 43.13563832], [43.42588505, 43.13607135], [43.42522378, 43.13649731], [43.42412393, 43.13823455], [43.42186389, 43.13994395], [43.42122476, 43.14021279], [43.41970364, 43.13999488], [43.41934441, 43.14004013], [43.41858705, 43.14068521], [43.4184022, 43.14102605], [43.4177911, 43.1414528], [43.41700357, 43.14217732], [43.4159689, 43.14237287], [43.41494699, 43.14313015], [43.41455576, 43.14332937], [43.41393095, 43.14340319], [43.41297892, 43.14333811], [43.4121412, 43.14358955], [43.41126948, 43.14356684], [43.41074569, 43.14390297], [43.41046387, 43.14368581], [43.40810933, 43.14296124], [43.40696337, 43.14291867], [43.4064552, 43.14275254], [43.40472731, 43.14160504], [43.40350003, 43.14133475], [43.40234412, 43.14127434], [43.40150886, 43.14164595], [43.40093149, 43.1420953], [43.40014184, 43.14254158], [43.39945753, 43.14326656], [43.39662648, 43.14424953], [43.39557012, 43.14432155], [43.39389401, 43.14423043], [43.39280234, 43.14438673], [43.3907637, 43.14476198], [43.38955775, 43.14481104], [43.38700654, 43.14504057], [43.38616748, 43.14523895], [43.38311953, 43.14530896], [43.3823641, 43.14513788], [43.38182159, 43.14485975], [43.38161515, 43.14445133], [43.3806229, 43.14412643], [43.37950381, 43.14397956], [43.37789652, 43.14367607], [43.3756842, 43.14354359], [43.37454663, 43.14332676], [43.37328098, 43.14331414], [43.37341722, 43.1427496], [43.37236364, 43.14292749], [43.37132099, 43.14276255], [43.37061388, 43.14281508], [43.36992576, 43.14298719], [43.37051088, 43.14263217], [43.36875257, 43.14264266], [43.3678416, 43.14273612], [43.36725147, 43.14257836], [43.36574743, 43.1416241], [43.36551952, 43.1417537], [43.365672, 43.14242639], [43.36502561, 43.1422973], [43.3646135, 43.14199357], [43.36391077, 43.14203844], [43.36353129, 43.14222591], [43.36317066, 43.14209382], [43.36328123, 43.14164704], [43.36285752, 43.1418551], [43.36207853, 43.14160003], [43.36081177, 43.14129872], [43.36016641, 43.14082002], [43.35863663, 43.14039032], [43.35713112, 43.13968995], [43.35644806, 43.13926287], [43.35520561, 43.13831941], [43.35447211, 43.13762224], [43.35371103, 43.13657248], [43.35313771, 43.13599082], [43.35263399, 43.13492473], [43.35180104, 43.1337851], [43.35150623, 43.13368449], [43.35182623, 43.13465706], [43.3518748, 43.13609975], [43.35227648, 43.13759271], [43.35297462, 43.13876545], [43.35305446, 43.13907163], [43.35384318, 43.14042868], [43.35377655, 43.14054229], [43.3517715, 43.1392982], [43.35147399, 43.13902868], [43.35083515, 43.13810546], [43.34988173, 43.13717402], [43.34920176, 43.13661101], [43.3481259, 43.13602556], [43.34696339, 43.13556937], [43.34688876, 43.1354098], [43.34583634, 43.13482154], [43.34518425, 43.13454919], [43.34497745, 43.13429751], [43.34379837, 43.13350975], [43.34330058, 43.13334796], [43.34292584, 43.13299256], [43.34227746, 43.13297949], [43.34114599, 43.13282358], [43.34059392, 43.13248258], [43.33974193, 43.13244566], [43.33904856, 43.13256802], [43.33762844, 43.13305383], [43.33643332, 43.13335746], [43.33419081, 43.13410046], [43.33338121, 43.13423116], [43.332196, 43.13419299], [43.33152492, 43.13405888], [43.33090329, 43.13375026], [43.32892356, 43.13293626], [43.32701699, 43.1327063], [43.32614404, 43.13242311], [43.3251526, 43.13261737], [43.32441899, 43.13240282], [43.32349757, 43.13225586], [43.32306652, 43.13207512], [43.32249225, 43.13152232], [43.32086012, 43.13043741], [43.32042443, 43.12996873], [43.31990875, 43.12960308], [43.31956666, 43.12954897], [43.31891012, 43.12894704], [43.3180687, 43.12794994], [43.3183088, 43.12746961], [43.3157273, 43.12790613], [43.31410459, 43.12808014], [43.31298263, 43.12834508], [43.31172383, 43.12937274], [43.31083115, 43.12964775], [43.31040398, 43.12960022], [43.30952996, 43.12997852], [43.3093958, 43.13039833], [43.30957958, 43.13094307], [43.31048156, 43.13168075], [43.3106997, 43.13209323], [43.31090018, 43.13333197], [43.3106672, 43.13438642], [43.30951072, 43.13435496], [43.30810717, 43.13452853], [43.30669421, 43.13506945], [43.3056331, 43.13520817], [43.30474043, 43.1352248], [43.30342593, 43.13586329], [43.30231296, 43.13604359], [43.30226165, 43.13628808], [43.30323296, 43.13636931], [43.30401532, 43.13632982], [43.30511563, 43.1361445], [43.30587182, 43.13652436], [43.30749091, 43.13659007], [43.30874681, 43.13684562], [43.30988647, 43.13730629], [43.31119537, 43.13826081], [43.31149351, 43.13870598], [43.31231216, 43.13947697], [43.31227426, 43.14024878], [43.31271375, 43.14055158], [43.31349886, 43.14057826], [43.31454075, 43.14147849], [43.31574342, 43.14203872], [43.3163292, 43.14263381], [43.31746106, 43.14357795], [43.31773814, 43.14412437], [43.31830347, 43.14491835], [43.31887466, 43.14620654], [43.31931911, 43.14668102], [43.31970389, 43.14728842], [43.32018405, 43.14767824], [43.32051048, 43.14825534], [43.32104628, 43.14858912], [43.32131439, 43.14903426], [43.32084499, 43.14940938], [43.31901865, 43.15043602], [43.31765916, 43.15096193], [43.31770611, 43.15125147], [43.31843313, 43.15174618], [43.31874661, 43.15217865], [43.31868234, 43.15286536], [43.31714963, 43.15419068], [43.31624627, 43.15488768], [43.31609136, 43.15515191], [43.31624085, 43.15652101], [43.31651659, 43.15715613], [43.31676048, 43.15846175], [43.31718752, 43.15921376], [43.31719717, 43.15949434], [43.31645363, 43.16062928], [43.31648659, 43.16088218], [43.3178208, 43.16141172], [43.3176862, 43.16165131], [43.31701274, 43.16202904], [43.31708669, 43.16223297], [43.31650968, 43.16265396], [43.31564659, 43.16275083], [43.31508447, 43.16235903], [43.31345195, 43.16262335], [43.31252554, 43.16301164], [43.31158391, 43.16361764], [43.31115342, 43.16411777], [43.31080873, 43.16489678], [43.31020571, 43.16551052], [43.30929297, 43.16586502], [43.30880091, 43.16639009], [43.30764693, 43.16690138], [43.30682592, 43.16718914], [43.30591293, 43.16776051], [43.30508955, 43.16811021], [43.30369534, 43.16846913], [43.3029986, 43.16895222], [43.30278943, 43.16949167], [43.30437796, 43.16997355], [43.30490745, 43.17026169], [43.30424666, 43.17036933], [43.3038078, 43.17059219], [43.30354428, 43.17092671], [43.30256363, 43.17127131], [43.30324852, 43.17232522], [43.30354207, 43.17257878], [43.30342151, 43.17298199], [43.30294999, 43.17318817], [43.30250321, 43.17357066], [43.30162847, 43.17364329], [43.30069912, 43.17414198], [43.30046023, 43.17438987], [43.29926495, 43.1749098], [43.29852786, 43.17510322], [43.29821664, 43.17533945], [43.29788188, 43.17594821], [43.29705653, 43.17644993], [43.2951202, 43.17723764], [43.29445759, 43.17818156], [43.29403905, 43.1785004], [43.2938125, 43.17831017], [43.29373996, 43.17739476], [43.29321193, 43.17813786], [43.29211663, 43.17919247], [43.29125423, 43.17988818], [43.2900216, 43.18036679]]}, "properties": {"name": "Track"}}]}