{"type": "FeatureCollection", "features": [{"type": "Feature", "geometry": {"type": "LineString", "coordinates": [[41.97213699, 43.46127366], [41.97025282, 43.46136926], [41.93841231, 43.47265317], [41.93401844, 43.47301893], [41.92610713, 43.47181883], [41.92612298, 43.47181421], [41.92602224, 43.47182149], [41.92583013, 43.47183718], [41.92436638, 43.47173966], [41.92385662, 43.47156313], [41.92339941, 43.47152685], [41.92330145, 43.47150022], [41.90252636, 43.47188366], [41.8973523, 43.47176313], [41.89721943, 43.47169288], [41.89192931, 43.47296427], [41.89156053, 43.47225791], [41.8915482, 43.47225225], [41.89153487, 43.47224992], [41.89150988, 43.47225491], [41.89113803, 43.47250743], [41.88956403, 43.47305224], [41.88593018, 43.47357815], [41.88559395, 43.47354788], [41.8855583, 43.47352789], [41.88552797, 43.47351757], [41.88550998, 43.47351591], [41.88549265, 43.47351657], [41.88544533, 43.47352989], [41.88539601, 43.47353055], [41.88523539, 43.4734403], [41.88326514, 43.47319276], [41.88232849, 43.47308633], [41.88231016, 43.47308866], [41.88166531, 43.47311765], [41.88162932, 43.47312331], [41.88142605, 43.47310366], [41.88126145, 43.47303639], [41.88016172, 43.47288992], [41.88000344, 43.47291688], [41.87998611, 43.47291821], [41.8796762, 43.47289926], [41.87758922, 43.47369534], [41.87729137, 43.47410373], [41.87497707, 43.47411131], [41.87496241, 43.47410998], [41.87494942, 43.47411331], [41.87372749, 43.47407858], [41.87302637, 43.47414946], [41.87277011, 43.47417103], [41.87259382, 43.47413575], [41.87257883, 43.47413542], [41.8721962, 43.47396859], [41.86945256, 43.47296193], [41.84797915, 43.46705465], [41.84266337, 43.46274704], [41.84192312, 43.46245332], [41.83970448, 43.46116154], [41.8353786, 43.45827328], [41.8354702, 43.45756194], [41.83501733, 43.45642411], [41.83381681, 43.45550262], [41.8334947, 43.45501989], [41.83283913, 43.45450451], [41.8308395, 43.45308864], [41.8291341, 43.45300371], [41.82695603, 43.45255055], [41.82697455, 43.452537], [41.82350889, 43.45270188], [41.82349656, 43.45270454], [41.82249027, 43.45324952], [41.82239862, 43.45332316], [41.82231567, 43.45344511], [41.82174129, 43.45405413], [41.82035015, 43.45488956], [41.81886827, 43.45542287], [41.81867099, 43.45549515], [41.81865866, 43.45550414], [41.81861436, 43.45555579], [41.81525406, 43.45594566], [41.81509111, 43.45598328], [41.81381611, 43.4563442], [41.81321494, 43.45632622], [41.81251446, 43.45634613], [41.81198561, 43.45636314], [41.80763586, 43.45604229], [41.80644333, 43.45497079], [41.80641001, 43.45496113], [41.80613941, 43.45496713], [41.80526536, 43.45476063], [41.80501178, 43.45476095], [41.80483715, 43.45477192], [41.80481749, 43.45477059], [41.80473185, 43.45474527], [41.80466087, 43.45470262], [41.80460089, 43.45469364], [41.80376379, 43.45466498], [41.80329258, 43.45460144], [41.80286401, 43.45457682], [41.80256776, 43.45461409], [41.80222251, 43.45471533], [41.80220751, 43.45471533], [41.80200288, 43.45469336], [41.80192823, 43.45467705], [41.80047969, 43.45483288], [41.79979255, 43.45502104], [41.79977655, 43.45503204], [41.79972691, 43.45508236], [41.79971058, 43.45509269], [41.79952362, 43.45519232], [41.79948997, 43.45520331], [41.79919472, 43.45524489], [41.79905209, 43.45533551], [41.79869054, 43.45551373], [41.79859191, 43.45554437], [41.79837498, 43.45565698], [41.79835932, 43.45566798], [41.798317, 43.45570229], [41.79830001, 43.45571128], [41.79824335, 43.45573027], [41.79765853, 43.45605709], [41.79764053, 43.45606475], [41.79746823, 43.45611869], [41.79722098, 43.45618493], [41.7970597, 43.45625889], [41.79702871, 43.45629855], [41.79702038, 43.45631421], [41.79700607, 43.45638285], [41.79702004, 43.45653479], [41.79686648, 43.45682902], [41.79648299, 43.45732216], [41.79643886, 43.45752104], [41.79644019, 43.4575327], [41.79652046, 43.45768493], [41.79657378, 43.45791148], [41.79657611, 43.45792381], [41.79657079, 43.45824869], [41.79651451, 43.45894278], [41.79630573, 43.45968351], [41.79650909, 43.46079934], [41.79651709, 43.46080967], [41.79652307, 43.4608983], [41.79684051, 43.46171993], [41.79683518, 43.46178758], [41.79568341, 43.46297339], [41.79401045, 43.46432148], [41.79380051, 43.46432546], [41.79329598, 43.4644913], [41.79295275, 43.46459952], [41.79279248, 43.46465415], [41.79108333, 43.46518764], [41.79100669, 43.46518199], [41.79058046, 43.46527356], [41.79053248, 43.46530987], [41.79045184, 43.46534317], [41.79043318, 43.46534783], [41.79039219, 43.46535282], [41.79034987, 43.46536148], [41.79021525, 43.46540378], [41.78998998, 43.4654454], [41.78997098, 43.46544706], [41.78982069, 43.46544939], [41.78980269, 43.46544806], [41.78978503, 43.4654434], [41.78975004, 43.46542975], [41.78973104, 43.46542642], [41.78969138, 43.46542609], [41.78967272, 43.46542409], [41.78844509, 43.46516367], [41.78843343, 43.465175], [41.78830785, 43.46541423], [41.78829785, 43.46542622], [41.78825687, 43.46545454], [41.78820556, 43.46546952], [41.78809726, 43.46546186], [41.78801862, 43.46546186], [41.78755406, 43.46543658], [41.7875374, 43.46544057], [41.78735912, 43.46553883], [41.78690861, 43.46584532], [41.7859219, 43.46631869], [41.78474056, 43.46654238], [41.78465625, 43.46653872], [41.78372618, 43.46647583], [41.78304273, 43.46675229], [41.78303173, 43.46676362], [41.78296677, 43.46686325], [41.78292545, 43.46689023], [41.78289246, 43.46689855], [41.78283748, 43.46690254], [41.78280482, 43.46691486], [41.78271119, 43.46699316], [41.7826309, 43.46710445], [41.78258258, 43.46712743], [41.7821917, 43.46723297], [41.78201542, 43.46730093], [41.78173517, 43.4672923], [41.78015266, 43.46667944], [41.77809133, 43.46711876], [41.77803388, 43.4670599], [41.77801589, 43.4670559], [41.77729409, 43.46711849], [41.7772371, 43.46711883], [41.77697418, 43.46715808], [41.7747052, 43.46738223], [41.77468721, 43.46738856], [41.77463556, 43.46741221], [41.77386011, 43.46739355], [41.77384078, 43.46739289], [41.77382245, 43.46739555], [41.77276509, 43.46759129], [41.77274909, 43.46760062], [41.77270777, 43.4676306], [41.77093259, 43.46813112], [41.77083796, 43.46817708], [41.7697279, 43.46846205], [41.76781609, 43.46869114], [41.7667081, 43.4690435], [41.76555241, 43.46933654], [41.76505224, 43.46947372], [41.76416782, 43.46949667], [41.76410784, 43.46950698], [41.76408784, 43.46950864], [41.76245557, 43.46954451], [41.76150886, 43.46958572], [41.76125529, 43.46962132], [41.76123596, 43.46962033], [41.761057, 43.46960472], [41.75960912, 43.46959496], [41.75913726, 43.46952343], [41.75911727, 43.46952177], [41.75780398, 43.46934178], [41.75766802, 43.46931881], [41.75639664, 43.46097026], [41.75335741, 43.45775347], [41.75335075, 43.45774281], [41.74839086, 43.45246406], [41.74703306, 43.44921255], [41.74615206, 43.44742955], [41.74287705, 43.44232504], [41.74273012, 43.44219076], [41.74271346, 43.44218443], [41.74269546, 43.44218044], [41.74265847, 43.44217745], [41.74131667, 43.44287477], [41.74131101, 43.4428951], [41.74129269, 43.44291509], [41.74126503, 43.44292775], [41.74122704, 43.44293108], [41.74118905, 43.44292609], [41.74114006, 43.44290511], [41.74194944, 43.44430459], [41.74196844, 43.44430959], [41.74200143, 43.44432391], [41.74017274, 43.44852086], [41.7392146, 43.45010454], [41.73919361, 43.45015419], [41.73901, 43.45034746], [41.7382966, 43.45110715], [41.73827661, 43.45112981], [41.73591264, 43.45461475], [41.7357831, 43.45484764], [41.73577473, 43.45503656], [41.73576874, 43.45504722], [41.73565438, 43.45553467], [41.73564772, 43.455544], [41.73615668, 43.46843234], [41.73630592, 43.46878689], [41.73645849, 43.46908245], [41.73647748, 43.46910277], [41.73663133, 43.46943164], [41.73792209, 43.47184156], [41.73798509, 43.4718309], [41.73806008, 43.47193556], [41.73803077, 43.47195853], [41.73788311, 43.47201552], [41.73785913, 43.47206213], [41.73800012, 43.47217379], [41.73797246, 43.47217446], [41.73794947, 43.47217912], [41.73793543, 43.47211961], [41.73809009, 43.47208762], [41.73808808, 43.47208497], [41.73787358, 43.47205007], [41.73760358, 43.47166607], [41.73760657, 43.4716754], [41.7376179, 43.47168706], [41.73763989, 43.47172004], [41.73767188, 43.47175336], [41.73775153, 43.47182134], [41.73784618, 43.47192032], [41.73800145, 43.47212027], [41.73959814, 43.47407507], [41.73961414, 43.47407607], [41.73963013, 43.47407441], [41.73967978, 43.47404477], [41.73968877, 43.47403411], [41.7423171, 43.47389492], [41.74251896, 43.47426942], [41.74250297, 43.47426576], [41.74231205, 43.47431736], [41.74230239, 43.47432569], [41.74229374, 43.47434701], [41.74230504, 43.47441699], [41.74306804, 43.47560839]]}, "properties": {"name": "Track"}}]}