{"type": "FeatureCollection", "features": [{"type": "Feature", "geometry": {"type": "LineString", "coordinates": [[41.51443866, 43.48847566], [41.51403284, 43.48839537], [41.51296162, 43.48778214], [41.51036142, 43.48484017], [41.5090075, 43.48447218], [41.50759575, 43.48535057], [41.50706361, 43.48545236], [41.5059163, 43.48535788], [41.5054523, 43.48464357], [41.50489119, 43.48453414], [41.50400865, 43.48466162], [41.50261284, 43.48555168], [41.50196592, 43.4858716], [41.50237349, 43.48632741], [41.50351899, 43.48686935], [41.5032164, 43.48743703], [41.50358033, 43.48832434], [41.50357098, 43.48868564], [41.50307601, 43.48892885], [41.50242459, 43.4885997], [41.50151318, 43.48901941], [41.50140028, 43.4894144], [41.5000627, 43.48974538], [41.49876249, 43.48959767], [41.49635718, 43.49030205], [41.49555389, 43.49044501], [41.4948681, 43.49082054], [41.49463816, 43.49173713], [41.493096, 43.49301662], [41.49243389, 43.49314744], [41.49155048, 43.49356417], [41.49116589, 43.49389277], [41.49043444, 43.49413256], [41.4906069, 43.49490343], [41.48939364, 43.49528511], [41.48854574, 43.49531642], [41.4880712, 43.49494522], [41.48745705, 43.49500935], [41.48640977, 43.49492356], [41.48523164, 43.49509116], [41.48393114, 43.49542217], [41.48352876, 43.49586692], [41.48285238, 43.49621529], [41.4809769, 43.49606091], [41.47989834, 43.49617804], [41.47956103, 43.49603071], [41.47939658, 43.49631649], [41.47886862, 43.49640227], [41.47809989, 43.49624335], [41.47718202, 43.49643594], [41.47632687, 43.49637816], [41.47558357, 43.49596944], [41.47478428, 43.49594256], [41.47430675, 43.49629442], [41.47346795, 43.49644562], [41.47095101, 43.49639327], [41.47070507, 43.49703921], [41.46972929, 43.49730849], [41.47016465, 43.49750651], [41.46906912, 43.49763062], [41.46838729, 43.4975582], [41.46861869, 43.49781815], [41.466609, 43.49821737], [41.46572056, 43.49803933], [41.4657508, 43.49820379], [41.46496919, 43.49819556], [41.46500813, 43.49846525], [41.46450261, 43.49837315], [41.46482034, 43.49886672], [41.4645999, 43.49892625], [41.46437079, 43.49960649], [41.46327599, 43.50035157], [41.4618237, 43.50169147], [41.46099952, 43.50161019], [41.46027273, 43.50185905], [41.45971648, 43.50167051], [41.45934072, 43.50203668], [41.45863791, 43.50212262], [41.45820287, 43.50133645], [41.45788174, 43.50146695], [41.45774187, 43.50113748], [41.45648747, 43.50158938], [41.45598275, 43.50221175], [41.45583626, 43.50089038], [41.45469209, 43.50135063], [41.45327397, 43.5012655], [41.45302234, 43.50208631], [41.4529435, 43.50306056], [41.45307727, 43.50371698], [41.45270343, 43.50405442], [41.45184747, 43.50431072], [41.45125145, 43.50465607], [41.45058483, 43.50471006], [41.45074756, 43.50494109], [41.45063667, 43.50560108], [41.44995472, 43.50631101], [41.44912043, 43.5066697], [41.44739388, 43.50717088], [41.44674228, 43.50746589], [41.44636125, 43.50789959], [41.44607605, 43.50781829], [41.44395896, 43.5083808], [41.44318442, 43.50886702], [41.44106934, 43.50958976], [41.44057024, 43.50990479], [41.43968346, 43.51016963], [41.43805597, 43.5116078], [41.437691, 43.5121851], [41.43749018, 43.51368938], [41.43718069, 43.51392249], [41.43707317, 43.51516459], [41.43862349, 43.51726946], [41.43863207, 43.5176173], [41.43932299, 43.51826328], [41.44007472, 43.51831809], [41.44105065, 43.51880397], [41.44205365, 43.51892111], [41.44263543, 43.51940223], [41.44252626, 43.52017133], [41.44324968, 43.52113273], [41.44276318, 43.52088956], [41.44205924, 43.52139946], [41.44175024, 43.52219648], [41.44279511, 43.52309133], [41.44263942, 43.52391367], [41.4426953, 43.52453137], [41.44236791, 43.52538455], [41.44268113, 43.52697055], [41.44307872, 43.52756677], [41.44274744, 43.52802088], [41.44386119, 43.52904123], [41.44476445, 43.52967732], [41.4448376, 43.53034042], [41.44447838, 43.53094637], [41.44373036, 43.53119569], [41.44341749, 43.53109615], [41.44212701, 43.5311122], [41.44175368, 43.53140684], [41.44068785, 43.53151825], [41.43975629, 43.53117395], [41.43923394, 43.53159957], [41.43813273, 43.53166076], [41.43790463, 43.53183051], [41.4383569, 43.53237745], [41.439014, 43.53418108], [41.43816167, 43.5356336], [41.43748653, 43.53643652], [41.43746763, 43.53710687], [41.43715529, 43.53735896], [41.43696778, 43.53835752], [41.4355641, 43.53852885], [41.43459659, 43.5384242], [41.43389754, 43.53858741], [41.43290278, 43.5384646], [41.43110687, 43.53878197], [41.43089819, 43.53866455], [41.43073482, 43.53937783], [41.43008571, 43.53967447], [41.42997654, 43.54002528], [41.42866847, 43.53990927], [41.42775053, 43.54027665], [41.42798941, 43.54082942], [41.42762837, 43.54100518], [41.42499098, 43.54154576], [41.4242179, 43.5416069], [41.42409731, 43.54213334], [41.42294247, 43.5425914], [41.42209622, 43.54194614], [41.42134249, 43.5422115], [41.42026198, 43.54212403], [41.4195296, 43.54218695], [41.41880159, 43.54200856], [41.41800065, 43.54209148], [41.41735126, 43.54186406], [41.41601827, 43.54187948], [41.41563247, 43.54208227], [41.41553086, 43.54249275], [41.41588284, 43.54320609], [41.41700635, 43.54391757], [41.41839416, 43.54501178], [41.41836751, 43.54544652], [41.41870875, 43.54674255], [41.41800191, 43.54749072], [41.4182113, 43.54794304], [41.41815965, 43.54865307], [41.41764888, 43.54900984], [41.41732454, 43.54991975], [41.41659849, 43.55037312], [41.41595638, 43.55042803], [41.41535498, 43.55080275], [41.41558974, 43.55131143], [41.41611586, 43.55175123], [41.41750425, 43.5537942], [41.41759382, 43.55440657], [41.41730139, 43.55483534], [41.41732507, 43.55572782], [41.41776573, 43.5574965], [41.41743766, 43.55835743], [41.41742669, 43.559589], [41.41696397, 43.5601531], [41.41713778, 43.56063859], [41.41804244, 43.56152045], [41.41864245, 43.56259211], [41.4177561, 43.56309615], [41.41747835, 43.56360526], [41.41803153, 43.56463271], [41.41819566, 43.56523962]]}, "properties": {"name": "Track"}}]}