{"type": "FeatureCollection", "features": [{"type": "Feature", "geometry": {"type": "LineString", "coordinates": [[42.55724766, 43.440583], [42.5563307, 43.44063527], [42.55560827, 43.44036082], [42.55491182, 43.43982211], [42.55348889, 43.43897025], [42.5530858, 43.43840812], [42.55227116, 43.43969293], [42.55178203, 43.43997641], [42.5512495, 43.43999505], [42.54966133, 43.43941689], [42.54832448, 43.43921783], [42.54789789, 43.43828098], [42.5473557, 43.4379785], [42.54644289, 43.43692832], [42.54569647, 43.43643559], [42.54482241, 43.43640273], [42.54348713, 43.43606843], [42.54257375, 43.43565139], [42.5411406, 43.43624361], [42.54055246, 43.43655845], [42.53998374, 43.4370295], [42.53950654, 43.4369773], [42.53899572, 43.43663716], [42.53829607, 43.43470107], [42.5383989, 43.43388246], [42.53771477, 43.43408868], [42.53716248, 43.43490501], [42.5364181, 43.43451909], [42.53635352, 43.43423129], [42.53574929, 43.43359545], [42.53491176, 43.43352096], [42.53546003, 43.43402254], [42.53601683, 43.43556005], [42.5360833, 43.43635206], [42.5363779, 43.43714795], [42.53620648, 43.43744933], [42.53576097, 43.43736707], [42.53604495, 43.43718614], [42.53573986, 43.4369148], [42.53510458, 43.43696181], [42.53488476, 43.43645786], [42.53436983, 43.43579655], [42.533099, 43.43512668], [42.5325586, 43.43475985], [42.53178276, 43.43447341], [42.53129888, 43.4339224], [42.53134621, 43.43321295], [42.53171685, 43.43300295], [42.53113379, 43.43289013], [42.53061758, 43.43294396], [42.52858554, 43.43264923], [42.52780863, 43.43283864], [42.52701035, 43.43265268], [42.52644831, 43.43223512], [42.5258665, 43.43205735], [42.52535934, 43.43215194], [42.52403312, 43.43209212], [42.52311841, 43.43226049], [42.52278327, 43.43210899], [42.52136502, 43.43182813], [42.52069187, 43.43181713], [42.51734321, 43.43097699], [42.51526618, 43.43053926], [42.51476575, 43.42993218], [42.51438752, 43.4298183], [42.51377503, 43.43005611], [42.51290566, 43.42984408], [42.51193263, 43.42986002], [42.5107427, 43.42941744], [42.50988364, 43.42895707], [42.50898714, 43.42809693], [42.50823539, 43.42813188], [42.50776106, 43.42782227], [42.50727503, 43.4279137], [42.50801297, 43.42880925], [42.50707033, 43.4288393], [42.50614795, 43.42903971], [42.50582923, 43.429484], [42.50499318, 43.42903367], [42.50385111, 43.42900833], [42.50309299, 43.42869319], [42.50056469, 43.42866869], [42.49951524, 43.42884798], [42.4986075, 43.42884598], [42.49806077, 43.42871429], [42.49732181, 43.42878299], [42.49682972, 43.42918436], [42.49601301, 43.42943171], [42.49408616, 43.42964656], [42.49240765, 43.42958378], [42.49103308, 43.42939284], [42.48873611, 43.42918013], [42.48640941, 43.42888945], [42.48392142, 43.42867075], [42.48232418, 43.42874729], [42.48062208, 43.42855446], [42.47868778, 43.42856173], [42.47786669, 43.42842867], [42.47726756, 43.42848355], [42.47496265, 43.42895646], [42.4745078, 43.42913399], [42.47343212, 43.42917491], [42.47143542, 43.42885418], [42.47053741, 43.429007], [42.46744708, 43.42804267], [42.46600783, 43.42728677], [42.46554165, 43.4269436], [42.46431704, 43.42652229], [42.46343636, 43.42613088], [42.46267026, 43.42578206], [42.46094585, 43.42599765], [42.45936072, 43.42637584], [42.4588775, 43.42640706], [42.45683569, 43.42630966], [42.455733, 43.42639539], [42.45514913, 43.42634089], [42.45250413, 43.42654784], [42.45234351, 43.42663811], [42.45118652, 43.42675014], [42.45030802, 43.42669826], [42.44962721, 43.42651477], [42.44848519, 43.42648914], [42.44786603, 43.42633597], [42.44704631, 43.42595822], [42.44664714, 43.42549448], [42.44635026, 43.42557044], [42.44591081, 43.42598957], [42.44454617, 43.42538386], [42.44251946, 43.42478753], [42.44134749, 43.42428889], [42.43988735, 43.42330783], [42.43924532, 43.42280479], [42.43863557, 43.42282141], [42.43843614, 43.42253888], [42.43784137, 43.42233009], [42.43759316, 43.42253964], [42.43652889, 43.42237391], [42.4352214, 43.4219009]]}, "properties": {"name": "Track"}}]}