{"type": "FeatureCollection", "features": [{"type": "Feature", "geometry": {"type": "LineString", "coordinates": [[47.09647765, 42.28473169], [47.09666475, 42.285433], [47.09697646, 42.28578808], [47.09711028, 42.286496], [47.09644872, 42.28721219], [47.09592838, 42.28793858], [47.0936944, 42.28941476], [47.09310428, 42.28959786], [47.0923389, 42.28940315], [47.09099316, 42.28996997], [47.0904525, 42.28986089], [47.08902336, 42.28924282], [47.08763107, 42.289007], [47.08614621, 42.28930352], [47.08528682, 42.28931949], [47.08436819, 42.28959879], [47.08385254, 42.29012076], [47.08243576, 42.29043039], [47.08204143, 42.29060906], [47.0814295, 42.29019043], [47.08116935, 42.289817], [47.08042602, 42.28931102], [47.07946735, 42.28941885], [47.07849084, 42.2896911], [47.07811935, 42.2894207], [47.07789391, 42.2888736], [47.07635807, 42.28886123], [47.07455278, 42.2895231], [47.0736362, 42.29025664], [47.07279856, 42.29071486], [47.07096548, 42.29206592], [47.07072508, 42.29252004], [47.06980538, 42.29254531], [47.06907339, 42.2928766], [47.06870472, 42.29324126], [47.06773891, 42.29381972], [47.06666431, 42.29487435], [47.06631185, 42.29496654], [47.06582805, 42.29457637], [47.06485124, 42.29460399], [47.06325069, 42.29451821], [47.06186398, 42.29482694], [47.06047431, 42.29537522], [47.0592134, 42.2961897], [47.05887711, 42.29699502], [47.05790739, 42.29817133], [47.0572187, 42.29874635], [47.05440556, 42.29981305], [47.0537806, 42.30033296], [47.05248723, 42.30182705], [47.0515126, 42.30360233], [47.05065906, 42.30449104], [47.04936195, 42.30436996], [47.0490104, 42.30453565], [47.04893697, 42.30486744], [47.048299, 42.30448456], [47.048187, 42.30508195], [47.0478202, 42.30513194], [47.04796534, 42.30551861], [47.04751706, 42.30548799], [47.04751142, 42.30572944], [47.04675016, 42.30622633], [47.04591885, 42.30648362], [47.04526712, 42.30731706], [47.04492001, 42.30741197], [47.04483392, 42.30846415], [47.04435989, 42.3087754], [47.04450979, 42.30914497], [47.04421907, 42.30953133], [47.0429441, 42.3099918], [47.04290292, 42.31036815], [47.04142083, 42.31070824], [47.04104369, 42.31142084], [47.04105738, 42.31186995], [47.04043353, 42.3122002], [47.04030767, 42.31322992], [47.04014958, 42.31366965], [47.04042558, 42.31547174], [47.04043523, 42.3159945], [47.0397193, 42.31660335], [47.03935249, 42.31711522], [47.03890219, 42.31730157], [47.03825378, 42.31814057], [47.03707671, 42.31883478], [47.03675107, 42.31960771], [47.03681351, 42.32004231], [47.03601758, 42.32012583], [47.03459274, 42.31966495], [47.03392564, 42.31957483], [47.0336298, 42.31903669], [47.03297718, 42.31919887], [47.03303043, 42.31995055], [47.0334894, 42.3202822], [47.03349003, 42.32057369], [47.03242258, 42.32055779], [47.03237252, 42.32090634], [47.03392367, 42.32097588], [47.03408963, 42.32136562], [47.03301237, 42.32178596], [47.03299466, 42.3221565], [47.03332711, 42.32255666], [47.0342348, 42.32297502], [47.03441098, 42.32346618], [47.03516538, 42.32393259], [47.0354155, 42.32432777], [47.03517811, 42.32491453], [47.03481331, 42.325317], [47.03491544, 42.32578143], [47.03565753, 42.32654093], [47.03579027, 42.32722817], [47.03615539, 42.32748326], [47.03634813, 42.32802104], [47.03623189, 42.32849912], [47.03645131, 42.32934909], [47.03631492, 42.33042641], [47.03595934, 42.33072938], [47.03603296, 42.33206852], [47.03575139, 42.33258462], [47.03605798, 42.33347426], [47.03625651, 42.3337001], [47.03608679, 42.33421682], [47.03500929, 42.33527598], [47.03424228, 42.3358707], [47.03359654, 42.33650737], [47.03331991, 42.33744995], [47.0329579, 42.33804052], [47.0332871, 42.3393873], [47.03354006, 42.3411609], [47.03335986, 42.3414671], [47.03252218, 42.34194476], [47.03231046, 42.34271921], [47.03261823, 42.3434132], [47.03225323, 42.34423388], [47.03187025, 42.34472929], [47.03203328, 42.3454307], [47.03176654, 42.34593417], [47.03093064, 42.34705005], [47.02953406, 42.34770189], [47.02829503, 42.34788958], [47.02751475, 42.34877087], [47.02781284, 42.34966088], [47.02799741, 42.34981081], [47.02841766, 42.35095829], [47.02698312, 42.35191344], [47.02465358, 42.35268606], [47.0231182, 42.35366413], [47.02188926, 42.35424237], [47.02166913, 42.35505842], [47.02047127, 42.35566026], [47.0190639, 42.35658521], [47.01863245, 42.35735806], [47.01836054, 42.35824208], [47.01827373, 42.3593092], [47.01804466, 42.35963135], [47.01816841, 42.36069223], [47.01808134, 42.36170412], [47.01740932, 42.36305793], [47.01684616, 42.36327074], [47.01648644, 42.36410174], [47.01662428, 42.36471352], [47.01698811, 42.3652853], [47.01699279, 42.3661013], [47.01686972, 42.366731], [47.01625127, 42.36694079], [47.01547196, 42.36766045], [47.01426211, 42.36846834], [47.01349704, 42.3685859], [47.01287241, 42.36909954], [47.01172408, 42.37026857], [47.00952131, 42.37207535], [47.00855535, 42.37280295], [47.00773023, 42.37323999], [47.00673084, 42.37319839], [47.00381508, 42.37395084], [47.00311869, 42.37462451], [47.00227842, 42.37484957], [47.0021532, 42.37505783], [47.00146885, 42.37515528], [47.00131026, 42.37553047], [47.00063918, 42.37511272], [46.9997598, 42.37476632], [46.99694328, 42.3742265], [46.99531903, 42.37383795], [46.99377946, 42.37379479], [46.99181197, 42.37406195], [46.98983321, 42.37394289], [46.98808236, 42.37436678], [46.98682173, 42.37477012], [46.9861436, 42.37524388], [46.98487266, 42.37563916], [46.98272028, 42.37572355], [46.98219088, 42.37519439], [46.98177255, 42.37446171], [46.98091043, 42.37434686], [46.98041475, 42.37363315], [46.98031675, 42.3741502], [46.98059215, 42.37461131], [46.98009139, 42.37427047], [46.97970722, 42.37423953], [46.98020324, 42.37496224], [46.98075766, 42.3753887], [46.9811564, 42.37605646], [46.98015306, 42.37561617], [46.98001679, 42.3757581], [46.98111835, 42.37663597], [46.98028694, 42.37633395], [46.97990777, 42.37659478], [46.9806544, 42.37748669], [46.98203699, 42.37766132], [46.98197136, 42.37781355], [46.98027698, 42.37793373], [46.97903737, 42.3772662], [46.97899004, 42.37742412], [46.97988033, 42.37838863], [46.97831712, 42.37777115], [46.97768231, 42.37794869], [46.97749317, 42.3783589], [46.97715698, 42.37852944], [46.97669951, 42.37823258], [46.97618186, 42.37894325], [46.97586932, 42.37911944], [46.9753535, 42.37900088], [46.97486387, 42.37829018], [46.97449431, 42.37832482], [46.97434509, 42.3786327], [46.9749578, 42.37946863], [46.97393877, 42.37910463], [46.97350294, 42.37927353], [46.97349503, 42.37990928], [46.97413676, 42.38059122], [46.97287916, 42.3800226], [46.97239932, 42.38017546], [46.97180486, 42.38004795], [46.97146333, 42.37980177], [46.97124255, 42.37930661], [46.97100227, 42.37825157], [46.97116278, 42.37780942], [46.97027616, 42.3783395], [46.96934115, 42.37780851], [46.96910679, 42.37710474], [46.96867767, 42.37671795], [46.96846319, 42.37695821]]}, "properties": {"name": "Track"}}]}