{"type": "FeatureCollection", "features": [{"type": "Feature", "geometry": {"type": "LineString", "coordinates": [[39.68915466, 43.70847866], [39.67704163, 43.69914224], [39.67699498, 43.6990836], [39.67696299, 43.6990586], [39.67697465, 43.6989613], [39.67688869, 43.69878372], [39.67654462, 43.69441715], [39.67662695, 43.69421049], [39.67662828, 43.69422549], [39.67664661, 43.69414849], [39.67496235, 43.68917687], [39.67375511, 43.6886479], [39.66925542, 43.68441664], [39.66925575, 43.68437931], [39.66926741, 43.68435865], [39.66902735, 43.68402339], [39.6690197, 43.68399506], [39.66902402, 43.68390343], [39.66900869, 43.68389144], [39.66900003, 43.68387945], [39.66848548, 43.68260843], [39.66762383, 43.68250145], [39.66787149, 43.68243679], [39.66793082, 43.68242346], [39.66799415, 43.68240647], [39.66806414, 43.68238482], [39.66856647, 43.68148683], [39.66853281, 43.68148949], [39.66850382, 43.68148783], [39.66845183, 43.68148783], [39.66839817, 43.68148949], [39.66831619, 43.68147984], [39.6683122, 43.68146718], [39.66833385, 43.68141854], [39.66829487, 43.68137789], [39.66826821, 43.68136989], [39.66826222, 43.68137155], [39.66796224, 43.68109829], [39.66805855, 43.68106132], [39.66808288, 43.68104766], [39.66809821, 43.68103233], [39.66805987, 43.68087203], [39.66815883, 43.6807564], [39.66816914, 43.6806541], [39.6675867, 43.67979174], [39.66761202, 43.67975475], [39.66761568, 43.67973842], [39.66762834, 43.67972076], [39.66766299, 43.67968511], [39.66774598, 43.67963146], [39.66776631, 43.67961513], [39.66779264, 43.67959814], [39.66782397, 43.67956782], [39.66781599, 43.67948986], [39.66763147, 43.67913504], [39.66746815, 43.67904738], [39.66752447, 43.67896841], [39.66753313, 43.67894842], [39.66753745, 43.67890643], [39.66753179, 43.67888844], [39.66744983, 43.67878979], [39.6671713, 43.67859825], [39.66712031, 43.67854927], [39.66689513, 43.67841601], [39.6665969, 43.67873418], [39.66661523, 43.67874617], [39.66664255, 43.67877683], [39.66668517, 43.67915234], [39.66653084, 43.67916767], [39.66648685, 43.67920464], [39.66613755, 43.67958129], [39.66610124, 43.67959728], [39.66609424, 43.67960994], [39.66606491, 43.67963193], [39.66602427, 43.67970223], [39.66597528, 43.67972655], [39.66597594, 43.67973588], [39.6660216, 43.67984453], [39.66597594, 43.67982187], [39.66590263, 43.67979622], [39.65524243, 43.66627114], [39.654761, 43.66578371], [39.654759, 43.66570973], [39.65460451, 43.6652519], [39.65458482, 43.66502098], [39.65453422, 43.66472107], [39.65402671, 43.66449591], [39.65350494, 43.66399885], [39.65324234, 43.66378928], [39.65321702, 43.66376696], [39.65320036, 43.6637313], [39.65319737, 43.6637103], [39.6531997, 43.66368064], [39.65308978, 43.66347873], [39.65310044, 43.66343407], [39.65312876, 43.66334308], [39.65313709, 43.66327375], [39.65313742, 43.66324276], [39.65282928, 43.66274892], [39.65235884, 43.66102237], [39.6523735, 43.66100937], [39.65251113, 43.66092774], [39.65257546, 43.66087141], [39.65257947, 43.66081477], [39.65257514, 43.66079644], [39.65229433, 43.65990309], [39.65215747, 43.6595632], [39.65218247, 43.65943421], [39.65203618, 43.65940193], [39.65200523, 43.65928132], [39.65136923, 43.65863033], [39.65141056, 43.6586], [39.65147089, 43.65855367], [39.65153955, 43.65849867], [39.65160021, 43.65844801], [39.65164354, 43.65840768], [39.65167554, 43.65837602], [39.65233098, 43.65679413], [39.65143991, 43.65208733], [39.64913503, 43.65279861], [39.6490417, 43.65274528], [39.64901605, 43.65270496], [39.64899839, 43.65268596], [39.64263121, 43.65478004]]}, "properties": {"name": "Track"}}]}