{"type": "FeatureCollection", "features": [{"type": "Feature", "geometry": {"type": "LineString", "coordinates": [[46.45004566, 42.49452166], [46.45021556, 42.49469503], [46.44794488, 42.49582297], [46.44761883, 42.49613866], [46.44623952, 42.49612167], [46.44506577, 42.49639726], [46.44441145, 42.49769095], [46.44432187, 42.49818252], [46.44542081, 42.49949], [46.44535517, 42.49999094], [46.44572306, 42.4998534], [46.44613318, 42.50102121], [46.44522889, 42.50188935], [46.44455247, 42.5029975], [46.44491549, 42.50315162], [46.44422558, 42.50459324], [46.44442266, 42.50493262], [46.44424085, 42.50522172], [46.44443029, 42.50570027], [46.44344517, 42.50608945], [46.44231254, 42.50687872], [46.44196002, 42.50689923], [46.44170342, 42.50736745], [46.44175401, 42.50772652], [46.44050674, 42.50856755], [46.43968925, 42.5092953], [46.43927976, 42.51020177], [46.43899095, 42.51044713], [46.43752949, 42.51092173], [46.43690792, 42.51123547], [46.43725846, 42.51129974], [46.43685568, 42.51155517], [46.43653762, 42.51226613], [46.43621472, 42.51228311], [46.43488889, 42.51294198], [46.4336621, 42.51389332], [46.43299029, 42.51400883], [46.43277354, 42.51460873], [46.43208484, 42.51449069], [46.4319259, 42.51471614], [46.43136511, 42.51477535], [46.4295297, 42.5146353], [46.4291633, 42.51478199], [46.42797872, 42.51483245], [46.42699436, 42.51512073], [46.42677078, 42.51537687], [46.42521075, 42.5164644], [46.42428246, 42.51630659], [46.42360672, 42.51663294], [46.42230156, 42.51789654], [46.42186904, 42.5180174], [46.42141902, 42.5184538], [46.41968893, 42.51875909], [46.41824937, 42.51920195], [46.41726103, 42.51964486], [46.4166896, 42.52009099], [46.41705576, 42.52041075], [46.41544928, 42.52091056], [46.41450095, 42.52135489], [46.41415854, 42.52186096], [46.41423708, 42.52215418], [46.41329279, 42.52265847], [46.41184891, 42.52403962], [46.41076502, 42.52484115], [46.4107547, 42.52521526], [46.40965534, 42.52561547], [46.40757405, 42.52520021], [46.40710178, 42.52525018], [46.40654108, 42.52554095], [46.40544546, 42.5255014], [46.40451608, 42.52557255], [46.40441179, 42.52578915], [46.40520016, 42.52640511], [46.4055015, 42.52714879], [46.40551877, 42.52790273], [46.40586328, 42.52892913], [46.40740092, 42.53039085], [46.40772208, 42.53099898], [46.40621048, 42.53110906], [46.40534019, 42.53166059], [46.4057246, 42.53213983], [46.40655593, 42.53204921], [46.40834323, 42.53248784], [46.4100793, 42.53341597], [46.41094141, 42.53402061], [46.41064615, 42.53424949], [46.41097904, 42.5345231], [46.411378, 42.53535433], [46.4113315, 42.53595312], [46.41163009, 42.53695181], [46.41235309, 42.53708984], [46.41267921, 42.53753309], [46.41316933, 42.53784299], [46.41399301, 42.53797094], [46.41454298, 42.53838605], [46.41555834, 42.53856801], [46.41588695, 42.53876525], [46.41563027, 42.5389696], [46.41594637, 42.53961887], [46.41385086, 42.54007103], [46.41276463, 42.54021503], [46.41086694, 42.54062258], [46.4102229, 42.5403015], [46.40863181, 42.53999362], [46.40818467, 42.54028273], [46.40779115, 42.54025413], [46.40752904, 42.54068262], [46.40674269, 42.5412513], [46.40666703, 42.54163979], [46.40574936, 42.54169442], [46.4041972, 42.54203823], [46.40348978, 42.54229559], [46.40242414, 42.54251183], [46.40151211, 42.54286878], [46.40196585, 42.54381311], [46.40268779, 42.54413977], [46.40280428, 42.54467739], [46.4026445, 42.54489491], [46.39994951, 42.54573538], [46.39865858, 42.54585642], [46.39820374, 42.54612555], [46.39543527, 42.54689993], [46.39472183, 42.54701135], [46.39261257, 42.5469913], [46.39153158, 42.547083], [46.39018102, 42.54731086], [46.38878413, 42.54769766], [46.38792922, 42.54810391], [46.38696251, 42.54835386], [46.38768924, 42.54871547], [46.38680128, 42.54922076], [46.38632622, 42.54967983], [46.3856238, 42.54998296], [46.38468781, 42.55008931], [46.38313564, 42.5501355], [46.3815158, 42.55037425], [46.38058415, 42.55078516], [46.37902196, 42.55159093], [46.3775347, 42.55223849], [46.37756966, 42.55295576], [46.37708467, 42.55364679], [46.37659955, 42.55406926], [46.37636823, 42.55472096], [46.37434788, 42.5563813], [46.37388904, 42.55660146], [46.37362193, 42.55706927], [46.37320474, 42.55730078], [46.37297449, 42.55821297], [46.37336468, 42.55837411], [46.37517635, 42.55828169], [46.3753772, 42.55868113], [46.37452834, 42.55918635], [46.37357436, 42.55955627], [46.37201431, 42.5604107], [46.37098376, 42.56126954], [46.37050706, 42.56243764], [46.370587, 42.56285045], [46.37043791, 42.56346551], [46.36976102, 42.56449381], [46.36955408, 42.56512475], [46.36964146, 42.5658118], [46.36931772, 42.5662842], [46.36841582, 42.56667138], [46.36713561, 42.56656897], [46.36677914, 42.56644874]]}, "properties": {"name": "Track"}}]}