{"type": "FeatureCollection", "features": [{"type": "Feature", "geometry": {"type": "LineString", "coordinates": [[40.011466, 44.07636933], [40.01153561, 44.07617937], [40.01162327, 44.07632203], [40.01158096, 44.07631771], [40.01161127, 44.07620613], [40.01161193, 44.07619114], [40.01152824, 44.07619245], [40.01148291, 44.07625211], [40.01151292, 44.07637678], [40.01153825, 44.07629212], [40.01154327, 44.07633176], [40.01276607, 44.07523671], [40.01371468, 44.06925104], [40.01370835, 44.06923838], [40.01369869, 44.06922672], [40.01361491, 44.06918909], [40.01385513, 44.06896953], [40.01387479, 44.06894321], [40.01491185, 44.06722847], [40.01600843, 44.06613017], [40.01608706, 44.06603454], [40.0165972, 44.06554205], [40.01702502, 44.06510858], [40.01706034, 44.06506593], [40.01775172, 44.0643535], [40.01783176, 44.0642819], [40.01783275, 44.06426957], [40.0187099, 44.06338829], [40.01898694, 44.06250972], [40.01979955, 44.06161205], [40.01985715, 44.06144678], [40.01992317, 44.0611499], [40.02019323, 44.06042718], [40.02004505, 44.05986572], [40.02005139, 44.05968209], [40.02007542, 44.05939653], [40.02017538, 44.0593319], [40.02020303, 44.05931058], [40.02000587, 44.05861484], [40.01919723, 44.05569894], [40.01921087, 44.05560463], [40.01824563, 44.05315382], [40.01744759, 44.04991668], [40.0174286, 44.04989271], [40.01711641, 44.04918046], [40.01699483, 44.04907794], [40.01696718, 44.04902662], [40.01667282, 44.0483589], [40.01548221, 44.0436867], [40.01522269, 44.04212894], [40.01353625, 44.03926936], [40.01019773, 44.03663651], [40.00928467, 44.03624679], [40.00801279, 44.03504805], [40.00280699, 44.03094539], [40.00279433, 44.03093806], [40.00227483, 44.03075356], [40.00135191, 44.03040314], [40.00133591, 44.03040215], [40.00132058, 44.03040614], [40.00124328, 44.03044378], [40.00116751, 44.03018537], [40.00116285, 44.03017504], [39.99951848, 44.02924161], [39.99920557, 44.02907702], [39.99916558, 44.02903437], [39.99749977, 44.02791895], [39.99605433, 44.02725348], [39.99581972, 44.02716957], [39.99258206, 44.02620694], [39.99206322, 44.02598943], [39.9920439, 44.02595545], [39.99203391, 44.02594546], [39.99202058, 44.02594113], [39.98860564, 44.02449783], [39.98859564, 44.02448617], [39.98840337, 44.02437625], [39.98817546, 44.02415599], [39.98600849, 44.0233659], [39.98527375, 44.0230955], [39.98414217, 44.02270551], [39.98408519, 44.02268787], [39.98377563, 44.02254864], [39.98187603, 44.02170435], [39.97886668, 44.02117502], [39.97865909, 44.02118068], [39.97620419, 44.02056114], [39.97368048, 44.01993458], [39.97075715, 44.01914845], [39.97100074, 44.01691379], [39.97349157, 44.01545699], [39.97350356, 44.01545033], [39.97350955, 44.01544167], [39.97357973, 44.01003506], [39.97359039, 44.01002607], [39.97359705, 44.01001541], [39.97357114, 44.01002517], [39.97355681, 44.0100255], [39.96948458, 44.00985404], [39.96872704, 44.00882074], [39.96678982, 44.00541709], [39.96678449, 44.00540676], [39.96632289, 44.00354807], [39.9661713, 44.00340616], [39.96616564, 44.0033815], [39.96606139, 44.00186117], [39.96550414, 44.00031885], [39.96501603, 43.99994575], [39.96502501, 43.99990977], [39.96500238, 43.99982613], [39.9655459, 43.99948336], [39.96523544, 43.99794218], [39.96534467, 43.99740944], [39.96486314, 43.99685309], [39.96482981, 43.99684044], [39.96420836, 43.99656063], [39.96444211, 43.99542035], [39.9644461, 43.99540802], [39.96439688, 43.99460875], [39.96438922, 43.99459775], [39.96413005, 43.99438021], [39.96147696, 43.99005387], [39.96171209, 43.9896937], [39.96158022, 43.98913961], [39.95975939, 43.98428595], [39.95977671, 43.98422231], [39.95975608, 43.9840857], [39.95966482, 43.98383047], [39.95962454, 43.98360922], [39.95939301, 43.98336102], [39.95938601, 43.98335169], [39.95939166, 43.98328839], [39.96037368, 43.98085904], [39.96038234, 43.98084804], [39.96012387, 43.98022278], [39.95995869, 43.97993989], [39.95994936, 43.97992989], [39.95985514, 43.97967873], [39.95984515, 43.97967073], [39.95982949, 43.97966807], [39.95980983, 43.97966973], [39.95926304, 43.97934886], [39.95872238, 43.9785352], [39.95871072, 43.97852687], [39.95862745, 43.97843357], [39.95861745, 43.97842091], [39.95861079, 43.97840758], [39.95847755, 43.97819299], [39.95727343, 43.97731169], [39.95723611, 43.97730803], [39.95652445, 43.97683362], [39.95650979, 43.97682762], [39.9564948, 43.97682529], [39.95643849, 43.9768436], [39.95641283, 43.97684027], [39.95640284, 43.97683428], [39.95639651, 43.97682462], [39.95640017, 43.97673231], [39.95639484, 43.97671898], [39.95604662, 43.97654178], [39.95603562, 43.97653378], [39.95602829, 43.97652378], [39.95512467, 43.97610223], [39.95206155, 43.97564963], [39.95172073, 43.97520684], [39.95100999, 43.97513452], [39.950983, 43.97514918], [39.95001401, 43.97511351], [39.94955412, 43.97510917], [39.94876269, 43.97503196], [39.94831818, 43.97490578], [39.94824988, 43.97483582], [39.94822122, 43.97482116], [39.94820556, 43.9748175], [39.94810526, 43.97482547], [39.94762874, 43.97472488], [39.94647082, 43.9746087], [39.94621655, 43.97453474], [39.94594767, 43.97430116], [39.94562022, 43.97384703], [39.94554528, 43.97376473], [39.94534502, 43.97353881], [39.93850242, 43.97057949], [39.93767418, 43.97014083], [39.93689362, 43.96955723], [39.93688029, 43.9695519], [39.93568807, 43.96947612], [39.9338098, 43.96718301], [39.93209945, 43.96707282], [39.93181659, 43.96704315], [39.9321278, 43.96542906], [39.93234733, 43.96522521], [39.93233901, 43.96519989], [39.93408736, 43.96339544], [39.93327774, 43.96187182], [39.93326808, 43.96186149], [39.93299231, 43.96128838], [39.93300263, 43.96125173], [39.9316716, 43.96058901], [39.93154337, 43.96034245], [39.93153504, 43.96033145], [39.93123082, 43.9602532], [39.93121416, 43.96025453], [39.93119783, 43.96025953], [39.93019662, 43.95923273], [39.93025093, 43.95922641], [39.93026193, 43.95921808], [39.92995018, 43.95899104], [39.92992904, 43.95898247], [39.92994704, 43.95898263], [39.92992095, 43.95897435], [39.92841918, 43.95754518], [39.92545449, 43.94471905], [39.92447627, 43.94320542], [39.9235441, 43.94202778], [39.92447713, 43.93853293], [39.9218767, 43.93595909], [39.91805721, 43.9348303], [39.91534643, 43.93436846], [39.91533144, 43.93436813], [39.91526646, 43.93434981], [39.91462437, 43.93414331], [39.91372079, 43.93365177], [39.91222166, 43.93410469], [39.91220833, 43.93410469], [39.91160688, 43.93398187], [39.91159555, 43.93397721], [39.91153826, 43.93384494], [39.91152926, 43.93383761], [39.91151627, 43.93383261], [39.90989094, 43.93405477], [39.90926354, 43.93408508], [39.90869105, 43.93411437], [39.90848146, 43.93410671], [39.90769304, 43.93386431], [39.90664738, 43.93366812], [39.90636883, 43.93371574], [39.90577279, 43.93423611], [39.90538662, 43.93450595], [39.90527167, 43.93454658], [39.90328202, 43.93495302], [39.90316872, 43.93491474], [39.90247754, 43.9350209], [39.90194069, 43.93518339], [39.90150884, 43.93529995], [39.90148951, 43.93530461], [39.90128659, 43.93536356], [39.90113662, 43.93541819], [39.90007665, 43.93539585], [39.89940587, 43.93512574], [39.89926125, 43.93505879], [39.89924992, 43.93505079], [39.89915398, 43.93488551], [39.89901312, 43.9345513], [39.89859294, 43.93445346], [39.89849197, 43.93446409], [39.89794782, 43.93433693], [39.89793549, 43.9343266], [39.89788219, 43.9342303], [39.89754529, 43.93407408], [39.89710648, 43.9337949], [39.89624018, 43.93351296], [39.89556075, 43.93345402], [39.89525883, 43.93315519], [39.89514655, 43.93306424], [39.89360426, 43.93068339], [39.89352202, 43.93055148], [39.89350593, 43.93053723]]}, "properties": {"name": "Track"}}]}