{"type": "FeatureCollection", "features": [{"type": "Feature", "geometry": {"type": "LineString", "coordinates": [[47.592256, 42.03037366], [47.59224934, 42.030369], [47.58732776, 42.03001115], [47.58580162, 42.0307836], [47.58587192, 42.0308549], [47.58591024, 42.03085822], [47.5859159, 42.03086221], [47.58565665, 42.03100214], [47.58565632, 42.03098248], [47.57887274, 42.03308559], [47.57684907, 42.03370298], [47.57691204, 42.03374829], [47.57694303, 42.03376328], [47.57709831, 42.03381191], [47.57740192, 42.03400941], [47.57747187, 42.03426329], [47.57747054, 42.03427395], [47.57747818, 42.03430693], [47.57747585, 42.03431892], [47.57730095, 42.03448552], [47.57696609, 42.03472567], [47.57694677, 42.03474966], [47.57667369, 42.03818899], [47.5776134, 42.04008112], [47.58423992, 42.03983958], [47.58692859, 42.04124481], [47.58837454, 42.04143267], [47.58774993, 42.04462203], [47.58742149, 42.04532437], [47.58839349, 42.0530452], [47.5869985, 42.05855477], [47.58791507, 42.06033417], [47.58792716, 42.06107957], [47.58945531, 42.06330087], [47.58948096, 42.06331653], [47.58949995, 42.06333852], [47.58950495, 42.06335052], [47.58950661, 42.06336251], [47.58950428, 42.06337417], [47.58949862, 42.06338616], [47.58946863, 42.06341381], [47.58737896, 42.06334853], [47.587306, 42.0633845], [47.58757524, 42.06366867], [47.58797578, 42.06392217], [47.58898183, 42.06427848], [47.58895084, 42.06429214], [47.58779188, 42.06420432], [47.58777989, 42.06421132], [47.58777289, 42.06421998], [47.58779221, 42.06430327], [47.58782653, 42.06433559], [47.58894184, 42.06455797], [47.58990081, 42.06474646], [47.58989681, 42.06475779], [47.58988881, 42.06476845], [47.58615164, 42.06515351], [47.58613698, 42.0651545], [47.58610333, 42.06516915], [47.58594571, 42.0652301], [47.58620726, 42.06553726], [47.58679509, 42.0655226], [47.58681042, 42.06553026], [47.58688272, 42.06561189], [47.5890853, 42.06584247], [47.58904133, 42.06591009], [47.58809509, 42.06669886], [47.58799617, 42.0671578], [47.58797802, 42.06713667], [47.58863098, 42.0664853], [47.58866329, 42.06653359], [47.58865763, 42.06654392], [47.58863248, 42.06749342], [47.58578246, 42.07303488], [47.58712954, 42.07282276], [47.59694705, 42.07573176], [47.59753483, 42.07574901], [47.59910948, 42.0764708], [47.59912447, 42.07648013], [47.5991408, 42.07648713], [47.59928207, 42.07649845], [47.60054143, 42.07669613], [47.60164941, 42.07998823], [47.60165407, 42.07999689], [47.59975747, 42.08148347], [47.59971483, 42.08153745], [47.59909502, 42.08171453], [47.59876978, 42.08180675], [47.59821895, 42.08195826], [47.59820996, 42.08196459], [47.5982083, 42.08197025], [47.59918333, 42.08205025], [47.59990211, 42.0820093], [47.60111882, 42.08233636], [47.60105456, 42.08250494], [47.6005123, 42.08338169], [47.60050864, 42.08340735], [47.60051197, 42.08342001], [47.60052796, 42.08344399], [47.60055328, 42.08346231], [47.60056894, 42.0834693], [47.60139137, 42.08343738], [47.601495, 42.08343239], [47.60163395, 42.08339109], [47.60249401, 42.08347726], [47.60388206, 42.08359927], [47.60367773, 42.08367526], [47.60371704, 42.08370725], [47.60376369, 42.08373924], [47.60375468, 42.08380784], [47.60378434, 42.08382017], [47.60381831, 42.08379918], [47.6038393, 42.08379719], [47.60395723, 42.08382052], [47.60404089, 42.08386685], [47.60392138, 42.08411929], [47.60392105, 42.08417957], [47.60390439, 42.08419289], [47.60375314, 42.0842735], [47.60362281, 42.08443449], [47.60362381, 42.08442516], [47.60364512, 42.08441216], [47.60350613, 42.08446816], [47.60337293, 42.08467933], [47.60338459, 42.08468566], [47.60340692, 42.08469265], [47.60343725, 42.08469199], [47.60346725, 42.08468699], [47.60364486, 42.08463439], [47.60368318, 42.08462274], [47.60371351, 42.0846234], [47.60374984, 42.08462573], [47.6038125, 42.08463338], [47.60387081, 42.08464603], [47.60384617, 42.08486422], [47.60385049, 42.08490321], [47.60379256, 42.08505078], [47.60376658, 42.08510508], [47.60370425, 42.08509575], [47.60369859, 42.08507976], [47.6036956, 42.0850631], [47.60369928, 42.08503147], [47.60375794, 42.08503446], [47.60378093, 42.08504445], [47.60396398, 42.08545641], [47.60399013, 42.08546198], [47.6036478, 42.08570231], [47.60373811, 42.08564101], [47.60398831, 42.08549518], [47.60400951, 42.0854587], [47.60401821, 42.08547137]]}, "properties": {"name": "Track"}}]}