{"type": "FeatureCollection", "features": [{"type": "Feature", "geometry": {"type": "LineString", "coordinates": [[47.31356733, 42.20412766], [47.30940726, 42.20296685], [47.30911973, 42.20270933], [47.30909474, 42.20270001], [47.30906175, 42.20269601], [47.30902804, 42.202734], [47.3090447, 42.20273933], [47.30906236, 42.20274733], [47.30907869, 42.20275733], [47.30913501, 42.20280497], [47.30915101, 42.2028153], [47.30916767, 42.20281963], [47.309179, 42.20281763], [47.30918533, 42.20281097], [47.309185, 42.20280164], [47.30917867, 42.20279198], [47.30901205, 42.20266606], [47.30899972, 42.2026614], [47.30898706, 42.20266206], [47.30895543, 42.20269432], [47.30898176, 42.20270865], [47.30902275, 42.20274129], [47.30903141, 42.20273896], [47.30903674, 42.20273263], [47.30903575, 42.20272463], [47.3089761, 42.20269399], [47.30714411, 42.20195208], [47.30709679, 42.20193909], [47.30491038, 42.20005779], [47.30488281, 42.20003746], [47.30488448, 42.20000148], [47.304707, 42.19958329], [47.3013025, 42.19358472], [47.2990316, 42.19354047], [47.29581858, 42.19268076], [47.29553407, 42.19262255], [47.29544075, 42.19264251], [47.29153852, 42.19365267], [47.28283425, 42.19902157], [47.28226509, 42.19939904], [47.27652446, 42.20335254], [47.27573377, 42.20401047], [47.27575908, 42.20406679], [47.27577107, 42.20407712], [47.27578507, 42.20408478], [47.27691712, 42.20518937], [47.27562939, 42.20404195], [47.27564005, 42.20405228], [47.27564671, 42.20406394], [47.27564804, 42.20407627], [47.27564471, 42.20408826], [47.27563738, 42.20409992], [47.2743465, 42.2054358], [47.27432051, 42.20544012], [47.27415325, 42.20534487], [47.27301417, 42.20273211], [47.27302449, 42.20271845], [47.27302383, 42.20270979], [47.27283863, 42.20259229], [47.27283597, 42.20257597], [47.27282897, 42.20257031], [47.27281864, 42.20256831], [47.27280631, 42.20256897], [47.26012593, 42.19536381], [47.26011894, 42.19535815], [47.25999498, 42.19541609], [47.25999098, 42.1954101], [47.26001498, 42.19537747], [47.26005502, 42.19543732], [47.26020445, 42.19538047], [47.26017731, 42.19538022], [47.2601727, 42.19538881], [47.26017765, 42.19539707], [47.26016808, 42.1953677], [47.26004642, 42.19609484], [47.2600191, 42.19610243], [47.26004872, 42.19568103], [47.2600364, 42.19564405], [47.26007902, 42.19554478], [47.26007204, 42.19552179], [47.26007603, 42.19550147], [47.25999449, 42.19511745], [47.26011546, 42.19459669], [47.25917075, 42.19414476], [47.25904354, 42.19405815], [47.25903488, 42.19405482], [47.25895592, 42.19410111], [47.25894426, 42.19410211], [47.25883799, 42.19405149], [47.258833, 42.19404083], [47.25801272, 42.19294342], [47.25755458, 42.19282727], [47.25754125, 42.19282727], [47.25752792, 42.19282993], [47.25751459, 42.19283726], [47.25750193, 42.19284726], [47.25537835, 42.19339041], [47.2547672, 42.19336046], [47.25351843, 42.19133281], [47.25343113, 42.19133281], [47.25296571, 42.19187722], [47.25212636, 42.19204314], [47.25211236, 42.19203981], [47.25191075, 42.19208041], [47.25015546, 42.19126439], [47.24980697, 42.19090486], [47.24876542, 42.19021739], [47.24866578, 42.19019709], [47.24833695, 42.18997096], [47.24836355, 42.18966278], [47.24836222, 42.18964945], [47.24834889, 42.18961447], [47.24832665, 42.18913139], [47.24836529, 42.18902], [47.24803684, 42.18908957], [47.24747936, 42.18937868], [47.24740138, 42.18942765], [47.24737042, 42.18963257], [47.24735809, 42.18965523], [47.24734843, 42.18966422], [47.24723516, 42.18977483], [47.24712355, 42.1897765], [47.24711089, 42.18977716], [47.2470989, 42.18978049], [47.24591972, 42.19114096], [47.24557484, 42.19136583], [47.24507601, 42.19157433], [47.24402922, 42.19209342], [47.24381302, 42.19227494], [47.24180491, 42.19346584], [47.24178225, 42.19347183], [47.24104823, 42.19416667], [47.24119783, 42.19414969], [47.24123148, 42.19416367], [47.23625421, 42.19689872], [47.23625654, 42.19689339], [47.23640616, 42.19687111], [47.23556677, 42.19290855], [47.23547226, 42.19309205], [47.23546927, 42.19311337], [47.23175448, 42.19169852], [47.22584896, 42.18880695], [47.2265113, 42.18736948], [47.22658786, 42.18613998], [47.22653756, 42.18606535], [47.2265152, 42.18372814], [47.22625853, 42.18093667], [47.22686029, 42.17907823], [47.22687927, 42.17906024], [47.22691157, 42.17900926], [47.22691689, 42.17898827], [47.22697723, 42.17878207], [47.22616852, 42.17789771], [47.22480314, 42.17636319], [47.22460506, 42.17579685], [47.21717164, 42.17016235], [47.21716131, 42.17015769], [47.21683083, 42.17015408], [47.21685949, 42.17015341], [47.21687282, 42.17014908], [47.21688348, 42.17014309], [47.21689147, 42.17013476], [47.21689313, 42.1701251], [47.21683835, 42.17001288], [47.21683965, 42.17000432], [47.2168172, 42.17001327], [47.2168601, 42.1700328], [47.21688699, 42.17003284], [47.21686233, 42.17001419], [47.21558422, 42.16612846], [47.21649158, 42.16450136], [47.21501142, 42.16226525], [47.21499909, 42.16225725], [47.21492845, 42.16222494], [47.21427151, 42.161014], [47.21372907, 42.16084226], [47.21371207, 42.16084325], [47.2136534, 42.16041416], [47.21295303, 42.15985315], [47.21188683, 42.1593661], [47.21039258, 42.15850526], [47.20970522, 42.15914857], [47.20967256, 42.15917655], [47.20964657, 42.15918521], [47.20963291, 42.15918587], [47.20961858, 42.15918354], [47.20935669, 42.15909392], [47.20930303, 42.15908694], [47.2092907, 42.15909093], [47.20928137, 42.15909826], [47.20920344, 42.1592162], [47.2091278, 42.15921452], [47.20925126, 42.15772272], [47.20850387, 42.15681459], [47.20895697, 42.1563854], [47.2089633, 42.1563774], [47.2086655, 42.15600636], [47.20856076, 42.15568629], [47.2087766, 42.15529749], [47.20879359, 42.15529583], [47.20881025, 42.15529083], [47.20758371, 42.15242626], [47.20700921, 42.15106348], [47.20644354, 42.1505715], [47.20581736, 42.150512], [47.20508699, 42.1504634], [47.20476648, 42.15055667], [47.20475648, 42.15056633], [47.20472321, 42.15061664], [47.20433505, 42.15062961], [47.20432105, 42.15063327], [47.20430739, 42.1506336], [47.20468263, 42.15059164], [47.20472663, 42.15062154], [47.2047193, 42.15061054], [47.20470897, 42.15060054], [47.20468165, 42.15058588], [47.20422342, 42.15064855], [47.20356584, 42.15162605], [47.20358042, 42.15217609], [47.19851694, 42.15041113], [47.19850094, 42.15041047], [47.19569125, 42.1501108], [47.19563362, 42.15007015], [47.19562258, 42.14962761], [47.19304481, 42.14940011], [47.19190128, 42.15010842], [47.18895622, 42.15087452], [47.18843341, 42.15050236], [47.18542539, 42.15119858], [47.17795672, 42.15484308], [47.17795472, 42.15490806], [47.17425488, 42.15489773], [47.17307129, 42.15484752], [47.17294265, 42.15480492], [47.17294723, 42.15484186], [47.17295056, 42.15485152], [47.17295056, 42.15486118], [47.17294657, 42.15487118], [47.17293891, 42.15487984], [47.17292825, 42.15488683], [47.16719217, 42.15532234]]}, "properties": {"name": "Track"}}]}