{"type": "FeatureCollection", "features": [{"type": "Feature", "geometry": {"type": "LineString", "coordinates": [[45.50112633, 42.76712567], [45.50121258, 42.76726854], [45.50012835, 42.76812845], [45.49939629, 42.76845181], [45.49823051, 42.76846628], [45.49835675, 42.76760867], [45.4977981, 42.76724272], [45.49697912, 42.76788274], [45.49578179, 42.76841564], [45.49482255, 42.76846188], [45.49420718, 42.76875989], [45.49305945, 42.76991287], [45.49199657, 42.77079001], [45.49101776, 42.7712451], [45.48965694, 42.77219872], [45.48773342, 42.77287887], [45.48754397, 42.77364651], [45.48692004, 42.77389643], [45.48679011, 42.77431348], [45.48710519, 42.77477313], [45.48642229, 42.7748333], [45.48601169, 42.77437809], [45.48550167, 42.77520757], [45.48611397, 42.77594682], [45.48597441, 42.77601871], [45.48367018, 42.77515057], [45.48276053, 42.77522529], [45.48242636, 42.77549611], [45.48237902, 42.77602154], [45.48177938, 42.77623234], [45.48132897, 42.77582474], [45.47978451, 42.77515731], [45.47926238, 42.77525118], [45.4785866, 42.77564394], [45.4778529, 42.7763683], [45.47764175, 42.77678712], [45.47812915, 42.77721283], [45.47899574, 42.77747968], [45.47980735, 42.77750326], [45.48072131, 42.77789213], [45.48107473, 42.77828483], [45.48115962, 42.77914822], [45.48160217, 42.77927594], [45.4815474, 42.78018814], [45.48203391, 42.7800818], [45.48166038, 42.78093203], [45.48190146, 42.7814101], [45.48201928, 42.78243099], [45.48173365, 42.78315397], [45.48159883, 42.78435725], [45.48270609, 42.7849192], [45.48334619, 42.78506367], [45.48373471, 42.78534716], [45.48371473, 42.7862391], [45.48401251, 42.78678287], [45.48380245, 42.7872393], [45.48377781, 42.78796188], [45.48308142, 42.78862555], [45.48317206, 42.78900893], [45.4847365, 42.7898393], [45.48519998, 42.7909195], [45.4862907, 42.79106285], [45.48707472, 42.79159384], [45.48756689, 42.79293293], [45.4872745, 42.79340842], [45.4863562, 42.79419793], [45.48487871, 42.79494945], [45.48398372, 42.79564012], [45.48302663, 42.79721222], [45.48258275, 42.79845754], [45.48295114, 42.79914596], [45.48302903, 42.79986504], [45.48276965, 42.80106395], [45.48185961, 42.80139501], [45.48091701, 42.80200501], [45.47997197, 42.80187857], [45.47939445, 42.80196913], [45.47906389, 42.80225035], [45.47856604, 42.80199081], [45.47734335, 42.80167751], [45.4769318, 42.80175378], [45.47638082, 42.80308415], [45.4761, 42.80330295], [45.47640691, 42.80437422], [45.47622774, 42.80479301], [45.4753757, 42.80531969], [45.47340129, 42.80582673], [45.47238421, 42.80581743], [45.47170806, 42.80595621], [45.47091307, 42.80640322], [45.46951552, 42.8065041], [45.46890125, 42.80715268], [45.46837092, 42.80734375], [45.46676573, 42.80716845], [45.46357095, 42.80663824], [45.46192814, 42.80657177], [45.46072599, 42.80675293], [45.45975407, 42.8074229], [45.45920626, 42.807664], [45.45859396, 42.80830496], [45.45814361, 42.80898896], [45.45762114, 42.80926876], [45.4565632, 42.80951767], [45.45621647, 42.80979919], [45.4557663, 42.80957176], [45.45502219, 42.80956713], [45.45405027, 42.81026403], [45.45388739, 42.81122042], [45.45299202, 42.81140421], [45.45217499, 42.81182522], [45.45206177, 42.81205212], [45.45235079, 42.81274495], [45.45195212, 42.81317361], [45.45161089, 42.81409651], [45.45092712, 42.81531058], [45.45057135, 42.81574801], [45.45061871, 42.81606517], [45.44976932, 42.81645116], [45.44893024, 42.81746529], [45.44844584, 42.81784766], [45.44766177, 42.81804671], [45.44701911, 42.81771235], [45.44668805, 42.8184204], [45.44623522, 42.81870255], [45.44590299, 42.8186296], [45.4449807, 42.8190421], [45.44424066, 42.81953973], [45.44398749, 42.82005008], [45.4433572, 42.82062675], [45.44268051, 42.82095246], [45.44181603, 42.82172986], [45.44174222, 42.82210336], [45.44016264, 42.82427207], [45.43810979, 42.82444754], [45.43778565, 42.82529978], [45.43702031, 42.82551545], [45.43632406, 42.82647008], [45.43603561, 42.82744436], [45.43421875, 42.82802577], [45.43284013, 42.8292044], [45.43267175, 42.83026084], [45.43207933, 42.83084223], [45.43196051, 42.83149329], [45.43142181, 42.83194465], [45.43046883, 42.83246687], [45.42889595, 42.8327289], [45.42849373, 42.8329364], [45.42799843, 42.83375333], [45.42689189, 42.83385388], [45.42610217, 42.83408133], [45.4250371, 42.83469103], [45.42360573, 42.8352519], [45.42306026, 42.83506129], [45.42193549, 42.83537017], [45.41907961, 42.83422163], [45.41889918, 42.83383351], [45.41751077, 42.83324473], [45.4171766, 42.83289756], [45.41574544, 42.8322238], [45.41457277, 42.83136901], [45.41362972, 42.83098496], [45.41299571, 42.83146764], [45.4109686, 42.83232742], [45.40942875, 42.83399251], [45.40881783, 42.83449715], [45.40820445, 42.83477615], [45.40684706, 42.83407163], [45.40605966, 42.8340328], [45.40532423, 42.83382608], [45.40393865, 42.83392284], [45.40206119, 42.83446623], [45.40079166, 42.83420304], [45.40044279, 42.83426932], [45.39846328, 42.83552302], [45.39638175, 42.8362761], [45.39566917, 42.83664891], [45.39599175, 42.83742343], [45.39556054, 42.8383116], [45.3946513, 42.83885717], [45.39290442, 42.83909278], [45.39121327, 42.83914393], [45.38993605, 42.83959938], [45.38931972, 42.8400324], [45.38850167, 42.84027272], [45.38824427, 42.84060343], [45.3871449, 42.84105492], [45.38563384, 42.84116188], [45.38526017, 42.84080035], [45.38358909, 42.84092044], [45.38322166, 42.84135084], [45.38220506, 42.84175886], [45.38103179, 42.84200874], [45.38063759, 42.84197184], [45.38043945, 42.84251251], [45.37927229, 42.84290345], [45.37901647, 42.84332627], [45.3775937, 42.84388928], [45.37655056, 42.84547121], [45.37695909, 42.84707714], [45.37685126, 42.84763725], [45.37697759, 42.84851603], [45.37607955, 42.84828134], [45.37548125, 42.8476858], [45.37494951, 42.84752174], [45.37459707, 42.84715772], [45.37323506, 42.8466568], [45.37252121, 42.84610168], [45.37166855, 42.84594032], [45.37044333, 42.84522452], [45.37021458, 42.84485312], [45.36930679, 42.84485417], [45.36812827, 42.84470554], [45.36637498, 42.84427986], [45.36527507, 42.84378079], [45.36470471, 42.84410042], [45.36333881, 42.84411912], [45.36225361, 42.84385598], [45.36212118, 42.84435093], [45.361698, 42.84457476], [45.36042888, 42.84473931], [45.35985989, 42.84519832], [45.35888434, 42.84529519], [45.35853385, 42.84508739], [45.35777186, 42.84501283], [45.35619572, 42.84589864], [45.3534685, 42.84689013], [45.35236459, 42.84703486], [45.35129091, 42.84595911], [45.34994349, 42.84609885], [45.34897067, 42.84641658], [45.34894129, 42.84695692], [45.34824235, 42.84714523], [45.34795462, 42.8478448], [45.3475836, 42.84830913], [45.3465023, 42.8486861], [45.34595023, 42.84913322], [45.34439974, 42.84972904], [45.34385242, 42.85040302], [45.34326805, 42.85089504], [45.34294164, 42.8514991], [45.34283754, 42.85216952], [45.34194786, 42.8534602], [45.34139378, 42.85387665], [45.3403801, 42.85427494], [45.33761575, 42.85514861], [45.33697651, 42.85597118], [45.3369798, 42.85635832], [45.33667, 42.85740148], [45.33676752, 42.85765435], [45.33596626, 42.8583399], [45.33555708, 42.85844834], [45.33546576, 42.85921168], [45.33524327, 42.8596328], [45.3344469, 42.85983458], [45.33403354, 42.86025026], [45.33335179, 42.86042242], [45.33279267, 42.86083156], [45.33209721, 42.86090886], [45.33152043, 42.8604388], [45.33053277, 42.86023142], [45.33013388, 42.86030831], [45.32935456, 42.86082095], [45.32846554, 42.86108967], [45.32828566, 42.86143617], [45.3265053, 42.86199388], [45.32461357, 42.86231988], [45.32365787, 42.86258955], [45.32203972, 42.86287382], [45.32052445, 42.86305206], [45.32015537, 42.86295584]]}, "properties": {"name": "Track"}}]}