{"type": "FeatureCollection", "features": [{"type": "Feature", "geometry": {"type": "LineString", "coordinates": [[42.863774, 43.42393], [42.86443056, 43.42448063], [42.86388943, 43.4249621], [42.86330465, 43.42568983], [42.86239374, 43.42637809], [42.8611732, 43.42695334], [42.86003924, 43.42659634], [42.85894553, 43.42641498], [42.8577815, 43.42610928], [42.85671818, 43.42576029], [42.85504636, 43.42556901], [42.85375143, 43.42519035], [42.85131521, 43.42469785], [42.85012523, 43.42423789], [42.84920854, 43.42394982], [42.84786602, 43.42363326], [42.84641319, 43.42319885], [42.84471554, 43.42301619], [42.84292315, 43.42239951], [42.84262915, 43.42175712], [42.84122084, 43.42069616], [42.84072284, 43.41957598], [42.84041912, 43.42007176], [42.83965837, 43.41991065], [42.83851704, 43.41945269], [42.83778458, 43.41889927], [42.83721457, 43.41819394], [42.83573584, 43.41680218], [42.83546965, 43.4163097], [42.8350531, 43.41625372], [42.8337915, 43.4166314], [42.83167209, 43.41631404], [42.83070806, 43.41613291], [42.83025494, 43.4162541], [42.82927167, 43.41718233], [42.8288764, 43.41842299], [42.82843089, 43.41862885], [42.8280041, 43.41912328], [42.82803308, 43.41942487], [42.82835261, 43.41974073], [42.82864038, 43.42058415], [42.82821844, 43.42157443], [42.82777026, 43.42184193], [42.82715376, 43.42192683], [42.82644096, 43.42179604], [42.82590781, 43.42158819], [42.82423355, 43.42129218], [42.82479933, 43.42163863], [42.82476599, 43.42183587], [42.82342492, 43.42169722], [42.82276015, 43.42148639], [42.82270849, 43.4219145], [42.82238825, 43.42179095], [42.82222708, 43.42136409], [42.82260261, 43.42020709], [42.82246734, 43.42000518], [42.82199179, 43.41995129], [42.82127565, 43.42004684], [42.82000007, 43.41956155], [42.81876608, 43.41881763], [42.81831361, 43.41828184], [42.81811442, 43.41786799], [42.81761755, 43.41748083], [42.81734249, 43.41681102], [42.81694431, 43.41656085], [42.81623385, 43.41648029], [42.81591825, 43.41632805], [42.81533319, 43.41575332], [42.8148484, 43.41598215], [42.81416337, 43.41666388], [42.81361321, 43.41692441], [42.81205725, 43.41724037], [42.81102696, 43.41772978], [42.81063907, 43.41771942], [42.80971674, 43.41702739], [42.80946085, 43.41672281], [42.80871307, 43.41635105], [42.80839923, 43.41589852], [42.80756514, 43.41532548], [42.80705297, 43.4151273], [42.80683546, 43.41476839], [42.80611602, 43.41417399], [42.80534625, 43.41392922], [42.80377839, 43.41360199], [42.8034339, 43.41329759], [42.80323936, 43.41356781], [42.80329745, 43.41435382], [42.80312202, 43.41502562], [42.80315762, 43.41578], [42.80296589, 43.41652144], [42.80296685, 43.41808158], [42.80263299, 43.41846809], [42.80213114, 43.41861364], [42.80178159, 43.41850641], [42.80093994, 43.41772442], [42.80027113, 43.41751796], [42.79905958, 43.41658674], [42.7984048, 43.41623429], [42.79729927, 43.41516976], [42.79686772, 43.41499652], [42.79635756, 43.41459004], [42.79501217, 43.41300072], [42.79473494, 43.41282783], [42.7941088, 43.412731], [42.79376492, 43.41287889], [42.79379088, 43.4131258], [42.79505809, 43.41536549], [42.79526483, 43.41624456], [42.7962137, 43.41838028], [42.79651498, 43.41951755], [42.79640441, 43.41977111], [42.79556699, 43.4202255], [42.7946316, 43.42005898], [42.79398814, 43.41969752], [42.79312137, 43.41954042], [42.79248789, 43.41933027], [42.79159744, 43.41928803], [42.78913392, 43.41899657], [42.78763334, 43.41855406], [42.78684492, 43.41856073], [42.78510655, 43.4190968], [42.78412217, 43.4190872], [42.78361233, 43.41934338], [42.78283287, 43.41945285], [42.78203741, 43.41945419], [42.78088878, 43.41972417], [42.77972709, 43.41983721], [42.77833648, 43.41968718], [42.77707653, 43.41932623], [42.77629673, 43.41923371], [42.7754583, 43.41933285], [42.7737031, 43.41920415], [42.77292434, 43.41933093], [42.77208934, 43.41932242], [42.77151155, 43.41948383], [42.76967247, 43.41930792], [42.76888375, 43.41907091], [42.7684399, 43.41903904], [42.76756483, 43.41878702], [42.76441749, 43.41760356], [42.76350176, 43.41730485], [42.7624145, 43.41678555], [42.76177208, 43.41668842], [42.76042785, 43.41666093], [42.75918427, 43.41653451], [42.75881105, 43.41638963], [42.75756346, 43.41612506], [42.75648713, 43.41608711], [42.75580267, 43.41572136], [42.75551307, 43.41583459], [42.7542632, 43.41675639], [42.7537287, 43.4168935], [42.75231685, 43.41700878], [42.75067383, 43.41740143], [42.74893948, 43.41805731], [42.74860463, 43.41836836], [42.74843294, 43.41892304], [42.74809495, 43.4194757], [42.74783803, 43.41946603], [42.74754928, 43.41889891], [42.74718906, 43.41881431], [42.74573758, 43.41913364], [42.74460777, 43.419256], [42.74416606, 43.41947998], [42.74345907, 43.41965428], [42.74258649, 43.41969984], [42.74160247, 43.41991818], [42.7405612, 43.41978821], [42.73953493, 43.41944233], [42.73817502, 43.41968583], [42.73734828, 43.41943275], [42.73560564, 43.41940154], [42.73462797, 43.41945165], [42.73299785, 43.41941774], [42.7324847, 43.41928924], [42.73118707, 43.41939564], [42.73105719, 43.41913475], [42.7304981, 43.41912369], [42.72953448, 43.41860308], [42.72847787, 43.41840781], [42.72710602, 43.41794905], [42.7265234, 43.41731841], [42.72499074, 43.41665374], [42.72481679, 43.41721477], [42.72370915, 43.41686428], [42.72250335, 43.41669302], [42.7211648, 43.41634933], [42.72060635, 43.41609326], [42.7185306, 43.41545312], [42.71787917, 43.41558924], [42.71742313, 43.41603292], [42.71637323, 43.4166248], [42.71617572, 43.41717699], [42.71525576, 43.41824118], [42.71515607, 43.41955977], [42.71389087, 43.42042866], [42.71326749, 43.42109869], [42.71243275, 43.42170077], [42.71166297, 43.42204587], [42.71020504, 43.42236453], [42.70808687, 43.42294065], [42.70637334, 43.42369953], [42.70518668, 43.42412984], [42.70408369, 43.42460456], [42.70297049, 43.4246697], [42.70007634, 43.42517354], [42.69948982, 43.42534006], [42.69811217, 43.42555809], [42.69688822, 43.42596608], [42.69553731, 43.42609686], [42.69427665, 43.42644314], [42.69315365, 43.4266655], [42.6922202, 43.42676862], [42.6892591, 43.42685627], [42.6886153, 43.42702273], [42.68779219, 43.42765147], [42.68641661, 43.42762224], [42.68542381, 43.42768214], [42.68238126, 43.42766021], [42.68183712, 43.42775205], [42.67980793, 43.42767892], [42.67822405, 43.427124], [42.67692242, 43.42698762], [42.67322017, 43.42710225], [42.67091677, 43.42727342], [42.66940984, 43.42730068], [42.66665428, 43.42763564], [42.66344717, 43.42816385], [42.66184592, 43.42831184], [42.66118674, 43.42828098], [42.66008936, 43.42841138], [42.6596305, 43.42875554], [42.65800069, 43.42965269], [42.65718792, 43.42997043], [42.65572765, 43.43040142], [42.65516313, 43.43062892], [42.6525915, 43.43142355], [42.65214262, 43.43146052], [42.65118687, 43.4310798], [42.65071667, 43.43101858], [42.64937768, 43.4311859], [42.64824869, 43.43153259], [42.64727998, 43.43196292], [42.64700913, 43.43228445], [42.6466984, 43.43302952], [42.64591833, 43.43344626], [42.64493427, 43.43364501], [42.64275489, 43.43386675], [42.64057787, 43.43396917], [42.63921089, 43.43417977], [42.63722153, 43.43438794], [42.63605921, 43.43441292], [42.63490823, 43.43426026], [42.63379187, 43.43434902], [42.63284054, 43.43466004], [42.63096945, 43.43486457], [42.62898433, 43.43486519], [42.62838254, 43.43479003], [42.62742417, 43.43480428], [42.62436037, 43.43519141], [42.623257, 43.43503694], [42.62105092, 43.43489892], [42.61961628, 43.43525416], [42.61824869, 43.4354138], [42.61716372, 43.43579147], [42.61612367, 43.43588526], [42.61470509, 43.43587071], [42.61350051, 43.43622602], [42.61279903, 43.43620804], [42.61182566, 43.43601466], [42.61078064, 43.43611739], [42.60956035, 43.43643699], [42.60877658, 43.43677603], [42.60837709, 43.43713549], [42.60808487, 43.43825248], [42.60789266, 43.43858537], [42.60726162, 43.43923741], [42.60655156, 43.43978516], [42.60535393, 43.44051279], [42.60525638, 43.44083773], [42.60433968, 43.44143308], [42.60412747, 43.44172997], [42.60352966, 43.4420161], [42.60297825, 43.44258152], [42.60250639, 43.44272004], [42.60058046, 43.44432195], [42.59942251, 43.44489755], [42.5982866, 43.44585777], [42.59761021, 43.44626221], [42.59701482, 43.44679459], [42.59583823, 43.44742414], [42.59552267, 43.44744974], [42.59483565, 43.44794639], [42.59316366, 43.44843078], [42.59202078, 43.44886236], [42.59118881, 43.44931825], [42.59082802, 43.44961213], [42.58954891, 43.45020524], [42.58846592, 43.45033767], [42.5879348, 43.45017987], [42.58766192, 43.4502805], [42.58756407, 43.45141105], [42.58738666, 43.45169224], [42.58645698, 43.45232891], [42.5861894, 43.45264476], [42.58569093, 43.45285361], [42.5838226, 43.45404192], [42.58284325, 43.45427493], [42.58098596, 43.45447845], [42.57976238, 43.45455655], [42.57846483, 43.45483106], [42.57771823, 43.45552027], [42.57661507, 43.4564137], [42.57580766, 43.45677945], [42.57449776, 43.4577493], [42.57306687, 43.45844585], [42.57236112, 43.45897426], [42.5715782, 43.46002109], [42.57040027, 43.46043737], [42.57018069, 43.46035504], [42.56993826, 43.45978026], [42.56935168, 43.45898498], [42.56905109, 43.45820708], [42.56838288, 43.45728653], [42.56736811, 43.45616777], [42.56691818, 43.45535507], [42.56624883, 43.45465112], [42.56470305, 43.45370101], [42.56405811, 43.45283837], [42.5629763, 43.45183481], [42.56286373, 43.45162891], [42.56249684, 43.45022776], [42.56211287, 43.44937551], [42.56194362, 43.44923131], [42.56083877, 43.44941054], [42.56040223, 43.44932493], [42.56023986, 43.44879749], [42.56023322, 43.44760904], [42.56010067, 43.44715122], [42.5601768, 43.44664205], [42.55995571, 43.44601755], [42.55945366, 43.44526886], [42.55882564, 43.44369611], [42.55780285, 43.4423967], [42.55706342, 43.44180598], [42.55731663, 43.44148381], [42.55719509, 43.44102534], [42.55646799, 43.44103004], [42.55614997, 43.44074565], [42.55634357, 43.44060677], [42.55720887, 43.44051739]]}, "properties": {"name": "Track"}}]}