{"type": "FeatureCollection", "features": [{"type": "Feature", "geometry": {"type": "LineString", "coordinates": [[47.16713033, 42.155259], [47.16872781, 42.15492098], [47.16282289, 42.1554073], [47.16286805, 42.15757602], [47.16263572, 42.16048657], [47.16254747, 42.16066249], [47.16031342, 42.15878244], [47.15867906, 42.15861756], [47.15572144, 42.1591597], [47.15486954, 42.1590505], [47.15488507, 42.15905644], [47.15378974, 42.16030898], [47.15464373, 42.16123175], [47.15569032, 42.16138461], [47.15564576, 42.16163712], [47.15569806, 42.1616345], [47.15583228, 42.16163473], [47.15572965, 42.16163971], [47.15581126, 42.16163243], [47.15563461, 42.16140364], [47.1556389, 42.16141355], [47.15564322, 42.16140011], [47.1556201, 42.16138028], [47.15563598, 42.16139253], [47.15196857, 42.16286291], [47.15196424, 42.16287024], [47.15196557, 42.16287823], [47.1519719, 42.16288489], [47.14831404, 42.16749868], [47.14824159, 42.16771788], [47.14443674, 42.16905444], [47.1432401, 42.16927703], [47.1424215, 42.1693589], [47.1372212, 42.16971796], [47.13667584, 42.169373], [47.13597644, 42.16903298], [47.13596111, 42.16903364], [47.13532299, 42.1689996], [47.13512673, 42.16899696], [47.13397546, 42.16944404], [47.13398512, 42.16943738], [47.13396569, 42.16941199], [47.13389003, 42.16948313], [47.13357084, 42.16945621], [47.13324901, 42.16934536], [47.12880945, 42.16867708], [47.12844379, 42.16874501], [47.12830283, 42.16877632], [47.12770106, 42.16870898], [47.12743181, 42.16866308], [47.12724152, 42.16873834], [47.12722853, 42.16874067], [47.12718422, 42.16873302], [47.12664706, 42.16847391], [47.12639782, 42.16833099], [47.12571807, 42.16787124], [47.12570041, 42.16786924], [47.12563177, 42.16787256], [47.12561611, 42.16787756], [47.12560211, 42.16788489], [47.12558045, 42.16790455], [47.1255668, 42.16792821], [47.12556314, 42.16794087], [47.12561837, 42.16837635], [47.12605324, 42.17160572], [47.12651267, 42.17355294], [47.12666156, 42.17374522], [47.12666589, 42.17383484], [47.12313683, 42.17252989], [47.1229377, 42.17163464], [47.12291505, 42.17161064], [47.12290739, 42.17159032], [47.12136217, 42.17005715], [47.11976549, 42.16853061], [47.11882769, 42.16697396], [47.11779018, 42.16843773], [47.11777785, 42.16844206], [47.11766623, 42.16851433], [47.11764896, 42.16887986], [47.11769515, 42.16906272], [47.11778148, 42.16907372], [47.11778749, 42.16904975], [47.11788082, 42.16981286], [47.11793679, 42.16984743], [47.11800578, 42.16984245], [47.11803806, 42.16982445], [47.11797674, 42.16980483], [47.11796318, 42.1697903], [47.11795264, 42.16972398], [47.11795958, 42.16971772], [47.1179419, 42.1697449], [47.11793298, 42.16974819]]}, "properties": {"name": "Track"}}]}