{"type": "FeatureCollection", "features": [{"type": "Feature", "geometry": {"type": "LineString", "coordinates": [[40.561444, 43.97084833], [40.56091335, 43.9709263], [40.56029099, 43.9703749], [40.56017502, 43.97101662], [40.55936299, 43.97129337], [40.55866478, 43.9719606], [40.55867544, 43.97234645], [40.55787461, 43.97304505], [40.55769057, 43.97352058], [40.55855414, 43.97434484], [40.55999759, 43.97522661], [40.56081824, 43.97601394], [40.56129973, 43.97620041], [40.56123409, 43.97647529], [40.56057564, 43.97680207], [40.559251, 43.97826144], [40.55855891, 43.97877746], [40.55764302, 43.979252], [40.55566733, 43.97996148], [40.55499388, 43.98029017], [40.55449917, 43.98079292], [40.55428888, 43.98160222], [40.5537896, 43.98278256], [40.5531419, 43.98318524], [40.55279647, 43.98364233], [40.55210691, 43.98378399], [40.55183552, 43.9841131], [40.55034358, 43.98419501], [40.55028669, 43.98446011], [40.5496223, 43.98477813], [40.5484637, 43.98505804], [40.54604769, 43.98524055], [40.54531495, 43.98516927], [40.54437958, 43.98536167], [40.54286671, 43.98550563], [40.54225758, 43.98539111], [40.54118966, 43.98547053], [40.54005482, 43.98477714], [40.53913014, 43.98480509], [40.53848141, 43.984575], [40.53658502, 43.98408336], [40.53562108, 43.98343644], [40.53518754, 43.98333657], [40.5340834, 43.98264374], [40.53269686, 43.9820863], [40.53137439, 43.98129487], [40.53053057, 43.9805291], [40.52987702, 43.97930485], [40.52980918, 43.9785906], [40.52922814, 43.97811474], [40.52790457, 43.9776695], [40.52720429, 43.97784681], [40.52683178, 43.97772563], [40.52577215, 43.97784053], [40.52485315, 43.9777278], [40.5241957, 43.9777857], [40.52353962, 43.97822064], [40.52113767, 43.9784185], [40.52043794, 43.97805748], [40.51937524, 43.97777482], [40.51852024, 43.97802583], [40.51753727, 43.9778118], [40.51702676, 43.9779953], [40.51607506, 43.97811304], [40.51538828, 43.97852278], [40.51490678, 43.97863267], [40.51412015, 43.97793268], [40.5135974, 43.97766423], [40.5131036, 43.97812801], [40.51168774, 43.97775138], [40.51060612, 43.9778299], [40.51034598, 43.9775114], [40.51003831, 43.97667144], [40.50901599, 43.97643864], [40.50810059, 43.97658536], [40.50744377, 43.97646186], [40.50697772, 43.97602307], [40.50722445, 43.97560163], [40.50657599, 43.97447044], [40.50606715, 43.9743173], [40.50488118, 43.97458364], [40.50386263, 43.9747083], [40.50296272, 43.97507919], [40.50240089, 43.97504664], [40.5013027, 43.97532652], [40.49941954, 43.97616824], [40.49879259, 43.97608247], [40.49791852, 43.97677954], [40.49696749, 43.97687295], [40.49626975, 43.97722369], [40.49581667, 43.97762545], [40.4937855, 43.97812697], [40.49278666, 43.97799459], [40.49218217, 43.97773948], [40.49169783, 43.97790949], [40.49110101, 43.97786535], [40.48970039, 43.97805366], [40.48901743, 43.97802223], [40.4886048, 43.97859214], [40.48811953, 43.97878241], [40.48716541, 43.97882855], [40.48637312, 43.9787083], [40.48479661, 43.97892831], [40.48382688, 43.97882794], [40.48265366, 43.9793954], [40.48204702, 43.98004707], [40.4812373, 43.98034607], [40.48030731, 43.980272], [40.47916857, 43.97997227], [40.47812619, 43.97906926], [40.47781234, 43.97824208], [40.47752437, 43.97681815], [40.47704338, 43.97605279], [40.47664312, 43.97500387], [40.4766275, 43.97462264], [40.47555879, 43.97311637], [40.47507394, 43.97201148], [40.47525556, 43.9698213], [40.47512014, 43.96932685], [40.4742411, 43.96899994], [40.47419918, 43.96954591], [40.47260651, 43.97039248], [40.47176069, 43.97149795], [40.47204276, 43.97199128], [40.47175643, 43.97260448], [40.47054164, 43.97318204], [40.4705192, 43.97459817], [40.47085628, 43.9749883], [40.47058124, 43.97581834], [40.47053197, 43.97652861], [40.46995881, 43.97740783], [40.47004899, 43.9776373], [40.46951523, 43.97842372], [40.4693543, 43.97955728], [40.46902237, 43.98067185], [40.46917618, 43.98200177], [40.46943495, 43.98272961], [40.46927289, 43.98344353], [40.46873715, 43.98448893], [40.46839069, 43.98581465], [40.46753112, 43.98637152], [40.46766097, 43.98673096], [40.46722456, 43.98706237], [40.46673325, 43.98878855], [40.46572955, 43.98943758], [40.46510607, 43.99023435], [40.46441083, 43.99145773], [40.4634811, 43.99228253], [40.46280726, 43.99316066], [40.46235753, 43.99435457], [40.46155875, 43.99521399], [40.46002793, 43.99563265], [40.45848459, 43.99646658], [40.4574882, 43.99718061], [40.4572991, 43.99752938], [40.45717156, 43.99891024], [40.45815633, 44.00034703], [40.4578362, 44.0018429], [40.45843345, 44.00238842], [40.45818345, 44.00306671], [40.45813123, 44.00378968], [40.457182, 44.00433483], [40.45647637, 44.00495279], [40.45523644, 44.00501865], [40.45421717, 44.00537987], [40.45318724, 44.00558615], [40.45239235, 44.00636736], [40.45100766, 44.00713438], [40.45110356, 44.0075158], [40.45171812, 44.00813571], [40.45215232, 44.00893725], [40.45159963, 44.00998361], [40.45209337, 44.01051363], [40.45169798, 44.01144648], [40.45100132, 44.01193845], [40.45008347, 44.01342864], [40.44946143, 44.0148939], [40.44836506, 44.01584956], [40.44821688, 44.01630129], [40.44704427, 44.01743299], [40.44664434, 44.01817283], [40.44568713, 44.01886827], [40.44512449, 44.01946521], [40.44396733, 44.02007866], [40.44285666, 44.02116866], [40.44204502, 44.02145168], [40.44093107, 44.02132995], [40.43990572, 44.02215678], [40.4400495, 44.0225462], [40.43983639, 44.02332282], [40.43942327, 44.0235826], [40.43927887, 44.02438058], [40.43879915, 44.02521077], [40.43827191, 44.02588358], [40.43712412, 44.02613526], [40.43672802, 44.0264103], [40.43659492, 44.02680811], [40.43613415, 44.02661195], [40.43509067, 44.0267658], [40.4354111, 44.02719859], [40.43435363, 44.02778096], [40.43261359, 44.029412], [40.43255442, 44.03004104], [40.43185765, 44.03043111], [40.43135318, 44.03158709], [40.4313925, 44.03218165], [40.43035439, 44.03345383], [40.43010604, 44.0340232], [40.42950253, 44.03479709], [40.42925857, 44.03593312], [40.42888898, 44.03609354], [40.42891458, 44.03713285], [40.42929062, 44.03740758], [40.42970795, 44.03805246], [40.42941415, 44.03851915], [40.42893941, 44.03863857], [40.42782386, 44.03921041], [40.42585536, 44.03909034], [40.42501138, 44.03930187], [40.42387092, 44.03973101], [40.42305204, 44.04023692], [40.42171622, 44.04006988], [40.42137801, 44.04013544], [40.42075597, 44.04061381], [40.4205092, 44.04106025], [40.41985617, 44.04110552], [40.41857223, 44.04152391], [40.41816997, 44.04191253], [40.41735286, 44.0423155], [40.41691497, 44.04335698], [40.41626086, 44.04417239], [40.415406, 44.04470089], [40.41462151, 44.04547341], [40.41457093, 44.04580856], [40.41372218, 44.04636034], [40.41335585, 44.04716186], [40.41373708, 44.04774643], [40.41420581, 44.04881226], [40.41391909, 44.04903263], [40.4136501, 44.04964196], [40.41364277, 44.05018016], [40.41285695, 44.05105067], [40.41286427, 44.05134685], [40.41232098, 44.05193232], [40.41081906, 44.05300687], [40.41066456, 44.0532047], [40.40985894, 44.05318609], [40.40841947, 44.05426948], [40.4077591, 44.05440156], [40.40694692, 44.05480377], [40.40651487, 44.05486105], [40.40652466, 44.05541387], [40.40614794, 44.05547036], [40.4055872, 44.05607028], [40.40534124, 44.05674086], [40.4049955, 44.05666627], [40.4042561, 44.05701753], [40.40400937, 44.0573855], [40.40361622, 44.0574011], [40.40271939, 44.05833742], [40.40213854, 44.05822483], [40.40112976, 44.05862128], [40.40048121, 44.05945757], [40.40018346, 44.05957474], [40.40032458, 44.06040234], [40.40019573, 44.06086893], [40.39990524, 44.06101439], [40.39935645, 44.06194841]]}, "properties": {"name": "Track"}}]}