{"type": "FeatureCollection", "features": [{"type": "Feature", "geometry": {"type": "LineString", "coordinates": [[43.163984341692185, 43.295783286888025], [43.16202253558694, 43.29687714119956], [43.16153208406063, 43.297150604777435], [43.15858937490277, 43.29879138624474], [43.15809892337645, 43.29906484982262], [43.15711802032383, 43.29961177697839], [43.15662756879752, 43.299885240556264], [43.15548696126464, 43.30052121495979], [43.15615457056291, 43.30363111431627], [43.1562499433198, 43.30407538565291], [43.15647436225356, 43.30512078795556], [43.15611511027863, 43.30598127606166], [43.15593548429116, 43.306411520114715], [43.15539660632876, 43.30770225227386], [43.155216980341294, 43.30813249632692], [43.15467810237889, 43.30942322848607], [43.154498476391424, 43.309853472539125], [43.15395959842902, 43.31114420469827], [43.15360034645409, 43.31200469280438], [43.15342072046662, 43.31243493685743], [43.15304363789548, 43.3133381331935], [43.15230203549906, 43.314057589484534], [43.15132827571705, 43.315002270360054], [43.15114492067619, 43.31589164096062], [43.15105324315575, 43.3163363262609], [43.15089943517245, 43.317082377734806], [43.1516530846087, 43.31779520062897], [43.152328903654876, 43.318434409344945], [43.15239387219798, 43.319332486694435], [43.152471850503474, 43.32041040142914], [43.152717853963935, 43.32220011584481], [43.15275774419948, 43.32249032367142], [43.153134124434125, 43.322847001593175], [43.153718247635254, 43.32340054779527], [43.153553469332486, 43.3238339352789], [43.15305913442417, 43.325134097729766], [43.153000801733214, 43.32528751998089], [43.15260686671099, 43.32613996067899], [43.152015964177664, 43.32741862172614], [43.15170877690801, 43.32808334792671], [43.15093614285962, 43.32871229668089], [43.15003473647033, 43.329006695987886], [43.149630023396526, 43.3296088719444], [43.15034371268274, 43.33086833806988], [43.150270128486795, 43.33165783224021], [43.15091233553218, 43.33288622855653], [43.151631909825795, 43.333617550875736], [43.15199169697261, 43.333983212035335], [43.15225524709325, 43.334251064968896], [43.15332465479068, 43.33535321192137], [43.154756556020175, 43.33682894992114], [43.15643059645785, 43.337698645692285], [43.15719476749777, 43.33840566656997], [43.15757685301773, 43.338759177008804], [43.15872310957761, 43.33981970832533], [43.15913481562839, 43.34020062406037], [43.16022018250624, 43.34081606818006], [43.16051902346851, 43.34202432296121], [43.16149401405377, 43.34272002104319], [43.16199869339523, 43.34354103819997], [43.16250337273669, 43.34436205535676], [43.16309981092775, 43.345332346683534], [43.162934246488845, 43.346295566339535], [43.16318097743481, 43.346707878204086], [43.16342770838077, 43.347120190068644], [43.163997299705926, 43.348072033625954], [43.16428392547098, 43.34985855716102], [43.164355581912254, 43.350305188044786], [43.16452772511036, 43.35137814767478], [43.163921524647236, 43.35294848876083], [43.16406516473847, 43.35338585084064], [43.164208804829705, 43.35382321292044], [43.16435244492094, 43.35426057500025], [43.16452772511036, 43.35479427633345], [43.16413102813906, 43.35513923402698], [43.163337634196466, 43.35582914941404], [43.162841449612586, 43.3562606190294], [43.16237738390265, 43.35709424117471], [43.162197361621395, 43.357417623310226], [43.16193995099344, 43.358297253890015], [43.16181124567946, 43.35873706917991], [43.16143961104214, 43.36000702914268], [43.16155327362884, 43.360916049663956]]}, "properties": {"name": "Track"}}]}