{"type": "FeatureCollection", "features": [{"type": "Feature", "geometry": {"type": "LineString", "coordinates": [[46.849746, 42.38641766], [46.84961955, 42.38675706], [46.84886038, 42.38681997], [46.84866816, 42.3865583], [46.84784751, 42.3867761], [46.84651819, 42.38649203], [46.84551516, 42.38659715], [46.84369876, 42.38646702], [46.8429483, 42.38690781], [46.84314325, 42.38757134], [46.84350331, 42.38799811], [46.84353495, 42.38851727], [46.84325401, 42.38906955], [46.84230029, 42.38963607], [46.84066531, 42.39030964], [46.84042851, 42.39065044], [46.83987508, 42.39092054], [46.83865564, 42.39073896], [46.83817762, 42.39102704], [46.83800267, 42.39159129], [46.83741929, 42.39233472], [46.8367474, 42.39276565], [46.83594946, 42.39237536], [46.83495562, 42.39227457], [46.83383586, 42.39290691], [46.83356706, 42.3927621], [46.8333581, 42.39220943], [46.83307133, 42.39220872], [46.83223894, 42.39163945], [46.831521, 42.39162292], [46.8306506, 42.39175527], [46.82936951, 42.39128215], [46.82910571, 42.39104505], [46.82809035, 42.39087444], [46.82752613, 42.39118161], [46.82621334, 42.39113332], [46.82566625, 42.39093393], [46.82475361, 42.39138174], [46.82387468, 42.39222805], [46.82317339, 42.39249768], [46.82274948, 42.39281523], [46.82238921, 42.3933435], [46.82146057, 42.39374938], [46.82082148, 42.39388579], [46.81956946, 42.39492741], [46.81883974, 42.3952848], [46.81777185, 42.39552681], [46.81588021, 42.39551741], [46.81462064, 42.3958223], [46.81326222, 42.39573984], [46.81243487, 42.3958583], [46.81190655, 42.39621265], [46.81076988, 42.39670284], [46.8090162, 42.39681721], [46.80769179, 42.39732456], [46.80622695, 42.39799735], [46.80523473, 42.39866457], [46.8043064, 42.39896719], [46.80196727, 42.399539], [46.80062811, 42.40006875], [46.79829946, 42.40036095], [46.79755171, 42.40019061], [46.79653879, 42.40059546], [46.79611137, 42.40048204], [46.79389534, 42.40092367], [46.79259474, 42.40101309], [46.79204015, 42.40116873], [46.79089684, 42.40108198], [46.78962764, 42.40149912], [46.7884226, 42.40151116], [46.78781835, 42.40119259], [46.78680072, 42.40093754], [46.78642249, 42.40058929], [46.78518532, 42.40061893], [46.78447136, 42.40013475], [46.78435788, 42.39958893], [46.78368021, 42.39930974], [46.78351872, 42.39904334], [46.78098364, 42.39933014], [46.77951013, 42.39957137], [46.77817785, 42.39993425], [46.77750039, 42.40001172], [46.77599756, 42.40041389], [46.77421827, 42.40019836], [46.7734226, 42.40023959], [46.7721187, 42.3996932], [46.77127534, 42.39949249], [46.77105949, 42.39922964], [46.76978465, 42.39895677], [46.76773314, 42.39822801], [46.76686547, 42.3980201], [46.76536212, 42.39750452], [46.76360166, 42.39746166], [46.76277097, 42.39731633], [46.76152506, 42.39730402], [46.75963382, 42.39702368], [46.7565081, 42.3970302], [46.75571217, 42.39664334], [46.75436028, 42.3965369], [46.75330812, 42.39619807], [46.7514361, 42.39603772], [46.75011262, 42.39616116], [46.74847382, 42.39620033], [46.74554284, 42.39642475], [46.74410571, 42.39628985], [46.74330069, 42.39632114], [46.74156673, 42.39617058], [46.73943189, 42.39583326], [46.73881333, 42.39553537], [46.73738787, 42.39543839], [46.73651469, 42.39506291], [46.73629929, 42.39439313], [46.73575695, 42.39446504], [46.73575926, 42.3942693], [46.73493757, 42.39379897], [46.73479653, 42.39324479], [46.7340422, 42.39268079], [46.73379889, 42.39170862], [46.73354155, 42.39120632], [46.73324486, 42.39110295], [46.73241492, 42.39145214], [46.73178455, 42.39092612], [46.73090518, 42.39091475], [46.73043076, 42.39042995], [46.72993982, 42.39023897], [46.72954652, 42.39052184], [46.72865166, 42.39084666], [46.7282132, 42.39073546], [46.72716352, 42.39096197], [46.72607279, 42.39131918], [46.72585148, 42.39265003], [46.72560208, 42.39284971], [46.72493446, 42.39403427], [46.72489569, 42.39440546], [46.72456358, 42.39457787], [46.72470311, 42.39498195], [46.72454463, 42.39532378], [46.72451833, 42.39620917], [46.72433777, 42.39632871], [46.72466176, 42.3969383], [46.72411919, 42.39829752], [46.72378705, 42.39872029], [46.7242518, 42.39982976], [46.72447235, 42.40002263], [46.72431729, 42.40063191], [46.72353742, 42.40148469], [46.72304515, 42.40216133], [46.72267514, 42.40295993], [46.72158201, 42.40412123], [46.72100051, 42.40525893], [46.72091528, 42.40587164], [46.72021839, 42.40696727], [46.7196181, 42.40753784], [46.71845238, 42.40887884], [46.71825555, 42.40931561], [46.7186461, 42.40957543], [46.71808644, 42.41038836], [46.71887951, 42.41054511], [46.72008047, 42.41044273], [46.72002218, 42.41076619], [46.71830285, 42.41203022], [46.71806933, 42.41239503], [46.71724933, 42.4130174], [46.71676527, 42.41353916], [46.7152414, 42.4144859], [46.71335004, 42.41546129], [46.71261561, 42.41548525], [46.71133911, 42.41505703], [46.70945402, 42.41498815], [46.70880788, 42.41505701], [46.7080861, 42.41542776], [46.7063209, 42.41668939], [46.7060001, 42.41712183], [46.70571768, 42.41652476], [46.70610755, 42.41578619], [46.70710976, 42.41517065], [46.70746955, 42.41430539], [46.70727062, 42.41376004], [46.7068481, 42.41388874], [46.70677282, 42.41334808], [46.70623092, 42.41340397], [46.7053162, 42.41166144], [46.70490417, 42.41188644], [46.70454268, 42.41179994], [46.70337406, 42.41112604], [46.70289493, 42.41044021], [46.70234192, 42.40999959], [46.70189813, 42.40993045]]}, "properties": {"name": "Track"}}]}