{"type": "FeatureCollection", "features": [{"type": "Feature", "geometry": {"type": "LineString", "coordinates": [[46.06614666, 42.674097], [46.0658295, 42.67384383], [46.06524076, 42.67356006], [46.06452266, 42.67354777], [46.06370648, 42.67355797], [46.0609373, 42.67256613], [46.06062097, 42.67191276], [46.06073212, 42.67160894], [46.05849457, 42.67268474], [46.05812146, 42.6730188], [46.05743836, 42.67377646], [46.05691018, 42.67397862], [46.05552842, 42.6744001], [46.04893719, 42.67328219], [46.04762263, 42.67322732], [46.04753734, 42.67322764], [46.04339691, 42.67413369], [46.04338525, 42.67414002], [46.04199794, 42.67396361], [46.0419075, 42.67380038], [46.04016689, 42.67297313], [46.04018969, 42.67296457], [46.04049313, 42.67279032], [46.04051378, 42.67275001], [46.04039623, 42.67254411], [46.03632349, 42.67208481], [46.0361019, 42.67191088], [46.02739923, 42.66858444], [46.01901121, 42.66695282], [46.01821384, 42.66709683], [46.01739568, 42.66713604], [46.01593185, 42.66728796], [46.01576822, 42.66726365], [46.01573156, 42.66724734], [46.01543237, 42.66727067], [46.0126875, 42.66647675], [46.01121665, 42.66639474], [46.01120199, 42.66639574], [46.01050705, 42.66661985], [46.00667702, 42.66705593], [46.00329503, 42.66757711], [46.00166237, 42.66752403], [45.99938296, 42.66845069], [45.99934908, 42.66850401], [45.99934941, 42.66849535], [45.99934475, 42.66848836], [45.99932642, 42.66848504], [45.99855274, 42.66847076], [45.99826318, 42.66850067], [45.99268356, 42.66967877], [45.99027959, 42.66966103], [45.98994504, 42.66982925], [45.98944054, 42.66989621], [45.98906265, 42.67005507], [45.98904532, 42.6700554], [45.98892102, 42.67004044], [45.98773573, 42.66987856], [45.9845908, 42.66953683], [45.98455682, 42.66948186], [45.9837598, 42.66902154], [45.9818827, 42.66871512], [45.97818856, 42.66636075], [45.97801063, 42.66636973], [45.97795661, 42.66641541], [45.97794821, 42.66634674], [45.97617876, 42.66694812], [45.9752943, 42.66697802], [45.97170149, 42.66685451], [45.96909563, 42.66707591], [45.96904532, 42.66708756], [45.969011, 42.6670869], [45.96897702, 42.66707724], [45.9672846, 42.66706911], [45.96720862, 42.66705747], [45.96594436, 42.66683653], [45.96551513, 42.66676563], [45.9655008, 42.6667603], [45.96548847, 42.6667523], [45.96547814, 42.6667423], [45.96547081, 42.66673031], [45.96546748, 42.66671765], [45.96547114, 42.66670532], [45.96547847, 42.66669466], [45.96548947, 42.666685], [45.96550413, 42.66667634], [45.96552112, 42.66666868], [45.96555678, 42.66665936], [45.96561744, 42.66665605], [45.96593201, 42.66666869], [45.96613596, 42.66656007], [45.96670211, 42.66630126], [45.96672944, 42.66629294], [45.96675276, 42.66627629], [45.96676009, 42.66626529], [45.96676375, 42.66625329], [45.96676309, 42.66624096], [45.96593402, 42.66631294], [45.96586204, 42.66632958], [45.96539616, 42.66626235], [45.96507894, 42.66625466], [45.96504329, 42.66622166], [45.96495365, 42.66615504], [45.96492399, 42.66613938], [45.96491233, 42.66612938], [45.96483171, 42.66603409], [45.96469346, 42.66583618], [45.96456854, 42.66568424], [45.96425896, 42.66553032], [45.96402773, 42.66536008], [45.96261623, 42.66504318], [45.96258758, 42.6650192], [45.96183016, 42.66501921], [45.96070161, 42.66574244], [45.95978757, 42.66614848], [45.95976991, 42.66614682], [45.95890501, 42.66481963], [45.95606806, 42.6653694], [45.95595414, 42.66551333], [45.95329505, 42.66524332], [45.95304645, 42.66533558], [45.95221033, 42.66650151], [45.95089419, 42.66699218], [45.95045303, 42.66674705], [45.95044604, 42.66673705], [45.95044371, 42.66672639], [45.95044504, 42.66671606], [45.95045004, 42.66670573], [45.9504587, 42.66669707], [45.9504707, 42.66668907], [45.95051602, 42.66667109], [45.95061865, 42.66666844], [45.95146035, 42.66615841], [45.95146835, 42.66614941], [45.95147334, 42.66612842], [45.95147068, 42.66611876], [45.95146302, 42.66611043], [45.95145202, 42.6661051], [45.95083563, 42.6658895], [45.95083097, 42.66588017], [45.95006439, 42.66534797], [45.95033499, 42.66536957], [45.95035432, 42.66535491], [45.95036099, 42.66528528], [45.95031835, 42.6652373], [45.94964662, 42.66492123], [45.94987919, 42.66487926], [45.94991351, 42.6648546], [45.94991351, 42.6647943], [45.9495447, 42.66464249], [45.94952704, 42.66461916], [45.94888363, 42.66419944], [45.94705589, 42.66431314], [45.94680999, 42.6645487], [45.9467424, 42.66470359], [45.94670208, 42.66471524], [45.94668675, 42.6647159], [45.94667142, 42.66471357], [45.94665776, 42.66470891], [45.94664477, 42.66470192], [45.94661879, 42.6646726], [45.94799595, 42.66338189], [45.94799961, 42.6633699], [45.94799895, 42.6633589], [45.94799329, 42.66334957], [45.94798396, 42.66334257], [45.94436449, 42.66368157], [45.94404491, 42.66372586], [45.94424084, 42.66406964], [45.94335877, 42.66382378], [45.94334411, 42.66383044], [45.94330047, 42.66389407], [45.94305589, 42.66409999], [45.94024678, 42.6644049], [45.93978695, 42.66463038], [45.93977462, 42.66463871], [45.93780236, 42.66497228], [45.93784001, 42.66489531], [45.93783102, 42.66487166], [45.93782336, 42.66486133], [45.93781336, 42.66485267], [45.93577152, 42.66530627], [45.93308045, 42.66564186], [45.93262831, 42.66588701], [45.92959359, 42.66641437], [45.92959357, 42.66639731], [45.92960215, 42.66638277], [45.92961734, 42.66638972], [45.92966807, 42.66647867], [45.92966744, 42.66646417], [45.92956865, 42.66645124], [45.92957093, 42.66644601], [45.92946759, 42.66657058], [45.9294486, 42.6665969], [45.92335909, 42.66892854], [45.92287158, 42.66878102], [45.92284025, 42.66876937], [45.922528, 42.66874973], [45.92161665, 42.66913812], [45.9191791, 42.66940209], [45.91867524, 42.6695899], [45.91852062, 42.66969451], [45.91812177, 42.66984567], [45.91689246, 42.67133137], [45.90877295, 42.67488722], [45.90503038, 42.67506679], [45.90434693, 42.67476967], [45.90334959, 42.67480067], [45.90325495, 42.67484766], [45.90233753, 42.67515114], [45.90133466, 42.67405564], [45.90131767, 42.67405165], [45.90078416, 42.67401365], [45.90080946, 42.67403229], [45.90093104, 42.67414355], [45.90079538, 42.67425191], [45.9007084, 42.67420038], [45.90059848, 42.67399645], [45.89298891, 42.66913231], [45.88131955, 42.6647237], [45.87978235, 42.6643621], [45.87976669, 42.6643621], [45.87975269, 42.66436543], [45.87642814, 42.66237955], [45.87647072, 42.66190837], [45.87634344, 42.66180208], [45.87632778, 42.66179408], [45.87495202, 42.66015963], [45.87486908, 42.66002136], [45.87374348, 42.6596145], [45.86952198, 42.65777738], [45.85246302, 42.65642], [45.85244717, 42.65642032], [45.85236848, 42.65650586], [45.85233616, 42.65651918], [45.85195463, 42.65656337], [45.85169105, 42.65668729], [45.85170038, 42.6566753], [45.85185834, 42.65659035], [45.85217292, 42.65655702], [45.85239904, 42.65704834], [45.85246035, 42.65700906], [45.85237973, 42.6569249]]}, "properties": {"name": "Track"}}]}