{"type": "FeatureCollection", "features": [{"type": "Feature", "geometry": {"type": "LineString", "coordinates": [[44.86518366, 42.81614133], [44.8638976, 42.81392497], [44.86390293, 42.81391531], [44.86358264, 42.81331053], [44.86358064, 42.81329787], [44.8635823, 42.81328454], [44.86360095, 42.81324688], [44.86007102, 42.81265548], [44.85995042, 42.81263313], [44.85993676, 42.81263546], [44.85992276, 42.8126348], [44.85848509, 42.81192349], [44.85845043, 42.81192748], [44.85829361, 42.812141], [44.85675936, 42.81281114], [44.85658375, 42.8127985], [44.85656775, 42.81279949], [44.85627886, 42.81284506], [44.85621853, 42.81283375], [44.85600691, 42.81283874], [44.85531654, 42.81292752], [44.85499362, 42.81310067], [44.85489499, 42.81311764], [44.85479373, 42.8132069], [44.85478273, 42.81321223], [44.85466011, 42.81322586], [44.84612495, 42.81177364], [44.8461133, 42.81175499], [44.84595278, 42.81164513], [44.84590014, 42.81163116], [44.84576787, 42.81154126], [44.84343183, 42.81030117], [44.84144622, 42.808915], [44.83904869, 42.80689546], [44.83904308, 42.8069024], [44.83823744, 42.80595569], [44.83812147, 42.80592339], [44.83757586, 42.80572731], [44.83701717, 42.80607002], [44.83701017, 42.80608268], [44.83700051, 42.80609534], [44.83698885, 42.806106], [44.83694687, 42.80613031], [44.83331177, 42.80535697], [44.83260363, 42.80540816], [44.83099533, 42.80565898], [44.83035299, 42.80633138], [44.83037327, 42.80654797], [44.83024435, 42.80675289], [44.83023202, 42.80676188], [44.83021669, 42.80676921], [44.83019936, 42.80677354], [44.83018103, 42.8067762], [44.83016203, 42.80677587], [44.83014437, 42.80677354], [44.83012671, 42.80676821], [44.83007872, 42.80674455], [44.82805332, 42.80547091], [44.82802599, 42.8054789], [44.82811189, 42.80572941], [44.82809724, 42.80574673], [44.82805925, 42.80576338], [44.8267896, 42.80689205], [44.82662205, 42.80711626], [44.82598935, 42.80866233], [44.8271658, 42.81042176], [44.82843734, 42.8114279], [44.82890848, 42.8117784], [44.82916622, 42.812614], [44.82915123, 42.81261566], [44.8237735, 42.81421068], [44.8237791, 42.81421926], [44.82374557, 42.81422698], [44.82396899, 42.81701402], [44.82394834, 42.81705667], [44.82345033, 42.81810392], [44.82313836, 42.81879297], [44.8226491, 42.81971822], [44.82067233, 42.82186431], [44.82066234, 42.82193895], [44.82021389, 42.82205588], [44.82001208, 42.82162071], [44.81980847, 42.82153378], [44.81821693, 42.82126656], [44.8182056, 42.8212569], [44.81808398, 42.82120695], [44.81806532, 42.82120362], [44.81804666, 42.82120296], [44.81801033, 42.82120862], [44.81791435, 42.82125227], [44.81661056, 42.82125875], [44.81657093, 42.82120678], [44.81635104, 42.82119005], [44.81634438, 42.82119671], [44.81633613, 42.82125033], [44.81680412, 42.82174404], [44.81680212, 42.8217577], [44.81578354, 42.82202301], [44.81442281, 42.82442528], [44.81037425, 42.82699181], [44.79733339, 42.83136831], [44.79240264, 42.83077027], [44.78663522, 42.83019375], [44.78662789, 42.83018642], [44.78611648, 42.82833111], [44.77381375, 42.82020882], [44.77278847, 42.82004634], [44.77281222, 42.82005098], [44.7728114, 42.82003245], [44.77197332, 42.81951544], [44.76940736, 42.81580038], [44.76939936, 42.81578872], [44.76918345, 42.8156528], [44.76915079, 42.81565379], [44.76828818, 42.81606823], [44.76827285, 42.8160619], [44.76808024, 42.81603794], [44.76770236, 42.81605753], [44.76765404, 42.81603854], [44.76762839, 42.81602089], [44.76761006, 42.81599823], [44.7676044, 42.81598457], [44.76760041, 42.81593958], [44.76760407, 42.81592525], [44.76761173, 42.81591292], [44.76768404, 42.81582428], [44.7676907, 42.81581028], [44.76769469, 42.8157293], [44.76768936, 42.81571731], [44.76768137, 42.81570598], [44.76767071, 42.81569532], [44.76765705, 42.81568532], [44.76764206, 42.81567699], [44.76762507, 42.81567033], [44.76760674, 42.81566667], [44.76758841, 42.81566601], [44.76756975, 42.81566867], [44.76755009, 42.81567367], [44.76723257, 42.81602219], [44.76722157, 42.81603285], [44.76720724, 42.81604118], [44.76719025, 42.81604618], [44.76717226, 42.81604851], [44.76715293, 42.81604818], [44.76713493, 42.81604452], [44.76711827, 42.81603819], [44.76710261, 42.81602986], [44.76708961, 42.81601953], [44.76708028, 42.81600787], [44.76662946, 42.81560041], [44.7666108, 42.8156014], [44.76510729, 42.81619463], [44.76259343, 42.81624895], [44.76044081, 42.81698669], [44.76036822, 42.81717331], [44.76037187, 42.8172473], [44.7603772, 42.81726429], [44.76039119, 42.81729428], [44.76039552, 42.81730928], [44.76039685, 42.81732328], [44.7603932, 42.81735061], [44.76038687, 42.81736361], [44.76037754, 42.81737527], [44.76036488, 42.8173856], [44.76034888, 42.81739526], [44.76033222, 42.81740226], [44.76031423, 42.81740726], [44.76029557, 42.81740959], [44.76023792, 42.81740427], [44.75980774, 42.81710978], [44.75864043, 42.81671542], [44.7576744, 42.81655974], [44.75621805, 42.81560838], [44.75426973, 42.81555042], [44.75312278, 42.81532194], [44.75144368, 42.81520307], [44.75144335, 42.8152164], [44.75143103, 42.81524139], [44.7512491, 42.81537867], [44.74941535, 42.81692391], [44.74929309, 42.81707583], [44.74819204, 42.81837319], [44.74758208, 42.81906385], [44.74664889, 42.82048535], [44.74680049, 42.82049066], [44.74722069, 42.82047864], [44.74742927, 42.82038773], [44.74812746, 42.82019171], [44.74876694, 42.8203292], [44.75009737, 42.8224363], [44.7501714, 42.82314183], [44.74989789, 42.82305396], [44.74972929, 42.82307492], [44.7483957, 42.82279999], [44.74777766, 42.82279994], [44.74777033, 42.82280693], [44.74788716, 42.82410028], [44.74555105, 42.82462171], [44.73912264, 42.82639287], [44.73862769, 42.82716949], [44.73861369, 42.82717548], [44.73735962, 42.82767952], [44.73735229, 42.82768952], [44.73735063, 42.82769885], [44.72986674, 42.83450699], [44.72984046, 42.83449264], [44.7298358, 42.83450197], [44.72846814, 42.83629361], [44.72792633, 42.83652043], [44.72786469, 42.83666272], [44.72763513, 42.83681763], [44.72756957, 42.83708886], [44.72755258, 42.83716883], [44.72726906, 42.837552], [44.72726341, 42.83759298], [44.72708386, 42.83789154], [44.72707453, 42.8379002], [44.7270632, 42.83790586], [44.7254068, 42.83738516], [44.72465286, 42.8356358], [44.7224318, 42.83546142], [44.72221287, 42.83557333], [44.72216124, 42.8356213], [44.72214858, 42.83562796], [44.71982904, 42.83626754]]}, "properties": {"name": "Track"}}]}