{"type": "FeatureCollection", "features": [{"type": "Feature", "geometry": {"type": "LineString", "coordinates": [[47.709556, 42.008243], [47.71009507, 42.008276], [47.71007641, 42.00828666], [47.70733593, 42.00883892], [47.70705109, 42.00912076], [47.70685284, 42.00923902], [47.70682018, 42.00924435], [47.70648796, 42.00919943], [47.7059565, 42.00915187], [47.70504694, 42.00972712], [47.70383837, 42.00997506], [47.70269837, 42.01003724], [47.70131354, 42.00974304], [47.70125423, 42.00971739], [47.69912599, 42.00894751], [47.69806707, 42.00893469], [47.69703208, 42.00856088], [47.69706518, 42.00860014], [47.69680898, 42.00846667], [47.69677966, 42.00846567], [47.696741, 42.00847732], [47.696731, 42.00848498], [47.69670568, 42.00852664], [47.69670303, 42.00857528], [47.69690647, 42.01032729], [47.6969385, 42.01031165], [47.69695083, 42.01031099], [47.69688918, 42.01039023], [47.69687119, 42.01040822], [47.69652299, 42.01053177], [47.69592621, 42.01056405], [47.69553332, 42.01050748], [47.69544269, 42.01048918], [47.69323843, 42.0102097], [47.69273224, 42.01029758], [47.69258662, 42.01034751], [47.69254032, 42.01037348], [47.69222781, 42.01063963], [47.69107354, 42.0108587], [47.68932054, 42.01109149], [47.68913561, 42.01109149], [47.68580438, 42.012121], [47.68335371, 42.01314323], [47.6829812, 42.01321674], [47.68114886, 42.01331052], [47.68106755, 42.0133185], [47.68102123, 42.01331018], [47.68100624, 42.01330518], [47.68067865, 42.01313497], [47.68047479, 42.01296585], [47.68040315, 42.01294355], [47.68039515, 42.01293722], [47.68038283, 42.01291957], [47.67971113, 42.01299689], [47.67595912, 42.01385719], [47.67444668, 42.01402286], [47.6737823, 42.01349717], [47.67335117, 42.01321833], [47.67227142, 42.01243416], [47.67226805, 42.01369452], [47.67002746, 42.01289734], [47.66995515, 42.01290132], [47.6689095, 42.01281217], [47.66869859, 42.01273958], [47.66863461, 42.01271061], [47.66857529, 42.01269363], [47.66840603, 42.01265004], [47.66812413, 42.01256819], [47.66692196, 42.01277999], [47.6667517, 42.0127414], [47.66641616, 42.01252856], [47.66638452, 42.0124759], [47.66637419, 42.01246791], [47.66631921, 42.01244525], [47.66630355, 42.01244292], [47.66522995, 42.01213615], [47.66483546, 42.01203227], [47.66440863, 42.01189247], [47.66291363, 42.01093262], [47.66130884, 42.0097976], [47.66087212, 42.00952055], [47.66078947, 42.00949659], [47.6603233, 42.00936482], [47.660203, 42.00932119], [47.66015335, 42.00931554], [47.6600827, 42.00932351], [47.6599784, 42.00929022], [47.65992808, 42.00927457], [47.65958784, 42.00915602], [47.65649019, 42.00870523], [47.6547047, 42.00911304], [47.65447623, 42.00964397], [47.65432244, 42.00946408], [47.65409787, 42.00946836], [47.65265245, 42.00953843], [47.64690715, 42.00830777], [47.64689482, 42.00831276], [47.64662132, 42.00865692], [47.64661133, 42.00866492], [47.64659933, 42.00867125], [47.64643506, 42.00867656], [47.64606186, 42.00844236], [47.64236878, 42.00807504], [47.63870285, 42.01173904], [47.63869162, 42.01174466], [47.63739526, 42.01189631], [47.63737866, 42.0118966], [47.63739541, 42.01188933], [47.63732378, 42.01324314], [47.63727154, 42.01334981], [47.63669784, 42.01321557], [47.6365686, 42.01343647], [47.63648233, 42.01356439], [47.63656929, 42.013673], [47.63570485, 42.01303233], [47.63571451, 42.013023], [47.63572217, 42.01301234], [47.63594234, 42.01271586], [47.63595499, 42.0126902], [47.63594633, 42.01261523], [47.63464109, 42.01182126], [47.63463344, 42.01178562], [47.6346351, 42.01177396], [47.63507105, 42.01125569], [47.63470296, 42.01033457], [47.63456081, 42.01036285], [47.6330976, 42.01032929], [47.63302863, 42.01029367], [47.63207734, 42.00947492], [47.63141077, 42.00833797], [47.63102311, 42.00844703], [47.62968573, 42.00920081], [47.62733435, 42.00726879], [47.62733169, 42.00725779], [47.62710048, 42.00702389], [47.62355471, 42.00632104], [47.62358102, 42.00621141], [47.6236043, 42.00605714], [47.62360496, 42.00604381], [47.62359198, 42.00599249], [47.62408433, 42.00541449], [47.62410198, 42.00533518], [47.62410199, 42.00525956], [47.62413402, 42.00516168], [47.62407769, 42.0051763], [47.62410235, 42.00516898], [47.62412067, 42.00516498], [47.62415927, 42.00515949], [47.62415367, 42.00513062], [47.62406816, 42.00519796], [47.62415995, 42.00515946], [47.62293023, 42.00710725], [47.62267769, 42.00718349], [47.62284396, 42.0073839], [47.62228435, 42.00807335], [47.62185193, 42.00839709], [47.62075773, 42.00876095], [47.62070152, 42.00877525], [47.62030577, 42.00878849], [47.6202942, 42.01019892], [47.61803182, 42.01121553], [47.6172898, 42.01174273], [47.6161997, 42.01403384], [47.61236957, 42.01650748], [47.61241196, 42.01780889], [47.6123809, 42.01781236], [47.61234612, 42.01778668], [47.61222353, 42.01780837], [47.61212396, 42.01833266], [47.61168991, 42.01852752], [47.61151743, 42.01859107], [47.61172637, 42.01859326], [47.61166884, 42.01864192], [47.61162502, 42.01867806], [47.61159632, 42.01863874], [47.60734156, 42.02314445], [47.59606964, 42.0288628], [47.59606402, 42.02886742], [47.59605247, 42.02888726], [47.59312958, 42.03046901], [47.59293834, 42.03062824], [47.59223985, 42.03059895]]}, "properties": {"name": "Track"}}]}