{"type": "FeatureCollection", "features": [{"type": "Feature", "geometry": {"type": "LineString", "coordinates": [[41.41834999, 43.56541233], [41.41836499, 43.56604099], [41.41857206, 43.56664604], [41.4185864, 43.56786066], [41.41766788, 43.56883017], [41.41737883, 43.56969517], [41.41730897, 43.57032325], [41.41679607, 43.57246081], [41.41662589, 43.57268099], [41.41669119, 43.57348299], [41.41558407, 43.57451611], [41.41535893, 43.57496994], [41.41509024, 43.57594555], [41.41419516, 43.57736071], [41.41480905, 43.57843293], [41.41487829, 43.57887078], [41.41455648, 43.5792996], [41.41289578, 43.58056521], [41.41243049, 43.58127021], [41.4124701, 43.58146848], [41.41358504, 43.58157832], [41.41458937, 43.58159093], [41.41521446, 43.58199073], [41.41554155, 43.5833923], [41.41524184, 43.58481869], [41.41466274, 43.58525041], [41.41454454, 43.58565791], [41.41490494, 43.58646821], [41.41529012, 43.58683405], [41.41606621, 43.58706946], [41.41705524, 43.58661247], [41.41807656, 43.58647573], [41.41873763, 43.58663887], [41.41963579, 43.58771796], [41.41989208, 43.58851478], [41.42033783, 43.5888909], [41.42218286, 43.58913375], [41.42306086, 43.58982407], [41.42331697, 43.59029625], [41.42426416, 43.5911628], [41.42454787, 43.59167492], [41.42457546, 43.59233762], [41.42489529, 43.59265946], [41.42510441, 43.59337887], [41.42610582, 43.59446455], [41.42626928, 43.59529881], [41.42673705, 43.59557254], [41.42673144, 43.5958892], [41.42797222, 43.59658036], [41.4286103, 43.5967155], [41.42996754, 43.59675541], [41.43166898, 43.59707006], [41.4324521, 43.59736846], [41.43284497, 43.59774749], [41.43303206, 43.59818663], [41.43272509, 43.5990076], [41.43277663, 43.59957072], [41.43324515, 43.60027373], [41.43298765, 43.60053159], [41.4315512, 43.6014197], [41.43141271, 43.60206434], [41.43166837, 43.60275086], [41.43146757, 43.60320205], [41.4314376, 43.60398678], [41.43192573, 43.60428389], [41.43333222, 43.60452015], [41.43358776, 43.604799], [41.43382987, 43.60560671], [41.43468677, 43.60629201], [41.43481818, 43.60744697], [41.4351149, 43.60795842], [41.43673874, 43.60853559], [41.43695057, 43.60899644], [41.43703215, 43.60963085], [41.43664978, 43.61032091], [41.43612332, 43.61068071], [41.43571986, 43.61114317], [41.43505157, 43.61147115], [41.4349398, 43.61219598], [41.4355214, 43.61319192], [41.43652218, 43.61432879], [41.43670164, 43.61492122], [41.43734775, 43.61544031], [41.43945177, 43.61622567], [41.43972394, 43.61650249], [41.43964314, 43.61780256], [41.43986712, 43.61858753], [41.4407409, 43.61969398], [41.44117772, 43.61991147], [41.44225094, 43.62073493], [41.44275793, 43.62099758], [41.44282082, 43.62132337], [41.44332355, 43.62174715], [41.44476313, 43.62218134], [41.44594535, 43.62297559], [41.44789639, 43.62380296], [41.44893027, 43.62467454], [41.44967204, 43.62490733], [41.44994783, 43.62554177], [41.45065244, 43.62666498], [41.451385, 43.62873676], [41.45119713, 43.6290203], [41.4499332, 43.63040417], [41.4483587, 43.63067501], [41.44586191, 43.63119884], [41.44420581, 43.63179124], [41.44298468, 43.6329687], [41.44146148, 43.6336819], [41.44109101, 43.63404339], [41.44111336, 43.63464116], [41.44268942, 43.63575231], [41.44303626, 43.63614313], [41.44349422, 43.63697308], [41.44483432, 43.63907884], [41.44517402, 43.63953985], [41.44587245, 43.63982664], [41.44732929, 43.64070208], [41.44757537, 43.64149547], [41.44761859, 43.64233655], [41.44802049, 43.64379784], [41.44791695, 43.64461754], [41.44812107, 43.64505902], [41.44767259, 43.64504087], [41.44683492, 43.64526418], [41.44582493, 43.64504055], [41.44546041, 43.64505686], [41.44493693, 43.64536299], [41.44406185, 43.64561001], [41.44295589, 43.6455921], [41.44107275, 43.64572784], [41.44021235, 43.64598425], [41.43971626, 43.64640671], [41.43847017, 43.64774213], [41.4374412, 43.6484974], [41.43574108, 43.64908021], [41.43524023, 43.64936904], [41.43569637, 43.64990848], [41.43575464, 43.65032868], [41.43608581, 43.65071485], [41.43698253, 43.65097728], [41.43795223, 43.65087854], [41.43966781, 43.65054238], [41.4406089, 43.65064659], [41.44108445, 43.65086347], [41.44254464, 43.65184794], [41.4435057, 43.65235233], [41.44413818, 43.65251413], [41.44473735, 43.65245591], [41.44823001, 43.65141221], [41.44894548, 43.65149087], [41.44877416, 43.65195772], [41.44731164, 43.65256398], [41.4465779, 43.65300107], [41.44572387, 43.65383942], [41.44524848, 43.65455952], [41.44513791, 43.65513191], [41.44588366, 43.65547473], [41.44586861, 43.65603414], [41.44620427, 43.65666972], [41.44653402, 43.65696746], [41.44632223, 43.65728515], [41.4458629, 43.65748318], [41.44629738, 43.65790431], [41.44621375, 43.65817802], [41.44579442, 43.65815441], [41.44641835, 43.65911773], [41.4464528, 43.66029199], [41.44715247, 43.66052739], [41.44730737, 43.66093087], [41.44778373, 43.66136553], [41.44748563, 43.66145172], [41.44744198, 43.66252491], [41.44771078, 43.66335562], [41.44722162, 43.66431375], [41.4474976, 43.66501003], [41.44857738, 43.66534089], [41.44897932, 43.6658038], [41.44944345, 43.66594625], [41.45051929, 43.66586193], [41.4511988, 43.66648872], [41.45208265, 43.66685254], [41.45211634, 43.66797555], [41.45235105, 43.66849091], [41.45289653, 43.66802805], [41.45318146, 43.66835687], [41.45402747, 43.66842645], [41.4548013, 43.66903189], [41.45550252, 43.66931356], [41.45566768, 43.6696197], [41.45630868, 43.66993303], [41.4573964, 43.67075276], [41.4572446, 43.67121155], [41.45752472, 43.67169234], [41.45818168, 43.67219364], [41.45844304, 43.67263958], [41.45787602, 43.6734642], [41.45733655, 43.67387428], [41.45650713, 43.67522228], [41.45623492, 43.67549848], [41.45590788, 43.67626582], [41.4554708, 43.67638669], [41.45560118, 43.67686794], [41.45540567, 43.67709014], [41.45418541, 43.67669822], [41.45348733, 43.67587847], [41.45286554, 43.67617058], [41.45185764, 43.67618861], [41.45125456, 43.67667602], [41.44925841, 43.67609965], [41.44743797, 43.67527603], [41.44660891, 43.67516096], [41.44547062, 43.67521434], [41.44444297, 43.67537602], [41.44236902, 43.67584243], [41.44120198, 43.67585442], [41.43744086, 43.67529791], [41.43626753, 43.67486196], [41.4346081, 43.67367725], [41.43383671, 43.67338016], [41.43270741, 43.67310214], [41.43172966, 43.67295012], [41.42936966, 43.67274202], [41.42729192, 43.67251489], [41.42477007, 43.67190634], [41.42391529, 43.67175924], [41.42267093, 43.67170676], [41.42192348, 43.67178526], [41.41928596, 43.6724566], [41.41821935, 43.67277862], [41.41659244, 43.67312351], [41.41516949, 43.6733015], [41.41193067, 43.67396555], [41.41004583, 43.67457998], [41.40910744, 43.67468706], [41.4082287, 43.6746768], [41.40540082, 43.67453045], [41.40440244, 43.67441163], [41.40396992, 43.67453393], [41.40499813, 43.67483263], [41.40550399, 43.67535383], [41.40577523, 43.67596276], [41.40630795, 43.67668157], [41.4066447, 43.67822546], [41.40661048, 43.67917091], [41.40647178, 43.67947933], [41.40628391, 43.68114936], [41.40636831, 43.68282418], [41.4058414, 43.68361929], [41.4057998, 43.68407775], [41.40612846, 43.68397126], [41.40684796, 43.68418988], [41.40738837, 43.68406314], [41.4075495, 43.6842455], [41.40753823, 43.68490429], [41.40679297, 43.68498689], [41.40668135, 43.68568002], [41.40517926, 43.68620621], [41.40429025, 43.68597015], [41.40381439, 43.68607834], [41.40353808, 43.6855901], [41.40300713, 43.68505885], [41.40244788, 43.68426525], [41.4021508, 43.68344092], [41.40116829, 43.68277638], [41.40016403, 43.68244038], [41.39980726, 43.68194793], [41.3997812, 43.68116557], [41.39890124, 43.68085958], [41.39760784, 43.68007069], [41.3965412, 43.67921296], [41.39615465, 43.67811689], [41.39569897, 43.6777242], [41.3953265, 43.67764294], [41.39333612, 43.67764503], [41.39296508, 43.67704032], [41.39183939, 43.67618493], [41.39093587, 43.67575975], [41.39057963, 43.67493454], [41.39021447, 43.67444684], [41.38977061, 43.67356151], [41.38931834, 43.67317858], [41.38968939, 43.67292834], [41.38956457, 43.67247005], [41.38876617, 43.67191926], [41.3873348, 43.67130192], [41.38720062, 43.67098712], [41.38724787, 43.67018257], [41.38680962, 43.66944404], [41.38512204, 43.66891643], [41.38439781, 43.6684989], [41.38329186, 43.66831222], [41.38296579, 43.66815511], [41.38149865, 43.66778505], [41.37984862, 43.66696642], [41.37848332, 43.6656613], [41.37793108, 43.66528442], [41.37732863, 43.66424251], [41.37716187, 43.66365739], [41.37619079, 43.66307565], [41.37533177, 43.66269403], [41.37374547, 43.66210962], [41.37316123, 43.66153472], [41.37175231, 43.66095554], [41.37114183, 43.66100748], [41.37054267, 43.66067505], [41.37078377, 43.66060311]]}, "properties": {"name": "Track"}}]}