{"type": "FeatureCollection", "features": [{"type": "Feature", "geometry": {"type": "LineString", "coordinates": [[43.162004, 43.36167366], [43.16237952, 43.36168729], [43.16264464, 43.3621171], [43.16261873, 43.3625403], [43.16356677, 43.36312732], [43.16394088, 43.36375307], [43.1638188, 43.36455315], [43.16414564, 43.364965], [43.16541753, 43.36563525], [43.16743488, 43.36734256], [43.16821714, 43.36825287], [43.16843959, 43.36891064], [43.16830048, 43.3695748], [43.16747137, 43.36935785], [43.16674613, 43.36932967], [43.16548189, 43.36966891], [43.16402738, 43.37043941], [43.16321135, 43.37073277], [43.16154758, 43.37083292], [43.16036969, 43.37144314], [43.1588495, 43.37202559], [43.15803879, 43.37241692], [43.15713385, 43.37300481], [43.1566452, 43.3736351], [43.1553313, 43.37405868], [43.15494215, 43.37450016], [43.15489453, 43.375064], [43.15417249, 43.37462358], [43.15335149, 43.37478173], [43.15186177, 43.37463981], [43.1506579, 43.37480843], [43.14905576, 43.37450713], [43.14829931, 43.37408942], [43.14765218, 43.37422291], [43.14726968, 43.37388377], [43.14615433, 43.37378156], [43.14582842, 43.3738588], [43.14530437, 43.37343736], [43.14464587, 43.37361664], [43.14411238, 43.37350938], [43.14361086, 43.37364194], [43.1433281, 43.37419241], [43.14290191, 43.37439432], [43.14236624, 43.37357997], [43.14214463, 43.37353499], [43.14108795, 43.37389731], [43.14057079, 43.37356017], [43.13902923, 43.3737105], [43.13813479, 43.37365824], [43.13752863, 43.37382705], [43.13665194, 43.37365193], [43.13624931, 43.37335444], [43.13560823, 43.37336539], [43.13454063, 43.37288852], [43.13364298, 43.37293201], [43.13213484, 43.37261724], [43.13100125, 43.37309747], [43.1289166, 43.37334528], [43.12815121, 43.373318], [43.12644441, 43.37278226], [43.12576359, 43.37275029], [43.12501886, 43.37292541], [43.12415308, 43.37333746], [43.12321915, 43.37364896], [43.12214911, 43.37375563], [43.12147197, 43.37369252], [43.12065351, 43.37340181], [43.11894541, 43.37305081], [43.11804138, 43.37277312], [43.11668545, 43.37206161], [43.11624563, 43.37171279], [43.11521071, 43.37042514], [43.11475493, 43.37012096], [43.11394757, 43.36985461], [43.11285461, 43.36969259], [43.11204721, 43.36927887], [43.11125951, 43.36910847], [43.11076438, 43.36869668], [43.10991906, 43.36841265], [43.1085405, 43.36755846], [43.10769141, 43.36648772], [43.10723698, 43.36609062], [43.10554552, 43.36513655], [43.10437895, 43.36489901], [43.10424107, 43.3644635], [43.10387856, 43.36422098], [43.10143777, 43.36396595], [43.10154901, 43.36459867], [43.10203585, 43.36488685], [43.1027718, 43.36572216], [43.1032923, 43.36607127], [43.10313838, 43.36641809], [43.10152035, 43.36632531], [43.10018647, 43.36650623], [43.0995941, 43.36675823], [43.09882037, 43.36680646], [43.09762989, 43.36617296], [43.09704711, 43.36609103], [43.09673768, 43.36647214], [43.09551388, 43.36720111], [43.09458202, 43.36786596], [43.09342268, 43.36777621], [43.09276024, 43.36782372], [43.09118722, 43.36813276], [43.08984951, 43.36953512], [43.08888243, 43.36996745], [43.08757651, 43.36995682], [43.08688777, 43.37024756], [43.08658732, 43.37064634], [43.08610652, 43.37063234], [43.08523753, 43.37140441], [43.08415204, 43.37173159], [43.08322819, 43.37249648], [43.08248526, 43.37268384], [43.08212667, 43.37305742], [43.08196874, 43.37380273], [43.08063849, 43.37420632], [43.07937487, 43.37430845], [43.07953589, 43.3749594], [43.07743692, 43.37570145], [43.07688508, 43.37574503], [43.07640231, 43.3761062], [43.07554958, 43.37603593], [43.07550414, 43.37540524], [43.07615854, 43.37486816], [43.07590996, 43.37465993], [43.07507289, 43.37475173], [43.0743575, 43.37532946], [43.07400901, 43.37578359], [43.07314396, 43.37608613], [43.07267512, 43.3763816], [43.07317108, 43.37717193], [43.07209123, 43.37688543], [43.0715274, 43.37698564], [43.07138411, 43.37666483], [43.07095094, 43.376836], [43.07027249, 43.37682241], [43.07018516, 43.37639631], [43.06926787, 43.37637664], [43.06850576, 43.37673967], [43.06837545, 43.37620622], [43.06784827, 43.37621554], [43.06736025, 43.37668825], [43.06733199, 43.37742858], [43.06613724, 43.37825066], [43.06612856, 43.37883412], [43.06640047, 43.37924685], [43.06516719, 43.37957269], [43.06454876, 43.37959631], [43.06146155, 43.38019041], [43.06165499, 43.38110631], [43.06274522, 43.38206714], [43.06376586, 43.38263243], [43.06461607, 43.38360531], [43.06558671, 43.3842823], [43.06585377, 43.38504677], [43.06550923, 43.38553188], [43.06563882, 43.38629317], [43.06552142, 43.38713854], [43.06523792, 43.3875537], [43.06388742, 43.38871346], [43.06386206, 43.38947753], [43.06297152, 43.39045009], [43.06265628, 43.39063698], [43.06217075, 43.39054146], [43.06041295, 43.39092628], [43.05904771, 43.39137692], [43.05783177, 43.39166491], [43.05560937, 43.39172875], [43.05427579, 43.39191674], [43.05344269, 43.39191974], [43.05160185, 43.39239823], [43.05130805, 43.39286809], [43.05082655, 43.39304996], [43.04882793, 43.39426123], [43.04770632, 43.39507413], [43.04727451, 43.39559824], [43.04669169, 43.39582074], [43.04581781, 43.39656429], [43.0450654, 43.39703537], [43.04505146, 43.39741992], [43.04436713, 43.39823863], [43.04239674, 43.3992994], [43.04176952, 43.40055198], [43.0417525, 43.40121974], [43.04120741, 43.40178879], [43.04076216, 43.40285843], [43.04053082, 43.4039011], [43.03979324, 43.40477006], [43.03990071, 43.40526025], [43.03978956, 43.4059197], [43.0399312, 43.40721333], [43.04010309, 43.40748787], [43.04053265, 43.40887379], [43.04046014, 43.40940964], [43.04065851, 43.41005637], [43.04057657, 43.41133387], [43.04032506, 43.41168036], [43.03992916, 43.41279297], [43.038835, 43.41391184], [43.03911066, 43.4148759], [43.03941519, 43.4152251], [43.03940224, 43.41561564], [43.03889973, 43.41673263], [43.03880224, 43.41743506], [43.03906668, 43.41812445], [43.0380511, 43.41926267], [43.03746387, 43.42037335], [43.03648396, 43.42146455], [43.03674028, 43.42263351], [43.03695816, 43.42304003], [43.03634372, 43.42410952], [43.03589027, 43.42459566], [43.03503742, 43.42662075], [43.03461696, 43.42716955], [43.03436249, 43.42893443], [43.03430401, 43.43065796], [43.03418924, 43.43142], [43.03411014, 43.43303875], [43.03476941, 43.43404273], [43.03553625, 43.43541233], [43.03549248, 43.43644731], [43.0352202, 43.43733167], [43.03527879, 43.43791644], [43.03575876, 43.43882216], [43.03576037, 43.43954492], [43.03528304, 43.44029863], [43.03505263, 43.44093345], [43.03442489, 43.44173043], [43.03317635, 43.44249706], [43.03300981, 43.44282595], [43.03285587, 43.44404826], [43.03246018, 43.4457534], [43.03217363, 43.44611457], [43.03077687, 43.44730098], [43.03036447, 43.44803778], [43.03042829, 43.44915807], [43.02972548, 43.4504687], [43.02865466, 43.45185446], [43.02774841, 43.45387981], [43.02722548, 43.45434808], [43.02640102, 43.45539261], [43.02608602, 43.45607865], [43.02511334, 43.45663207]]}, "properties": {"name": "Track"}}]}