{"type": "FeatureCollection", "features": [{"type": "Feature", "geometry": {"type": "LineString", "coordinates": [[43.95937066, 42.87138066], [43.96618155, 42.88159946], [43.96612491, 42.8816611], [43.96611058, 42.88167009], [43.96609559, 42.88167742], [43.9660626, 42.88168741], [43.96584902, 42.88334768], [43.96441362, 42.88396003], [43.96443597, 42.88397666], [43.96478388, 42.88559224], [43.96296525, 42.88654369], [43.96293108, 42.88659423], [43.96278206, 42.88685471], [43.96281671, 42.88687836], [43.96283004, 42.88688336], [43.96288968, 42.88689401], [43.96293899, 42.88689335], [43.9629913, 42.88688169], [43.96302396, 42.88686504], [43.96306827, 42.88683406], [43.96331253, 42.88670147], [43.96462586, 42.88638707], [43.96464985, 42.88638806], [43.96467651, 42.88639306], [43.96470284, 42.88640339], [43.96472484, 42.88641839], [43.96473917, 42.88643672], [43.96474583, 42.88645638], [43.96474183, 42.88647538], [43.96472717, 42.88649438], [43.96470484, 42.88651371], [43.96467851, 42.88653237], [43.96465218, 42.8865497], [43.96462718, 42.8865647], [43.96460385, 42.8865757], [43.9638975, 42.88698], [43.96387284, 42.88700233], [43.96379919, 42.88707633], [43.96377686, 42.88710199], [43.9637312, 42.88714865], [43.96280694, 42.88787223], [43.96160258, 42.88935929], [43.95851981, 42.89197742], [43.9582019, 42.89186456], [43.95585671, 42.89259231], [43.95597601, 42.89261061], [43.95599501, 42.89261061], [43.95601167, 42.89260728], [43.95609764, 42.89260729], [43.95622728, 42.89259532], [43.95633058, 42.89256702], [43.95630964, 42.8925736], [43.95502008, 42.8926428], [43.95345689, 42.89217766], [43.95223059, 42.89193598], [43.95071503, 42.89101612], [43.9492545, 42.88711769], [43.94926216, 42.88711136], [43.94927249, 42.88710803], [43.94833201, 42.88665878], [43.94833201, 42.88665078], [43.94832668, 42.88664379], [43.94823008, 42.88658052], [43.94823242, 42.88653154], [43.94837777, 42.88627382], [43.94834247, 42.88627632], [43.94833015, 42.88625866], [43.94833392, 42.88625562], [43.94833592, 42.88626362], [43.94836663, 42.88628205], [43.94365307, 42.88928032], [43.94610619, 42.88739331], [43.94774397, 42.88675085], [43.94976671, 42.88913223], [43.94977104, 42.88914389], [43.94977237, 42.88915588], [43.95166008, 42.89179133], [43.95251345, 42.89202801], [43.95267174, 42.89207328], [43.95334586, 42.89216076], [43.95339751, 42.89216642], [43.95412052, 42.89245478], [43.95363976, 42.89219417], [43.94942029, 42.88857846], [43.94939835, 42.88843084], [43.94940001, 42.88841984], [43.94836604, 42.88684922], [43.94358653, 42.88947135], [43.94270253, 42.89004924], [43.94137556, 42.89154266], [43.94069377, 42.89200006], [43.94037923, 42.89230194], [43.93972013, 42.89228266], [43.93881607, 42.89260796], [43.93839621, 42.89267983], [43.93527501, 42.89352081], [43.93036386, 42.89965393], [43.93029321, 42.89969058], [43.93026188, 42.89970124], [43.93022756, 42.89970923], [43.9238249, 42.89796138], [43.92275622, 42.89634907], [43.92275988, 42.89629342], [43.92276621, 42.89627976], [43.92277487, 42.89626676], [43.92278453, 42.89625543], [43.92282352, 42.89622578], [43.91938393, 42.89292578], [43.91867173, 42.89322949], [43.91817329, 42.89337499], [43.91816371, 42.89337103], [43.91809737, 42.89340671], [43.91819698, 42.89334292], [43.91820864, 42.89334625], [43.91823496, 42.89334725], [43.91938009, 42.89284014], [43.91739788, 42.89372184], [43.91739455, 42.89370551], [43.91739588, 42.89368918], [43.91740187, 42.89367385], [43.91740987, 42.89365985], [43.92168204, 42.89983873], [43.92168537, 42.89984739], [43.92171936, 42.89989736], [43.92184661, 42.90007526], [43.92183828, 42.90009459], [43.92180963, 42.90012324], [43.9221134, 42.90077432], [43.9223053, 42.90080588], [43.92238858, 42.90080086], [43.92226194, 42.90078889], [43.9223349, 42.90080785], [43.92390154, 42.90127551], [43.92571854, 42.90208024], [43.92952367, 42.90677032], [43.92942317, 42.907306], [43.92944018, 42.90836989], [43.92944484, 42.90837922], [43.92943985, 42.90843651], [43.92859158, 42.90912847], [43.92858392, 42.90912447], [43.92875709, 42.90917571], [43.92860849, 42.90930623], [43.92852886, 42.90930625], [43.92851349, 42.90930221], [43.92950895, 42.90938379], [43.92986316, 42.90943266], [43.92987449, 42.90942933], [43.92993144, 42.9093677], [43.92994442, 42.90932639], [43.92997241, 42.90930041], [43.92997974, 42.90929008], [43.9299824, 42.90927908], [43.92998207, 42.90926875], [43.9298892, 42.90883228], [43.92989153, 42.90882062], [43.92990319, 42.90872932], [43.92984543, 42.90680439], [43.92968355, 42.90668349], [43.92979414, 42.90671242], [43.92990278, 42.90880919], [43.92988514, 42.90884551], [43.92983884, 42.90889682], [43.92993705, 42.90929894], [43.92993139, 42.90930827], [43.9295276, 42.90938365], [43.92930268, 42.90939163], [43.92928702, 42.90939429], [43.92909145, 42.90956486], [43.92905513, 42.90959585], [43.92887855, 42.90980032], [43.92888811, 42.90980397], [43.92850181, 42.91049017], [43.92692404, 42.91146962], [43.92593364, 42.91302687], [43.92310849, 42.91426808], [43.92173616, 42.91450757], [43.92110618, 42.91461435], [43.9202797, 42.91467525], [43.92029158, 42.91467922], [43.92013059, 42.91481587], [43.91974939, 42.91483346], [43.91973473, 42.9148328], [43.91967109, 42.91483746], [43.91948283, 42.9147409], [43.91912396, 42.91479545], [43.91873943, 42.91492232], [43.91647759, 42.91573602], [43.91529743, 42.91576328], [43.91467846, 42.91601616], [43.91438957, 42.91593794], [43.91428727, 42.91587632], [43.91424096, 42.91584468], [43.91422763, 42.91584002], [43.91392809, 42.91574916], [43.91359758, 42.91570862], [43.91290297, 42.91575185], [43.91063551, 42.91605995], [43.90647068, 42.91644572], [43.90645568, 42.91644838], [43.90646795, 42.91642851], [43.90617811, 42.91645516], [43.90568579, 42.91663823], [43.90563114, 42.9166892], [43.90561251, 42.91674816], [43.90531329, 42.91878149], [43.90562014, 42.91899866], [43.90572568, 42.91918391], [43.90622369, 42.91952291], [43.90857348, 42.92036974], [43.9085616, 42.92038361], [43.91075467, 42.92007711], [43.91078099, 42.92006745], [43.91191438, 42.91994044], [43.91202103, 42.91998769], [43.91205863, 42.91999067], [43.91207414, 42.91999761], [43.91200891, 42.91998897], [43.91207421, 42.92030574], [43.91320526, 42.92105239]]}, "properties": {"name": "Track"}}]}