{"type": "FeatureCollection", "features": [{"type": "Feature", "geometry": {"type": "LineString", "coordinates": [[44.52656666, 42.83487366], [44.52653467, 42.83486234], [44.52651001, 42.83486135], [44.52648935, 42.83486601], [44.52647569, 42.83487101], [44.52646236, 42.83488233], [44.52647969, 42.83490332], [44.52648502, 42.83491398], [44.52648501, 42.83493196], [44.52981372, 42.83875072], [44.52981306, 42.83876138], [44.53188346, 42.84087091], [44.53164295, 42.84114079], [44.52927593, 42.84291375], [44.5289334, 42.84776991], [44.52889342, 42.84781623], [44.52856194, 42.84868673], [44.52849417, 42.85022305], [44.52865864, 42.85456278], [44.52821076, 42.85517274], [44.52811114, 42.85526804], [44.52803328, 42.85608074], [44.52799097, 42.8562057], [44.52731793, 42.85649229], [44.52246482, 42.86123389], [44.52171916, 42.86165822], [44.52140546, 42.86100688], [44.52127884, 42.86096391], [44.52029651, 42.86257015], [44.52036411, 42.86281563], [44.52032514, 42.86288759], [44.52028515, 42.86291824], [44.52016153, 42.86300053], [44.52009198, 42.86302737], [44.52009364, 42.86303703], [44.52009098, 42.86304869], [44.52008232, 42.86306168], [44.51980709, 42.86335859], [44.51969514, 42.86351786], [44.51967449, 42.86357418], [44.5196685, 42.86358551], [44.51966117, 42.86359184], [44.51965251, 42.86359151], [44.51964652, 42.86358685], [44.51962921, 42.86355453], [44.51967706, 42.86294116], [44.51962847, 42.86309312], [44.51961683, 42.86319144], [44.51963047, 42.86352604], [44.51963413, 42.8635447], [44.51963946, 42.86356136], [44.51965179, 42.86357736], [44.51967012, 42.86358569], [44.51968778, 42.86358669], [44.51970377, 42.86358203], [44.51971843, 42.86357437], [44.51973009, 42.86356404], [44.51974874, 42.86353704], [44.5197544, 42.86352171], [44.51979535, 42.8633771], [44.51981534, 42.86335078], [44.51984166, 42.86332645], [44.52011024, 42.86305655], [44.52012625, 42.86301252], [44.52013257, 42.8630335], [44.52013323, 42.86304616], [44.52013024, 42.86305815], [44.52012291, 42.86306881], [44.51978198, 42.86338693], [44.51972468, 42.86349291], [44.51969471, 42.8635922], [44.51968705, 42.86360253], [44.51967806, 42.86360752], [44.5196664, 42.86360619], [44.51964541, 42.8635942], [44.51963475, 42.86358354], [44.51962742, 42.86357188], [44.51962343, 42.86355922], [44.51962709, 42.86346792], [44.51962443, 42.86345592], [44.51967462, 42.86295575], [44.51974517, 42.86268088], [44.51982421, 42.85174448], [44.51984071, 42.85174149], [44.50961065, 42.84565575], [44.50951636, 42.84574469], [44.50943539, 42.84579532], [44.50870218, 42.84563666], [44.50869466, 42.84520439], [44.508691, 42.84517606], [44.50868101, 42.84515107], [44.5086497, 42.8451151], [44.50866267, 42.84517809], [44.508695, 42.84527451], [44.50868068, 42.84525086], [44.50867702, 42.84523353], [44.50867602, 42.84521354], [44.508686, 42.84513857], [44.50856301, 42.84521553], [44.50856834, 42.8452052], [44.50863958, 42.84515065], [44.50886736, 42.84469632], [44.50869098, 42.84482282], [44.50864366, 42.84485013], [44.50862667, 42.84485679], [44.50859268, 42.84486511], [44.50855936, 42.84486677], [44.50783999, 42.84424674], [44.5079486, 42.84411113], [44.50796826, 42.84408913], [44.50851539, 42.84302748], [44.50851639, 42.84301815], [44.50978043, 42.84166489], [44.50976093, 42.84166655], [44.51022456, 42.84165345], [44.50865764, 42.84496469], [44.50864965, 42.84504166], [44.50864432, 42.84505166], [44.50853889, 42.84511018], [44.50851629, 42.84516543], [44.50849158, 42.84518191], [44.50847836, 42.84517662], [44.50852765, 42.84519121], [44.50824942, 42.84509813], [44.50778397, 42.84490763], [44.49958633, 42.84572692], [44.49957295, 42.84575116], [44.49959994, 42.8457445], [44.49960133, 42.84573481], [44.49561837, 42.84821875], [44.49560252, 42.84821314], [44.48962368, 42.84850359], [44.48930844, 42.84845568], [44.48929178, 42.84845767], [44.48927578, 42.84846167], [44.48909124, 42.84855522], [44.48908358, 42.84854256], [44.48907558, 42.84853523], [44.48906825, 42.84853257], [44.48906125, 42.84853656], [44.48898111, 42.84847494], [44.48896745, 42.84847361], [44.48895212, 42.84847494], [44.48889014, 42.84849359], [44.48875784, 42.84848759], [44.48872886, 42.8484716], [44.48872615, 42.84845929], [44.48877813, 42.84847927], [44.48892775, 42.84851255], [44.4891082, 42.84852756], [44.48898269, 42.84848515], [44.48896803, 42.84848149], [44.48895237, 42.84848049], [44.48882809, 42.84849444], [44.48802247, 42.84877117], [44.48797791, 42.84887605], [44.48767459, 42.8490748], [44.48789016, 42.84893326], [44.48733495, 42.84858378], [44.48715869, 42.84729696], [44.4800756, 42.84995171], [44.47959661, 42.85122289], [44.47928743, 42.853538], [44.47931608, 42.85354172], [44.4793197, 42.85353775], [44.47932532, 42.85354701], [44.47930158, 42.85353776], [44.47931381, 42.85353215], [44.47888253, 42.85522682], [44.47887558, 42.85519974], [44.47849823, 42.85906834], [44.47848824, 42.85909967], [44.47848691, 42.85910067], [44.47841158, 42.85906101], [44.47841023, 42.8590514], [44.47807724, 42.85939239], [44.47839823, 42.8589694], [44.4783799, 42.8589914], [44.47840008, 42.85905439], [44.47839443, 42.85904941], [44.47868209, 42.85839174], [44.47906008, 42.85915307], [44.47828269, 42.8568685], [44.47909376, 42.85413252], [44.47965614, 42.85301704], [44.48017686, 42.84749688], [44.47917509, 42.84785337], [44.4791581, 42.84785171], [44.47711191, 42.84666564], [44.47358194, 42.8468999], [44.46003387, 42.83923733], [44.46002088, 42.839234], [44.46000988, 42.83922834], [44.45999988, 42.83921935], [44.45998522, 42.8391997], [44.45997756, 42.83919571], [44.45993925, 42.83920836], [44.45917749, 42.83915292], [44.45916416, 42.83914959], [44.4591525, 42.8391436], [44.45911785, 42.83912195], [44.45736275, 42.83902503], [44.45734875, 42.83902636], [44.45733542, 42.83903002], [44.44543903, 42.84005233], [44.44450739, 42.83990614], [44.44433084, 42.84021195], [44.44433586, 42.84022361], [44.44430457, 42.84019331]]}, "properties": {"name": "Track"}}]}