{"type": "FeatureCollection", "features": [{"type": "Feature", "geometry": {"type": "LineString", "coordinates": [[44.29945166, 42.835215], [44.29963113, 42.83503706], [44.29921469, 42.83412063], [44.29716578, 42.83219387], [44.29667407, 42.8321929], [44.29608477, 42.8315703], [44.29482253, 42.83113343], [44.2940803, 42.8310031], [44.29472031, 42.83159319], [44.2949496, 42.83202745], [44.29623951, 42.83388384], [44.29621954, 42.83419563], [44.29559568, 42.83400905], [44.29401572, 42.83433572], [44.29349414, 42.83369453], [44.29294343, 42.83378616], [44.29275774, 42.83431024], [44.29230113, 42.83443633], [44.29164785, 42.83523041], [44.29112835, 42.83477651], [44.29082463, 42.83515965], [44.29030408, 42.83519589], [44.28986573, 42.83556279], [44.28929492, 42.8356873], [44.28848945, 42.83636988], [44.28797292, 42.83696827], [44.2882603, 42.83720603], [44.28773652, 42.83729609], [44.2866997, 42.838225], [44.28620894, 42.83914511], [44.2843013, 42.84051672], [44.28299175, 42.84175271], [44.28160157, 42.84242686], [44.28050533, 42.84245087], [44.27997632, 42.84284447], [44.27989028, 42.84332297], [44.2801283, 42.84423334], [44.28045948, 42.84476271], [44.27973869, 42.84556107], [44.27836273, 42.84600074], [44.27800665, 42.84633241], [44.27727024, 42.84628306], [44.27562238, 42.84662513], [44.27516566, 42.8460611], [44.27427838, 42.84524926], [44.27311996, 42.84483769], [44.27233258, 42.84509481], [44.27175939, 42.84490253], [44.27047351, 42.84482781], [44.27021616, 42.84468821], [44.2703559, 42.844072], [44.27001764, 42.84314225], [44.26952981, 42.84325767], [44.2686251, 42.84275902], [44.26842072, 42.84203195], [44.26799295, 42.8418731], [44.2678087, 42.84211089], [44.26710767, 42.84189232], [44.26674973, 42.84097333], [44.26612297, 42.84030302], [44.26593626, 42.83971904], [44.26617363, 42.83918139], [44.26527953, 42.83925145], [44.26385383, 42.8396309], [44.26305831, 42.83904668], [44.26250298, 42.83886028], [44.2617099, 42.83907512], [44.26180409, 42.83940954], [44.26139543, 42.83971488], [44.26033411, 42.83975694], [44.25925902, 42.83964168], [44.25813853, 42.83979023], [44.25728922, 42.83974177], [44.25719038, 42.83950396], [44.25763986, 42.83913259], [44.25859946, 42.83867564], [44.25767157, 42.83858076], [44.25777808, 42.83767806], [44.25738088, 42.83717763], [44.25739273, 42.83671427], [44.25771622, 42.83700562], [44.25813104, 42.83675252], [44.25775771, 42.83654755], [44.25677845, 42.83699483], [44.25462922, 42.83759204], [44.25286533, 42.83793693], [44.25244577, 42.83834267], [44.25175094, 42.83761574], [44.25032739, 42.8370305], [44.24996152, 42.83755009], [44.24927824, 42.83738244], [44.24858559, 42.83757647], [44.24758879, 42.8373636], [44.24600897, 42.83763847], [44.24420536, 42.83853146], [44.24331682, 42.83943786], [44.24228395, 42.84017669], [44.24111725, 42.84040608], [44.23921078, 42.84059876], [44.23809382, 42.84045654], [44.23738322, 42.84050084], [44.23628299, 42.84102864], [44.23575333, 42.84106151], [44.23558657, 42.84081946], [44.23423602, 42.8409488], [44.23374699, 42.84154609], [44.23285054, 42.84185324], [44.2318588, 42.84167443], [44.23118124, 42.84171501], [44.23061188, 42.84200203], [44.22906623, 42.84191394], [44.2270728, 42.84223863], [44.22589526, 42.84250594], [44.22568344, 42.84285411], [44.22481138, 42.84312789], [44.22462899, 42.84462721], [44.22339032, 42.84537689], [44.22292759, 42.84532959]]}, "properties": {"name": "Track"}}]}