{"type": "FeatureCollection", "features": [{"type": "Feature", "geometry": {"type": "LineString", "coordinates": [[40.91036599, 43.806002], [40.91134651, 43.8066321], [40.91179845, 43.80772232], [40.91177851, 43.80849036], [40.91131471, 43.80894782], [40.91050298, 43.80926854], [40.91050388, 43.80982667], [40.91104958, 43.81068602], [40.91132059, 43.81143472], [40.91114751, 43.81236011], [40.91114681, 43.81315185], [40.91143586, 43.814758], [40.91172987, 43.81563667], [40.91228965, 43.8160711], [40.91207022, 43.81637965], [40.91257285, 43.81804602], [40.91342822, 43.81834368], [40.91383062, 43.81881313], [40.91394363, 43.81964396], [40.91432854, 43.82061921], [40.91405, 43.82089274], [40.91344384, 43.82085146], [40.91269755, 43.82134875], [40.91224574, 43.82144757], [40.91118718, 43.82136688], [40.91069667, 43.82115104], [40.90959873, 43.82106987], [40.90810323, 43.82022375], [40.9066967, 43.82000058], [40.9058, 43.81997436], [40.90504892, 43.81972801], [40.90380064, 43.81957929], [40.90187843, 43.81913897], [40.90045556, 43.81904851], [40.89902856, 43.81926574], [40.89831041, 43.81915259], [40.8972308, 43.81862099], [40.89652004, 43.81844153], [40.89553466, 43.81755622], [40.89412904, 43.81604528], [40.89316506, 43.81529606], [40.89282989, 43.8152066], [40.8919552, 43.81443622], [40.89140552, 43.8141839], [40.89067377, 43.81463061], [40.89123954, 43.81453706], [40.89130217, 43.81487716], [40.88992879, 43.81520287], [40.88927265, 43.81570937], [40.88869084, 43.81562852], [40.88839812, 43.81513145], [40.88756216, 43.81472915], [40.88659586, 43.81454979], [40.88519108, 43.81460031], [40.88359783, 43.81395301], [40.8820394, 43.81316582], [40.87993168, 43.81389911], [40.88022941, 43.81451766], [40.87987572, 43.81525333], [40.87995362, 43.81459325], [40.8792939, 43.81435853], [40.8789694, 43.81475656], [40.87916591, 43.81519191], [40.87861452, 43.81485189], [40.87739842, 43.81463062], [40.87604546, 43.81350885], [40.87445708, 43.81295121], [40.87391608, 43.81168175], [40.87333858, 43.81102498], [40.87268458, 43.81061364], [40.87221075, 43.81061532], [40.87151491, 43.81110874], [40.86971028, 43.81139271], [40.8696853, 43.81092533], [40.86840974, 43.81071738], [40.86650725, 43.81021779], [40.86684869, 43.80976338], [40.86566578, 43.80984716], [40.8647147, 43.80911078], [40.86392182, 43.8080932], [40.86404245, 43.8076835], [40.86350997, 43.80780288], [40.86328531, 43.8089013], [40.86281359, 43.80924402], [40.86275096, 43.80877837], [40.86186332, 43.80813529], [40.86061969, 43.80751498], [40.85984904, 43.80741289], [40.85924928, 43.80754063], [40.85863092, 43.80728327], [40.85856298, 43.80701945], [40.85940457, 43.80634223], [40.85927978, 43.80597208], [40.85947726, 43.80552332], [40.85899948, 43.80564088], [40.85870777, 43.80621551], [40.85829264, 43.80645297], [40.85685051, 43.80687105], [40.85596597, 43.8075209], [40.85503737, 43.80770292], [40.85496061, 43.80849948], [40.8543729, 43.80868007], [40.8541343, 43.80737595], [40.85364481, 43.80641098], [40.85283983, 43.80639501], [40.8523898, 43.80677008], [40.85022991, 43.80586764], [40.84914158, 43.80607906], [40.84934338, 43.8064978], [40.84922456, 43.80703057], [40.84794518, 43.80768434], [40.84737678, 43.80736607], [40.8476816, 43.8069668], [40.84540562, 43.80655889], [40.84413011, 43.80649238], [40.84365867, 43.80612428], [40.84291241, 43.80584596], [40.84268766, 43.80539955], [40.84288541, 43.80509846], [40.84274693, 43.80429747], [40.84355187, 43.80370557], [40.84354553, 43.80344044], [40.8424761, 43.80344109], [40.84236032, 43.80314498], [40.84136247, 43.80278242], [40.84135771, 43.80170311], [40.84192093, 43.80049331], [40.84173247, 43.80002568], [40.84221791, 43.79997451], [40.84340456, 43.79895315], [40.84485842, 43.79871889], [40.84530946, 43.7985448], [40.84594, 43.79785089], [40.84600023, 43.79735616], [40.84571725, 43.79672977], [40.84511947, 43.796431], [40.84383736, 43.79627493], [40.84302825, 43.79537718], [40.84155475, 43.79438679], [40.84059288, 43.79413992], [40.83861331, 43.79323028], [40.83729463, 43.79302111], [40.83708176, 43.7927411], [40.83541494, 43.79205174], [40.83459789, 43.79241808], [40.83468629, 43.79167118], [40.83492295, 43.7913095], [40.83556369, 43.79096144], [40.8361535, 43.79020161], [40.83627428, 43.78974195], [40.83610494, 43.78914098], [40.83558414, 43.78826662], [40.83531767, 43.78841653], [40.83458835, 43.78806087], [40.83223216, 43.78811235], [40.83024058, 43.78784338], [40.82974344, 43.78761556], [40.82829665, 43.78734662], [40.82654548, 43.78636789], [40.82638088, 43.78574776], [40.82489128, 43.78508289], [40.8244406, 43.78472595], [40.82233753, 43.78417356], [40.82160722, 43.78414717], [40.82046967, 43.78457456], [40.81943923, 43.78553072], [40.81736035, 43.78633358], [40.81607055, 43.78664476], [40.81449911, 43.78666405], [40.81336857, 43.78705523], [40.81243461, 43.78691875], [40.81178886, 43.78710113], [40.81009545, 43.78676438], [40.8088523, 43.78711507], [40.80786567, 43.78700488], [40.80671292, 43.78632779], [40.80571083, 43.78545843], [40.8054833, 43.78541952], [40.80525627, 43.78609349], [40.80431796, 43.78666153], [40.80427146, 43.7872009], [40.80329583, 43.78734593], [40.80227167, 43.78701177], [40.8009527, 43.78673551], [40.80106361, 43.78602937], [40.80131963, 43.78553777], [40.80122886, 43.78510528], [40.7988788, 43.78538799], [40.79796532, 43.78519847], [40.79611252, 43.78513332], [40.79581402, 43.78501885], [40.79522127, 43.78424919], [40.79447545, 43.78353437], [40.7941799, 43.78344615], [40.79227196, 43.78435772], [40.7912635, 43.78470988], [40.78947228, 43.78447188], [40.78828987, 43.78454585], [40.78678811, 43.78508869], [40.78570471, 43.78578937], [40.78508493, 43.78588126], [40.78311762, 43.7867359], [40.78096971, 43.78713133], [40.7807426, 43.78603628], [40.78036791, 43.78581122], [40.77929446, 43.78585073], [40.77855708, 43.7860781], [40.77845289, 43.78560519], [40.77761291, 43.78515127], [40.77700983, 43.78412511], [40.77605521, 43.78406193], [40.7755402, 43.78419937], [40.77437526, 43.78511202], [40.77407857, 43.78555641], [40.77254727, 43.78631214], [40.77050349, 43.78853997], [40.77015256, 43.78902327], [40.76958061, 43.78939689], [40.76926062, 43.79000098], [40.76979656, 43.79066259], [40.77063867, 43.79106902], [40.7708407, 43.79205352], [40.7703287, 43.79379243], [40.7697364, 43.79430505], [40.76723588, 43.79577292], [40.76631641, 43.79668903], [40.76572, 43.79702172], [40.7645447, 43.79839673], [40.76439316, 43.79901475], [40.76361134, 43.79958994], [40.76285822, 43.79946511], [40.76203478, 43.79958517], [40.76140594, 43.79914665], [40.76063589, 43.79915963], [40.7597479, 43.79862103], [40.75934738, 43.79853222], [40.75885716, 43.79911875], [40.75910758, 43.79967836], [40.7588872, 43.80014141], [40.75899869, 43.80099905], [40.75872799, 43.80175868], [40.75786392, 43.802193], [40.7579633, 43.8038151], [40.75776685, 43.80432622], [40.75772233, 43.8052378], [40.75713728, 43.80687276], [40.75601435, 43.80870166], [40.75546904, 43.80914125], [40.75556929, 43.80956067], [40.75509213, 43.81087862], [40.75496988, 43.81154891], [40.75558497, 43.81290223], [40.75523018, 43.81317955], [40.75486198, 43.81270492], [40.75468049, 43.81322548], [40.75478167, 43.81375789]]}, "properties": {"name": "Track"}}]}