{"type": "FeatureCollection", "features": [{"type": "Feature", "geometry": {"type": "LineString", "coordinates": [[44.148002, 42.88095133], [44.14077097, 42.88013441], [44.14078889, 42.8801311], [44.14073963, 42.88010378], [44.14077808, 42.88012332], [44.13846881, 42.87946775], [44.13616214, 42.87645054], [44.13459915, 42.87286073], [44.13289854, 42.87131491], [44.13293184, 42.8713016], [44.13151897, 42.8711773], [44.13131837, 42.87120391], [44.13068389, 42.87146735], [44.13048796, 42.87158429], [44.13046397, 42.87158662], [44.13045198, 42.87159994], [44.13052526, 42.87167954], [44.12930564, 42.87080779], [44.12914636, 42.8707695], [44.12671419, 42.87086795], [44.12671087, 42.87080266], [44.12670488, 42.87079067], [44.12669522, 42.87077867], [44.12668422, 42.87076934], [44.12525419, 42.86992635], [44.12131815, 42.86800334], [44.12137253, 42.86792336], [44.12112478, 42.86815252], [44.12102187, 42.8682711], [44.11914357, 42.87068907], [44.11912924, 42.8706904], [44.11799692, 42.87120573], [44.11798493, 42.87120672], [44.11794595, 42.87119974], [44.11793462, 42.87120107], [44.11792662, 42.87120706], [44.11790632, 42.8712667], [44.11716586, 42.87181001], [44.11483523, 42.87222242], [44.11428875, 42.87215856], [44.11344835, 42.87190216], [44.11336438, 42.87187752], [44.11325176, 42.87185483], [44.11323977, 42.87185384], [44.10865704, 42.87207019], [44.10863971, 42.87207019], [44.10626337, 42.8716908], [44.10625312, 42.87168056], [44.10612186, 42.87180446], [44.10553971, 42.87195035], [44.10552305, 42.87194669], [44.10550639, 42.87194103], [44.10549173, 42.87193303], [44.10479273, 42.87033432], [44.10402345, 42.86949382], [44.10400297, 42.86949117], [44.10404341, 42.86947195], [44.10204435, 42.86931397], [44.10194871, 42.86936361], [44.10193138, 42.86936861], [44.10130493, 42.86931264], [44.1012926, 42.86930065], [44.10030993, 42.86872566], [44.09999235, 42.86869574], [44.09979906, 42.86868211], [44.09944653, 42.86841024], [44.09918603, 42.86816745], [44.09917137, 42.86816612], [44.09914886, 42.86815788], [44.09916485, 42.86815755], [44.09917951, 42.86816054], [44.09937377, 42.86835412], [44.0993851, 42.86836311], [44.09939776, 42.86836744], [44.09919554, 42.86815223], [44.09918055, 42.86814757], [44.09916556, 42.86814624], [44.09503271, 42.86745175], [44.09486577, 42.86742181], [44.09445062, 42.86699837], [44.09123989, 42.86642825], [44.09120457, 42.86641793], [44.08758555, 42.86626483], [44.08710604, 42.86659391], [44.08657955, 42.86627077], [44.08243324, 42.86654816], [44.08096571, 42.86674239], [44.08027064, 42.86639538], [44.08023233, 42.86636573], [44.07961401, 42.86651009], [44.07951605, 42.86671261], [44.07544908, 42.86751802], [44.06960811, 42.87072097], [44.06961377, 42.87074429], [44.07005712, 42.8730249], [44.0702019, 42.8741636], [44.07018324, 42.87419792], [44.07008494, 42.87426921], [44.07007595, 42.87427954], [44.07007129, 42.8742902], [44.07007295, 42.87431186], [44.07007894, 42.87432252], [44.07012774, 42.87437646], [44.07001898, 42.87430493], [44.06817656, 42.87465835], [44.0681599, 42.87466535], [44.06528121, 42.87480343], [44.06527488, 42.87481509], [44.06527122, 42.87483907], [44.06450979, 42.87555937], [44.06450946, 42.87554838], [44.06450413, 42.87553838], [44.06449547, 42.87553239], [44.06407091, 42.8754305], [44.06405892, 42.8754245], [44.06404892, 42.87541651], [44.06170158, 42.87624014], [44.06168459, 42.87624247], [44.06142898, 42.87613023], [44.05806792, 42.87531092], [44.04949671, 42.88006352], [44.04948405, 42.88007152], [44.04947039, 42.88007652], [44.04746175, 42.88041259], [44.04742343, 42.8803896], [44.0473829, 42.88141899], [44.04767705, 42.8813438]]}, "properties": {"name": "Track"}}]}