{"type": "FeatureCollection", "features": [{"type": "Feature", "geometry": {"type": "LineString", "coordinates": [[41.08144933, 43.636928], [41.08045053, 43.63702154], [41.07400231, 43.63493808], [41.07364182, 43.63466227], [41.07388349, 43.63376696], [41.07387117, 43.63173803], [41.07376891, 43.63153213], [41.07347747, 43.63105336], [41.07346548, 43.6310437], [41.07321161, 43.63080651], [41.07036404, 43.62192968], [41.06979428, 43.62157506], [41.06979362, 43.6215664], [41.06323694, 43.62205481], [41.06300234, 43.62208174], [41.06295903, 43.62209705], [41.06294704, 43.62209705], [41.06288773, 43.62207341], [41.06225531, 43.6220365], [41.06060018, 43.62183732], [41.06051521, 43.62184596], [41.06254973, 43.62131145], [41.06673311, 43.61906504], [41.06729197, 43.61653248], [41.06728531, 43.61652482], [41.06727431, 43.61652049], [41.06710936, 43.61652316], [41.06708503, 43.6165185], [41.06680484, 43.61624435], [41.06645121, 43.61533108], [41.06582631, 43.61418888], [41.06579171, 43.61401796], [41.06584755, 43.61034848], [41.06542037, 43.61010966], [41.06339208, 43.61072826], [41.06333276, 43.61075124], [41.06273141, 43.61074298], [41.05405491, 43.61094805], [41.05308111, 43.61101987], [41.05202281, 43.61067828], [41.04274411, 43.61373628], [41.04273712, 43.61374694], [41.04230939, 43.61419337], [41.04228727, 43.61419007], [41.03931276, 43.61509306], [41.03728052, 43.61518213], [41.0358458, 43.61509292], [41.0337531, 43.61461877], [41.03198334, 43.61517082], [41.03098208, 43.61608512], [41.03096509, 43.61608878], [41.03093643, 43.61610044], [41.03011204, 43.61674109], [41.02772063, 43.61800398], [41.02416258, 43.61935327], [41.02369241, 43.61954512], [41.02296027, 43.61978188], [41.02294028, 43.61978454], [41.02290529, 43.61979387], [41.01338654, 43.62250093], [41.01334522, 43.62249561], [41.01322657, 43.62249727], [41.01321124, 43.62250026], [41.0125272, 43.62255432], [41.01225795, 43.62262789], [41.00942394, 43.6229036], [41.0083863, 43.62264758], [41.00814635, 43.62265157], [41.00643647, 43.62271105], [41.00372694, 43.62313763], [40.99886158, 43.62380662], [40.99797586, 43.62404136], [40.9979702, 43.62404835], [40.99673796, 43.62389239], [40.99670631, 43.62388007], [40.99288186, 43.62461732], [40.99220205, 43.62477839], [40.99135143, 43.62487402], [40.98433372, 43.62569612], [40.98393651, 43.62570977], [40.98039785, 43.62600078], [40.9793792, 43.62630854], [40.97916294, 43.62641276], [40.97914728, 43.62641742], [40.9790943, 43.62642375], [40.97796468, 43.62682542], [40.97792935, 43.62685506], [40.97792302, 43.62686639], [40.97792136, 43.62687805], [40.97812856, 43.62729455], [40.97812457, 43.62735586], [40.97816287, 43.62743382], [40.97712296, 43.62804872], [40.97630636, 43.62850838], [40.97627803, 43.6285207], [40.97626804, 43.62852903], [40.97626338, 43.62853903], [40.97626706, 43.62863966], [40.97574264, 43.62988796], [40.97567969, 43.6300299], [40.97555377, 43.63022545], [40.97565958, 43.63032248], [40.97636212, 43.6309449], [40.97738107, 43.63191554], [40.97776415, 43.63258772], [40.97777014, 43.63259972], [40.97800672, 43.63272729], [40.97801838, 43.63273395], [40.97813564, 43.63291719], [40.97830919, 43.63300048], [40.97858542, 43.63312802], [40.97874357, 43.63345922], [40.9787459, 43.63350719], [40.97875423, 43.63351619], [40.97876589, 43.63352318], [40.97877755, 43.63352584], [40.9794712, 43.63387996], [40.97914011, 43.63467598], [40.97852053, 43.63515642], [40.97851253, 43.63516475], [40.97850753, 43.63517474], [40.97850953, 43.63520839], [40.97846065, 43.63619478], [40.97854262, 43.63625874], [40.97870923, 43.63629968], [40.9783691, 43.63771566], [40.97852475, 43.63820917], [40.97853308, 43.63821783], [40.97796187, 43.63892625], [40.97784934, 43.63915513], [40.97783592, 43.6399796], [40.97788021, 43.63993994], [40.97789588, 43.639934], [40.97780099, 43.63997568], [40.97777375, 43.63998326], [40.97809094, 43.63993788], [40.97810927, 43.63993921], [40.97817724, 43.63995418], [40.97819257, 43.63995451], [40.97826721, 43.63993886], [40.97835418, 43.63993522], [40.9788254, 43.64002208], [40.97903901, 43.64007569], [40.9792333, 43.64009233], [40.97942192, 43.64014263], [40.97944058, 43.64014329], [40.97962546, 43.64037076], [40.9796248, 43.64038309], [40.97963878, 43.64041807], [40.97963645, 43.6404807], [40.97963978, 43.64049403], [40.9796571, 43.64061599], [40.97967974, 43.64068564], [40.97972167, 43.64077491], [40.97972333, 43.64081922], [40.97970301, 43.6408732], [40.97969171, 43.64096985], [40.97970336, 43.64100917], [40.97970536, 43.64102317], [40.97970336, 43.64103617], [40.9796967, 43.64104816], [40.97962172, 43.64111513], [40.97961106, 43.64112812], [40.97960273, 43.64114178], [40.97953343, 43.64126475], [40.97952943, 43.64127974], [40.97952844, 43.64129507], [40.97953543, 43.64137138], [40.97933755, 43.6416899], [40.97932823, 43.64171722], [40.97933653, 43.64188617], [40.97932718, 43.64210376], [40.97931588, 43.64217508], [40.97932353, 43.6422184], [40.97586562, 43.64422659], [40.97574699, 43.64420029], [40.97573566, 43.64419329], [40.97548779, 43.64407374], [40.97428333, 43.64371981], [40.97413737, 43.64375241], [40.9731951, 43.64362812], [40.9719322, 43.64410434], [40.97186622, 43.64408435], [40.97164969, 43.64415026], [40.96810603, 43.6452284], [40.96793709, 43.64517714], [40.96191722, 43.64763962]]}, "properties": {"name": "Track"}}]}