{"type": "FeatureCollection", "features": [{"type": "Feature", "geometry": {"type": "LineString", "coordinates": [[40.24543565, 44.21589734], [40.24575213, 44.21996837], [40.24582241, 44.22006235], [40.24576544, 44.21999473], [40.24683406, 44.23052668], [40.24351117, 44.23747804], [40.2438663, 44.23782016], [40.24394726, 44.23789845], [40.24567661, 44.23882446], [40.23718255, 44.23989057], [40.23696975, 44.23991802], [40.23727358, 44.23979181], [40.23720646, 44.23928341], [40.23718561, 44.23929152], [40.2369333, 44.23989631], [40.23586218, 44.23935519], [40.23415238, 44.23954326], [40.23204281, 44.23937392], [40.23202881, 44.23937425], [40.23087236, 44.239587], [40.22854962, 44.23977423], [40.22842504, 44.2399218], [40.22824744, 44.23998075], [40.22823178, 44.23998208], [40.22809316, 44.24001538], [40.22807883, 44.24003571], [40.22794922, 44.24016331], [40.22794122, 44.24017497], [40.22780864, 44.24035891], [40.2270362, 44.24072262], [40.22699622, 44.24076793], [40.22698389, 44.24077493], [40.22653203, 44.24100009], [40.22653269, 44.24101409], [40.22662057, 44.24166452], [40.22540405, 44.24283327], [40.22486885, 44.24303345], [40.22487481, 44.24327272], [40.22482286, 44.24354159], [40.22478044, 44.24367379], [40.22463168, 44.24428288], [40.22451848, 44.24482769], [40.2241356, 44.24500855], [40.22412794, 44.24501788], [40.22412561, 44.24503854], [40.2241356, 44.24506154], [40.22413227, 44.24508552], [40.22391809, 44.24561996], [40.22393873, 44.2456686], [40.22399662, 44.2460075], [40.22401094, 44.24603149], [40.22407186, 44.24622775], [40.22410582, 44.24633839], [40.22375443, 44.24699052], [40.22374244, 44.24702117], [40.22374045, 44.24703717], [40.22368949, 44.24723309], [40.22368883, 44.24724808], [40.22370318, 44.24748731], [40.22369029, 44.24748105], [40.22356406, 44.24777293], [40.22334844, 44.24785957], [40.22263132, 44.24822228], [40.222609, 44.24824727], [40.22209855, 44.24871276], [40.22208589, 44.24872309], [40.2217378, 44.24935619], [40.2213966, 44.24970636], [40.22129102, 44.24999589], [40.2212214, 44.25015417], [40.22111144, 44.25021546], [40.21983487, 44.25063703], [40.2196853, 44.2508073], [40.2190222, 44.25124472], [40.21804804, 44.25177679], [40.21782654, 44.25216123], [40.21788014, 44.25231718], [40.21810671, 44.25302037], [40.2181217, 44.2530307], [40.21813236, 44.25304203], [40.21813835, 44.25305502], [40.21775048, 44.25324018], [40.2172963, 44.25319758], [40.21717267, 44.25323121], [40.21713934, 44.25325054], [40.21641143, 44.25383251], [40.21621769, 44.25453046], [40.2160805, 44.25482132], [40.21607817, 44.25483198], [40.2160815, 44.25484397], [40.21651358, 44.25581785], [40.21660009, 44.2560714], [40.21667868, 44.25661335], [40.21668701, 44.25662201], [40.21574113, 44.2582797], [40.21569083, 44.25834501], [40.21365575, 44.25956841], [40.21361813, 44.2597017], [40.21339088, 44.2599456], [40.21277682, 44.260658], [40.2119608, 44.26124501], [40.21084822, 44.26168168], [40.20968149, 44.2623926], [40.20728598, 44.26509045], [40.20715838, 44.26527638], [40.20109206, 44.26976889], [40.2010764, 44.26977522], [40.19929064, 44.27009006], [40.19677399, 44.27623235], [40.19676366, 44.27624601], [40.19671334, 44.276289], [40.19651043, 44.27628534], [40.19695953, 44.27841796], [40.19696519, 44.27842895], [40.19696619, 44.27844028], [40.19696286, 44.27845028], [40.19695553, 44.27845961], [40.19498456, 44.27886971], [40.1945139, 44.27831667], [40.19442993, 44.27826936], [40.19429135, 44.27808111], [40.19416038, 44.27809208], [40.19415305, 44.27809941], [40.19411308, 44.27821569], [40.1927945, 44.2785637], [40.19278417, 44.2785717], [40.19183042, 44.27867618], [40.19169846, 44.27871114], [40.19164814, 44.27876912], [40.19163548, 44.27877778], [40.1910371, 44.27939615], [40.19069504, 44.28010389], [40.19068771, 44.28011655], [40.19067738, 44.28012754], [40.18933743, 44.28048834], [40.18840139, 44.28065615], [40.18838906, 44.28066448], [40.18834574, 44.28070412], [40.18804151, 44.280788], [40.18354339, 44.29092299], [40.18354739, 44.29093465], [40.18400125, 44.29132706], [40.18361945, 44.2914916], [40.18360846, 44.29150326], [40.18360313, 44.29151592], [40.18360612, 44.29152758], [40.18361345, 44.29153924], [40.18212772, 44.29145657], [40.18231071, 44.29149455], [40.18220681, 44.29145021], [40.18220186, 44.29145715], [40.18218265, 44.2914489]]}, "properties": {"name": "Track"}}]}