{"type": "FeatureCollection", "features": [{"type": "Feature", "geometry": {"type": "LineString", "coordinates": [[44.991105, 42.82666266], [44.99046833, 42.8265401], [44.98794806, 42.83119228], [44.98793387, 42.83120353], [44.98728787, 42.8298869], [44.98725989, 42.82984859], [44.98716357, 42.82993517], [44.98758181, 42.83236124], [44.98762146, 42.8323649], [44.98932525, 42.83222527], [44.98935191, 42.83223626], [44.98961316, 42.83223126], [44.98924677, 42.83349865], [44.98923817, 42.83349535], [44.98924631, 42.83352323], [44.98924173, 42.83349362], [44.98922719, 42.83349395], [44.98896443, 42.83452801], [44.98898606, 42.83458599], [44.98898772, 42.83459932], [44.98898441, 42.83463931], [44.98903798, 42.83486889], [44.98906694, 42.83496617], [44.98909922, 42.83506079], [44.98909756, 42.83507212], [44.98909323, 42.83508312], [44.98903629, 42.83517576], [44.98900431, 42.8352044], [44.98900198, 42.8352144], [44.98862091, 42.83602136], [44.98861658, 42.83618326], [44.98861957, 42.83619426], [44.98732571, 42.83859144], [44.98539932, 42.83830855], [44.98435614, 42.83837931], [44.9841699, 42.83826772], [44.98328666, 42.83766849], [44.98307271, 42.83764853], [44.98240265, 42.8374853], [44.98239165, 42.8374773], [44.98234633, 42.83745233], [44.98178029, 42.8376997], [44.97846109, 42.83877429], [44.97499854, 42.83877674], [44.97521438, 42.83841843], [44.97522271, 42.8384101], [44.97441696, 42.83654328], [44.97333617, 42.83568503], [44.97210752, 42.83399814], [44.97183112, 42.83339505], [44.97117505, 42.8322676], [44.97097911, 42.83206409], [44.97086228, 42.83231048], [44.9709412, 42.83251873], [44.96861729, 42.83453902], [44.96852299, 42.83456532], [44.96831353, 42.83496578], [44.96803662, 42.83509103], [44.96711935, 42.83586556], [44.96516898, 42.83713807], [44.96515332, 42.83715307], [44.96510035, 42.83720603], [44.96474893, 42.83760275], [44.96473076, 42.83760374], [44.96205678, 42.84072249], [44.96199612, 42.84076813], [44.96133258, 42.84127178], [44.96108802, 42.84145001], [44.96080394, 42.84242836], [44.96078129, 42.84246835], [44.96079234, 42.84247352], [44.9608062, 42.84246759], [44.9607914, 42.84245531], [44.96079273, 42.84246819], [44.96078244, 42.84247227], [44.95988438, 42.84342067], [44.95980643, 42.84349997], [44.95437812, 42.84196064], [44.95366056, 42.8414944], [44.95356726, 42.84145311], [44.9535606, 42.84144478], [44.95413921, 42.8408362], [44.95477603, 42.84021702], [44.95476737, 42.84021436], [44.95460375, 42.84025261], [44.95356537, 42.84048097], [44.9534974, 42.84049862], [44.95323359, 42.84032147], [44.95322659, 42.84031414], [44.9490744, 42.84085481], [44.94770221, 42.8407855], [44.94514642, 42.84072584], [44.94513109, 42.84072518], [44.94508711, 42.84071453], [44.94507211, 42.84071387], [44.94337124, 42.84106708], [44.94325929, 42.84105377], [44.94295372, 42.84097584], [44.94289117, 42.83885103], [44.94347584, 42.83760458], [44.94346423, 42.83713877], [44.94386706, 42.83689066], [44.94432657, 42.83682341], [44.94501497, 42.83661033], [44.94435466, 42.83619276], [44.94418609, 42.83606084], [44.94158845, 42.83558369], [44.94154702, 42.83516061], [44.94155468, 42.83515028], [44.94161796, 42.83505632], [44.94161663, 42.83504699], [44.94159832, 42.83501901], [44.94159499, 42.83500801], [44.94159499, 42.83499868], [44.94173057, 42.8348271], [44.94181884, 42.83471749], [44.94184683, 42.83470216], [44.94185916, 42.8346935], [44.94203544, 42.8345529], [44.9421864, 42.83447229], [44.94264099, 42.83377507], [44.94126589, 42.83004049], [44.9412609, 42.83003116], [44.94126256, 42.8300235], [44.9411972, 42.82983355], [44.94099259, 42.82975362], [44.94094994, 42.82971663], [44.94127692, 42.82901302], [44.9412243, 42.82889573], [44.94170036, 42.82656399], [44.94170669, 42.82655466], [44.94175634, 42.82652534], [44.941769, 42.82651535], [44.9418163, 42.82641872], [44.94181597, 42.82639273], [44.94175936, 42.82624947], [44.94180599, 42.82618482], [44.94181862, 42.82612418], [44.94225991, 42.82389222], [44.94225369, 42.82347947], [44.94225935, 42.82346514], [44.94226234, 42.82345114], [44.94226201, 42.82343748], [44.94220777, 42.82313393], [44.94220943, 42.8231216], [44.94213554, 42.82291136], [44.94007874, 42.81810431], [44.9400834, 42.81809431], [44.94009273, 42.81808732], [44.94010439, 42.81808266], [44.940123, 42.81808163], [44.94010967, 42.81807597], [44.94010001, 42.81806797], [44.93929395, 42.81665948], [44.93809953, 42.81531047], [44.93764073, 42.81487299], [44.93759047, 42.81467139], [44.93758547, 42.81465873], [44.93756881, 42.81463707], [44.93756182, 42.81462508], [44.93740747, 42.8138583], [44.93738316, 42.81381632], [44.9368697, 42.81333721], [44.9366981, 42.81324994], [44.93664183, 42.81309], [44.93661917, 42.81305269], [44.93644557, 42.81293842], [44.93607476, 42.81253892], [44.93582119, 42.81235037], [44.93557359, 42.81227745], [44.93423516, 42.81005725], [44.93293709, 42.80760535], [44.9324959, 42.80736085], [44.93223265, 42.80744376], [44.93218768, 42.80749207], [44.93213972, 42.80759869], [44.93206776, 42.80769998], [44.93202011, 42.8077533], [44.93169428, 42.80819576], [44.93168862, 42.80820875], [44.93168483, 42.8083732], [44.93169422, 42.80838386], [44.93165957, 42.80838253], [44.93162027, 42.8083306], [44.93077887, 42.81038418], [44.93078087, 42.81039784], [44.93077223, 42.81046849], [44.93077489, 42.81048249], [44.93078122, 42.81049549], [44.93184237, 42.81183694], [44.93116161, 42.81209939], [44.93585441, 42.82190558], [44.93535539, 42.82492129], [44.93534973, 42.82493195], [44.9353424, 42.82494028], [44.93533274, 42.82494594], [44.93502325, 42.82510912], [44.93378618, 42.82450741], [44.93340598, 42.82469991], [44.93289933, 42.8250866], [44.93282936, 42.82514757], [44.93279037, 42.82515889], [44.93210399, 42.82561165], [44.93203072, 42.8257176], [44.9319631, 42.82581289], [44.93181251, 42.82591915], [44.93160024, 42.8259764], [44.93115636, 42.8261099], [44.93114137, 42.82611423], [44.93110505, 42.82613087], [44.93106774, 42.82613918], [44.93090347, 42.82621078], [44.93087081, 42.82621644], [44.93083916, 42.82621511], [44.93019169, 42.82619817], [44.93003842, 42.82632245], [44.93003709, 42.82633378], [44.93004242, 42.82634444], [44.93019765, 42.82676684], [44.92977195, 42.82781359], [44.92961502, 42.82797851], [44.92929779, 42.82805605], [44.92928646, 42.82806405], [44.92886052, 42.83033593], [44.92902195, 42.83128121], [44.9271883, 42.83396606], [44.92716366, 42.83400538], [44.92113153, 42.83246458], [44.92023955, 42.8322154], [44.91864117, 42.83176053], [44.9154158, 42.83144679], [44.91129324, 42.83112689], [44.90891343, 42.83081291], [44.90303967, 42.83053416], [44.89929588, 42.83015021], [44.89931909, 42.83017712], [44.89630927, 42.82937371], [44.89608505, 42.82869763], [44.89485552, 42.82804609], [44.89484353, 42.82804043], [44.89459271, 42.82789649], [44.89459904, 42.82788716], [44.88088989, 42.82683803], [44.87488787, 42.82468676], [44.86490412, 42.81755], [44.86517815, 42.81761448], [44.86519114, 42.81761115], [44.86484483, 42.81753289], [44.8644896, 42.81751795], [44.86448027, 42.81751129], [44.86533938, 42.81713601]]}, "properties": {"name": "Track"}}]}