{"type": "FeatureCollection", "features": [{"type": "Feature", "geometry": {"type": "LineString", "coordinates": [[46.36713066, 42.566101], [46.36714799, 42.56609667], [46.36716964, 42.56607237], [46.36710934, 42.56604873], [46.36651632, 42.56626366], [46.36678133, 42.56657779], [46.36550206, 42.56289131], [46.36456167, 42.56252234], [46.36325175, 42.56327516], [46.36266359, 42.56359991], [46.3615218, 42.56487548], [46.36068701, 42.56543095], [46.36059871, 42.56542298], [46.36058338, 42.56541865], [46.36055105, 42.56540533], [46.3604534, 42.56538003], [46.36051772, 42.56536835], [46.36066367, 42.56537169], [46.360678, 42.56537103], [46.36070166, 42.56536537], [46.36071299, 42.56536004], [46.36072832, 42.56535838], [46.36074232, 42.56535372], [46.36077765, 42.5653484], [46.36079331, 42.56534374], [46.3608163, 42.56533408], [46.36084429, 42.5653121], [46.36091892, 42.56530911], [46.3609439, 42.56530046], [46.36097287, 42.56526583], [46.36101014, 42.56519455], [46.36081694, 42.56543597], [46.36073468, 42.56544997], [46.36072068, 42.56544897], [46.36054642, 42.56542503], [46.36036782, 42.56535011], [46.36029851, 42.56534345], [46.36023287, 42.56536442], [46.36015756, 42.56536278], [46.36011558, 42.56537676], [46.36010492, 42.56537942], [46.35981637, 42.56535975], [46.35716493, 42.56663936], [46.35687257, 42.56703804], [46.35579689, 42.56849041], [46.35579056, 42.5684994], [46.35665967, 42.57230826], [46.35331428, 42.57188821], [46.35330073, 42.57188823], [46.35028828, 42.57184972], [46.34998481, 42.57182675], [46.34995149, 42.57180844], [46.34994149, 42.57180044], [46.34993483, 42.57179044], [46.35050752, 42.56966054], [46.34893788, 42.56855587], [46.34642699, 42.57132766], [46.34606015, 42.57181146], [46.34601317, 42.57178315], [46.34549439, 42.57199339], [46.34551126, 42.57195364], [46.34547994, 42.57196523], [46.34546573, 42.57195698], [46.34545254, 42.57198515], [46.34560267, 42.57211507], [46.34569229, 42.57218068], [46.34578753, 42.57238494], [46.34604835, 42.57277943], [46.34606234, 42.57280242], [46.34609329, 42.57289538], [46.34609995, 42.57290804], [46.34631546, 42.57315492], [46.34631347, 42.57316492], [46.34615757, 42.57344279], [46.34615424, 42.57345278], [46.34613759, 42.57348644], [46.34613559, 42.57349777], [46.34612427, 42.57352076], [46.34612094, 42.57353309], [46.34610565, 42.57363937], [46.34610032, 42.57365037], [46.34609066, 42.5736607], [46.346077, 42.57366969], [46.34606067, 42.57367769], [46.3459547, 42.57372499], [46.34592571, 42.57374032], [46.34611092, 42.57430708], [46.34612492, 42.57431741], [46.3461799, 42.57435472], [46.34620755, 42.57438337], [46.34621154, 42.57439303], [46.34622786, 42.57441102], [46.34625018, 42.57442901], [46.34625849, 42.57446], [46.34624017, 42.57448366], [46.34623284, 42.57449665], [46.34622818, 42.57450898], [46.34622652, 42.57452097], [46.34621787, 42.57455795], [46.3462192, 42.57457128], [46.34622319, 42.57458194], [46.34646177, 42.57477716], [46.34663729, 42.57495336], [46.34664261, 42.57507198], [46.34663528, 42.57507998], [46.34652867, 42.57518428], [46.34651068, 42.57521627], [46.34650002, 42.5752306], [46.3464737, 42.57529058], [46.34617092, 42.57570003], [46.34617026, 42.57571202], [46.34838577, 42.57951706], [46.34836885, 42.57958164], [46.34919431, 42.58058704], [46.34876947, 42.58126699], [46.34938759, 42.58148551], [46.35073612, 42.58307595], [46.34934674, 42.58390998], [46.34927849, 42.58418853], [46.34926817, 42.58421585], [46.3492715, 42.58422251], [46.34937778, 42.58431712], [46.34891205, 42.58452998], [46.34314398, 42.59305587], [46.34308637, 42.59315144], [46.34143565, 42.59541129], [46.3408596, 42.59533626], [46.34058196, 42.59532996], [46.34058097, 42.59535528], [46.34062424, 42.59532859], [46.34066824, 42.59530893], [46.34067656, 42.59529928], [46.34005369, 42.59505773], [46.33589921, 42.59420776], [46.33395142, 42.59419474], [46.33040149, 42.59240963], [46.32767277, 42.59159013], [46.32761047, 42.5915475], [46.32763546, 42.59154284], [46.3276238, 42.59154118], [46.32735493, 42.59136898], [46.3268868, 42.59116288], [46.32231, 42.58911291], [46.32148635, 42.58908836], [46.3189174, 42.58951705], [46.3180081, 42.58920199], [46.31017054, 42.59211505], [46.30934351, 42.59238337], [46.30819092, 42.59239134], [46.30830174, 42.59303963], [46.3098037, 42.59524875], [46.30979905, 42.59526274], [46.30794675, 42.5957055], [46.30291029, 42.59691388], [46.30290263, 42.59692021], [46.30289964, 42.5969272], [46.29997791, 42.59748112], [46.29785971, 42.59714318], [46.29538654, 42.59250858], [46.2937976, 42.59140301], [46.29303124, 42.5918863], [46.2913042, 42.59205013], [46.29126221, 42.59205945], [46.28914002, 42.59259067], [46.28896872, 42.59263161], [46.2886375, 42.59269217], [46.28845822, 42.59271479], [46.28776581, 42.59265217], [46.28716138, 42.59281696], [46.2866399, 42.59298678], [46.28538057, 42.59315951], [46.2832653, 42.59350658], [46.28307071, 42.59350925], [46.28305705, 42.59350726], [46.28276816, 42.59352084], [46.28187182, 42.5933317], [46.28151495, 42.59335027], [46.28145131, 42.59338958], [46.28143365, 42.59340757], [46.28142832, 42.59341757], [46.2802372, 42.59383942], [46.27996363, 42.59388601], [46.27933849, 42.59401413], [46.27858941, 42.59410121], [46.27734915, 42.59423599], [46.2770081, 42.59448476], [46.27700319, 42.59445379], [46.27698667, 42.59445709], [46.2769652, 42.59446467], [46.27696555, 42.59444879], [46.27695466, 42.59445438], [46.27694275, 42.59443951], [46.27699607, 42.5944664], [46.27691291, 42.59377827], [46.27656621, 42.59336989], [46.27639329, 42.59325498], [46.27401445, 42.5908702], [46.27148092, 42.59026252], [46.27116322, 42.58987916], [46.26842491, 42.58904413], [46.26840358, 42.58903781], [46.26799221, 42.58876712], [46.26841833, 42.59246689], [46.2686865, 42.59261139], [46.2741613, 42.59639589], [46.27514408, 42.59827241], [46.27822263, 42.60557642], [46.27816981, 42.60464261], [46.27817376, 42.60466243], [46.27815424, 42.60466244], [46.27814863, 42.60466608], [46.27369021, 42.605253], [46.2735143, 42.60524202], [46.27310676, 42.60530685], [46.27247871, 42.60529988], [46.27148356, 42.60545501], [46.2714779, 42.60547167], [46.27147329, 42.60554593]]}, "properties": {"name": "Track"}}]}