{"type": "FeatureCollection", "features": [{"type": "Feature", "geometry": {"type": "LineString", "coordinates": [[45.193782, 42.81724833], [45.19350135, 42.81657729], [45.19260077, 42.8181104], [45.19234202, 42.81748234], [45.19233943, 42.81676062], [45.19257062, 42.81646872], [45.19229672, 42.81615422], [45.19207057, 42.81506299], [45.19213817, 42.81416797], [45.19129457, 42.81325305], [45.19070953, 42.81290699], [45.19043749, 42.81244258], [45.19019742, 42.81302802], [45.1901968, 42.81356285], [45.18973498, 42.81362579], [45.18884341, 42.81259725], [45.18762091, 42.81192471], [45.18735647, 42.81140489], [45.18680872, 42.8109488], [45.18553042, 42.81094118], [45.18447075, 42.8106728], [45.18321152, 42.81020028], [45.18272182, 42.80977431], [45.18041758, 42.80939374], [45.17951021, 42.80935364], [45.17860611, 42.80944976], [45.17758707, 42.80918041], [45.17646376, 42.80902543], [45.17619728, 42.80860669], [45.17576075, 42.80838854], [45.17516095, 42.80858668], [45.17429419, 42.80854567], [45.17363122, 42.80786499], [45.17259287, 42.80742935], [45.17220663, 42.8075026], [45.17124894, 42.80734956], [45.17055563, 42.80681821], [45.17043674, 42.80586362], [45.16992825, 42.80562576], [45.16982957, 42.80509689], [45.16936652, 42.80478283], [45.16887318, 42.80497359], [45.16824861, 42.80469575], [45.16742312, 42.80391602], [45.16616427, 42.80386261], [45.16601078, 42.80361928], [45.16434125, 42.80298681], [45.16307562, 42.80266257], [45.16238961, 42.80232291], [45.16171889, 42.80170623], [45.16110773, 42.80140076], [45.1601846, 42.80134257], [45.15881779, 42.80141015], [45.15750824, 42.80067268], [45.1568881, 42.80068698], [45.15605465, 42.80049455], [45.15532659, 42.7999032], [45.15394782, 42.79917278], [45.15339551, 42.79909857], [45.15190912, 42.79943975], [45.15104804, 42.79987847], [45.14889002, 42.80030759], [45.14658125, 42.80028705], [45.14579153, 42.79978467], [45.14481688, 42.79946367], [45.1435753, 42.79938582], [45.14299214, 42.79910306], [45.14243508, 42.79903554], [45.14228389, 42.79877173], [45.14165512, 42.79875801], [45.1405686, 42.79979118], [45.13869791, 42.80008297], [45.13597878, 42.80034399], [45.13570031, 42.79988952], [45.13507049, 42.79944242], [45.13399442, 42.79936278], [45.13307543, 42.79893737], [45.13283821, 42.79926288], [45.1324293, 42.7993139], [45.13167933, 42.80079026], [45.13133109, 42.80193379], [45.13134201, 42.80305599], [45.13169586, 42.80410021], [45.13093919, 42.805094], [45.13006746, 42.80536267], [45.12980729, 42.80567819], [45.12975834, 42.80647184], [45.1300126, 42.80722443], [45.12996372, 42.80807437], [45.12955061, 42.80883521], [45.12879133, 42.80924179], [45.12806, 42.81008268], [45.12703586, 42.81055608], [45.12656357, 42.81107128], [45.12682359, 42.81150394], [45.12809703, 42.81240634], [45.12885197, 42.81349316], [45.1286723, 42.81613465], [45.12810335, 42.81677158], [45.12791529, 42.81726733], [45.12735406, 42.81724368], [45.12645543, 42.81659472], [45.12615939, 42.81565651], [45.125514, 42.81534703], [45.12472621, 42.81589618], [45.1249784, 42.81634048], [45.12378629, 42.81650363], [45.12438473, 42.81686454], [45.12434741, 42.81703678], [45.12326973, 42.8167816], [45.12295361, 42.81648378], [45.12209198, 42.81650361], [45.12146435, 42.81701326], [45.12018715, 42.81746314], [45.11947611, 42.81787745], [45.11845447, 42.81898637], [45.11763233, 42.81909861], [45.1184309, 42.82023605], [45.11795337, 42.82038563], [45.11604256, 42.8197562], [45.1143627, 42.81965786], [45.11306114, 42.81981198], [45.11220541, 42.81912128], [45.11141621, 42.8182937], [45.11104195, 42.81724769], [45.11047183, 42.81720505], [45.11010643, 42.81784248], [45.10993183, 42.81753235], [45.10923812, 42.81774757], [45.10940354, 42.81705124], [45.10917102, 42.81654642], [45.10657232, 42.81403808], [45.10584135, 42.81313212], [45.10359455, 42.81126299], [45.10292102, 42.81053466], [45.10171307, 42.81022268], [45.10075918, 42.80969842], [45.09994979, 42.80952368], [45.09951696, 42.80913853], [45.09820377, 42.80859038], [45.09739478, 42.80852586], [45.09627727, 42.80826697], [45.09535168, 42.80830554], [45.09517463, 42.80879179], [45.09542076, 42.80968694], [45.09544168, 42.81097952], [45.09487871, 42.81236996], [45.09421015, 42.81379162], [45.09415988, 42.81413609], [45.09457449, 42.81514191], [45.09396495, 42.81599938], [45.09241608, 42.81747246], [45.09212311, 42.81818478], [45.09188254, 42.81816145], [45.09158275, 42.817649], [45.09113021, 42.81761233], [45.09005701, 42.81808819], [45.09078722, 42.81842138], [45.09120266, 42.81904994], [45.0905243, 42.82016664], [45.08982656, 42.81987045], [45.08919609, 42.8202055], [45.08972682, 42.82098304], [45.08809507, 42.82182478], [45.08874691, 42.8221878], [45.08806017, 42.82267649], [45.08634969, 42.82348959], [45.08619859, 42.82401057], [45.0866511, 42.82405125], [45.08807933, 42.82372473], [45.0872935, 42.82454517], [45.08632523, 42.82461962], [45.08565557, 42.82508195], [45.08468127, 42.82527888], [45.08389041, 42.82655703], [45.08313865, 42.82726517], [45.08317838, 42.82832466], [45.08266871, 42.82880763], [45.08252596, 42.82921109], [45.08180734, 42.82960541], [45.08078634, 42.82947467], [45.07993071, 42.83005759], [45.07915596, 42.82978181], [45.07859053, 42.82914674], [45.07793306, 42.82896023], [45.07668204, 42.83022856], [45.07614456, 42.83100934], [45.07479646, 42.83171673], [45.07426076, 42.83214975], [45.07381157, 42.83222997], [45.07262691, 42.83202574], [45.0717362, 42.83203073], [45.06918436, 42.83258036], [45.06702216, 42.83220351], [45.06489448, 42.83176419], [45.06328541, 42.83153742], [45.06228342, 42.83152609], [45.06152367, 42.83170751], [45.06122412, 42.83244283], [45.06202538, 42.83343183], [45.06181417, 42.83369004], [45.05988047, 42.83408884], [45.05956359, 42.83425305], [45.05945634, 42.83469718], [45.0580775, 42.83508782], [45.05786512, 42.83561956], [45.05721237, 42.83584666], [45.05633893, 42.83570598], [45.05525641, 42.83499077], [45.05448365, 42.8349096], [45.05318255, 42.83510976], [45.0529993, 42.83496419], [45.05395456, 42.8345798], [45.05490297, 42.83443897], [45.05480037, 42.8342494], [45.05278234, 42.83420298], [45.05157438, 42.83436632], [45.05119487, 42.83454982], [45.05037906, 42.83544001], [45.04983196, 42.8355239], [45.04872905, 42.83426367], [45.04722652, 42.83421578], [45.04671541, 42.83452958], [45.04633128, 42.83519989], [45.04595107, 42.83521423], [45.04558628, 42.8348104], [45.0451221, 42.83464923], [45.04477996, 42.8341111], [45.04353571, 42.8334282], [45.04250822, 42.83241038], [45.04133888, 42.83194479], [45.04052213, 42.83181736], [45.03875133, 42.83209534], [45.03814226, 42.83253538], [45.03802379, 42.83284439], [45.03825213, 42.83375926], [45.03789528, 42.83463211], [45.03721364, 42.83518009], [45.03642233, 42.83522059], [45.03545764, 42.83553389], [45.03497841, 42.83634407], [45.0344627, 42.83630741], [45.03386609, 42.83558992], [45.03305985, 42.83564226], [45.03227193, 42.83539419], [45.03124497, 42.83547532], [45.03072754, 42.83568738], [45.02959559, 42.83592235], [45.02919147, 42.8356562], [45.02919014, 42.83513476], [45.02859232, 42.83427532], [45.02879514, 42.83382818], [45.02865541, 42.83311979], [45.0281652, 42.83217958], [45.02735288, 42.8318873], [45.02594236, 42.83190056], [45.025184, 42.83237864], [45.02439124, 42.83232412], [45.02338988, 42.83242255], [45.02236796, 42.83177791], [45.02117339, 42.83193293], [45.02059292, 42.83189699], [45.01998316, 42.83212407], [45.01900696, 42.8319451], [45.01764818, 42.83193926], [45.01675644, 42.83216963], [45.01566719, 42.83264186], [45.01498294, 42.83216598], [45.01321494, 42.83194307], [45.01163478, 42.83133266], [45.01070041, 42.83113466], [45.01026956, 42.83140644], [45.01098997, 42.83148532], [45.01179429, 42.83202895], [45.01191507, 42.832749], [45.01159525, 42.83296783], [45.01087681, 42.83280042], [45.00922666, 42.83265289], [45.00876812, 42.83252803], [45.00735515, 42.83244125], [45.00668904, 42.83224244], [45.00548111, 42.83158419], [45.00372555, 42.83076573], [45.00262996, 42.82995519], [45.00149101, 42.82934131], [45.00004646, 42.82934359], [44.99806213, 42.82893059], [44.99615549, 42.82828989], [44.99573095, 42.82803903], [44.9937793, 42.82770611], [44.99231447, 42.8273042], [44.99167214, 42.8272667], [44.99121776, 42.82667506]]}, "properties": {"name": "Track"}}]}