{"type": "FeatureCollection", "features": [{"type": "Feature", "geometry": {"type": "LineString", "coordinates": [[41.370178, 43.66068166], [41.37013498, 43.66062776], [41.37004165, 43.6606081], [41.36994501, 43.66051679], [41.36992302, 43.66051347], [41.36986636, 43.66048981], [41.36971778, 43.66048616], [41.36962845, 43.66042516], [41.36953718, 43.66041248], [41.36794018, 43.65986015], [41.36792587, 43.65984584], [41.36339467, 43.65840292], [41.35342678, 43.64501223], [41.35316838, 43.64474882], [41.35242096, 43.64387365], [41.35233733, 43.64381838], [41.35218977, 43.64363985], [41.35203289, 43.64342464], [41.35188398, 43.64324608], [41.35184899, 43.64322943], [41.35174931, 43.64309554], [41.3515287, 43.64228377], [41.35154969, 43.64227811], [41.35146277, 43.64232008], [41.35146244, 43.64232941], [41.35144478, 43.64232409], [41.35067333, 43.64201595], [41.35065133, 43.64201861], [41.35062834, 43.64201661], [41.35061734, 43.64202294], [41.35061334, 43.64203427], [41.35056767, 43.64208591], [41.35055135, 43.64206592], [41.35054935, 43.64203759], [41.35053403, 43.6419836], [41.35047077, 43.6418584], [41.35035551, 43.64180515], [41.35035418, 43.64173282], [41.35030952, 43.64169416], [41.35018855, 43.64167085], [41.35017356, 43.64165886], [41.35012191, 43.64162521], [41.35010425, 43.64160888], [41.35008759, 43.64159655], [41.35007093, 43.64158756], [41.34948678, 43.64132146], [41.34925253, 43.64119053], [41.34780112, 43.64045903], [41.34779213, 43.64044104], [41.34771015, 43.64042573], [41.34750192, 43.64028649], [41.34714308, 43.64006365], [41.34711343, 43.64001133], [41.34710444, 43.64000234], [41.34709678, 43.63999001], [41.34710077, 43.63989839], [41.34702982, 43.63978211], [41.34702217, 43.63971114], [41.34696587, 43.63964318], [41.34613302, 43.63879762], [41.34546598, 43.63826561], [41.34408127, 43.63721307], [41.34373545, 43.63696024], [41.33693287, 43.63252946], [41.33315193, 43.63363354], [41.33303929, 43.63366616], [41.33256515, 43.63393962], [41.33137084, 43.63439069], [41.33119396, 43.63413614], [41.33082407, 43.63413974], [41.32930499, 43.6341624], [41.31807594, 43.62601856], [41.3180293, 43.62598325], [41.3173838, 43.62434845], [41.31536794, 43.62275408], [41.31396703, 43.62220718], [41.31349227, 43.62166141], [41.31294241, 43.6215489], [41.31071313, 43.62072392], [41.31024705, 43.62064515], [41.30962291, 43.62064913], [41.30808492, 43.61911916], [41.30824357, 43.61779596], [41.30896871, 43.61702017], [41.30859568, 43.61674209], [41.30683232, 43.61319011], [41.30542875, 43.61108749], [41.30561901, 43.61103513], [41.30560968, 43.6110238], [41.30558069, 43.61100447], [41.30443626, 43.61000142], [41.29805713, 43.5998393], [41.29056887, 43.59761472], [41.29061165, 43.59762429], [41.28944617, 43.59794215], [41.28912992, 43.59790289], [41.28876938, 43.59796187], [41.28875505, 43.59795421], [41.28817445, 43.5970011], [41.28854071, 43.59594311], [41.28852805, 43.59594278], [41.28817331, 43.59559964], [41.28727583, 43.59537416], [41.28720552, 43.59531785], [41.28637779, 43.59512444], [41.2863578, 43.59510679], [41.28635247, 43.59509579], [41.28606747, 43.59393571], [41.28605614, 43.59392972], [41.2858685, 43.59328044], [41.28657485, 43.59174131], [41.28664849, 43.59166101], [41.28666013, 43.59148944], [41.28659619, 43.59103498], [41.28418978, 43.59179431], [41.28387288, 43.59186193], [41.28211405, 43.59218374], [41.28184214, 43.59208482], [41.28134361, 43.59213906], [41.28116066, 43.59225332], [41.2785229, 43.59387669], [41.27776661, 43.59430568], [41.27728617, 43.59414184], [41.27727718, 43.59413385], [41.27467476, 43.5898767], [41.27468375, 43.5898667], [41.27469574, 43.58985837], [41.27802317, 43.58831103], [41.27791122, 43.5883014], [41.27747866, 43.58403257], [41.27751432, 43.58399625], [41.27755263, 43.58392928], [41.27771641, 43.58344447], [41.2776455, 43.58322387], [41.27756663, 43.58273471], [41.27757229, 43.58270572], [41.27759028, 43.58267806], [41.27760294, 43.58266673], [41.27761927, 43.58264473], [41.27783081, 43.58232584], [41.27784347, 43.58231351], [41.2779917, 43.58205261], [41.27835768, 43.58122263], [41.27836865, 43.58114733], [41.2784506, 43.58097472], [41.27844927, 43.58096573], [41.27844294, 43.58096007], [41.27843228, 43.58095941], [41.27838329, 43.58097506], [41.27833164, 43.58099971], [41.27824299, 43.58105134], [41.27794174, 43.58125357], [41.27789009, 43.58126855], [41.27782444, 43.58127021], [41.27735585, 43.58135577], [41.27657647, 43.58176217], [41.27620109, 43.58255658], [41.27581012, 43.58257737], [41.27580479, 43.58256804], [41.27580346, 43.58253372], [41.2757998, 43.58252406], [41.27573982, 43.58249475], [41.27578065, 43.57962629], [41.27596308, 43.57881919], [41.27599703, 43.57864627], [41.27612772, 43.57777314], [41.27640341, 43.57558823], [41.27619542, 43.57367035], [41.27695678, 43.57230006], [41.27691579, 43.57225974], [41.2769118, 43.57224874], [41.27691979, 43.57218076], [41.27703211, 43.57187259], [41.27703743, 43.57175868], [41.27703277, 43.57174602], [41.27702311, 43.57173736], [41.27701112, 43.57173203], [41.276484, 43.57156587], [41.27646667, 43.57156587], [41.27616235, 43.56919681], [41.27616102, 43.56918481], [41.27564556, 43.56886202], [41.27565122, 43.56885102], [41.27707317, 43.5675127], [41.2771177, 43.5672738], [41.27710337, 43.56727946], [41.27708671, 43.56728212], [41.27703073, 43.56727713], [41.27431725, 43.5662961], [41.27431092, 43.56628444], [41.27430626, 43.56625745], [41.27430859, 43.56624345], [41.27431558, 43.56622946], [41.27458217, 43.56606288], [41.27484798, 43.56564646]]}, "properties": {"name": "Track"}}]}