{"type":"FeatureCollection", "features": [
{"type":"Feature","geometry":{"type":"LineString","coordinates":[[46.70173033,42.40995633],[46.70108645,42.40993912],[46.69974212,42.40911191],[46.6986667,42.40892247],[46.69786062,42.40845111],[46.69811061,42.4077033],[46.69766796,42.40631303],[46.69718593,42.40568929],[46.69749993,42.40502334],[46.69706084,42.40429605],[46.69718225,42.40376606],[46.69704513,42.4033716],[46.69721093,42.40277835],[46.69790218,42.40240025],[46.69787005,42.40175109],[46.69754112,42.40120016],[46.69765309,42.40017807],[46.69832951,42.39997089],[46.69831189,42.39963669],[46.69887649,42.39900306],[46.69930194,42.3979844],[46.69977266,42.39736986],[46.69936626,42.39677429],[46.69947123,42.39645445],[46.69915742,42.39589559],[46.69871344,42.39609878],[46.69811652,42.39596571],[46.69862826,42.39552973],[46.69888402,42.39507026],[46.69860362,42.39402398],[46.69816227,42.393808],[46.69825066,42.39242416],[46.69789502,42.39173026],[46.69800219,42.39142745],[46.69776766,42.39049965],[46.69718515,42.38956055],[46.69671373,42.38951496],[46.69629101,42.38881649],[46.69576812,42.38760217],[46.69528537,42.3873611],[46.69462464,42.38751024],[46.6939176,42.38739544],[46.69319073,42.38748159],[46.69267473,42.38790688],[46.6916836,42.38784138],[46.69082059,42.38842863],[46.69040286,42.38893473],[46.68919136,42.38834136],[46.68886397,42.38831243],[46.6867299,42.38696362],[46.68575974,42.38689026],[46.68430072,42.38631435],[46.68412821,42.38604116],[46.68318996,42.38606013],[46.68202537,42.38582208],[46.68107774,42.38549423],[46.68107519,42.38456482],[46.68197597,42.38396704],[46.68246958,42.38279405],[46.68159035,42.38297929],[46.68158805,42.38321876],[46.68087817,42.38363731],[46.68045681,42.38420488],[46.67983814,42.38464326],[46.67927938,42.38484636],[46.67855895,42.3856585],[46.6774936,42.38619779],[46.67648512,42.38737594],[46.67582502,42.38748455],[46.67533526,42.38790331],[46.6746552,42.38779618],[46.6746904,42.38850384],[46.67517859,42.38966766],[46.67507614,42.39006583],[46.67377266,42.39101852],[46.67291583,42.39122525],[46.67249309,42.39152769],[46.67125469,42.39170073],[46.67058999,42.3920531],[46.66976102,42.39224048],[46.66896714,42.39288944],[46.66797435,42.39298515],[46.66721159,42.39325818],[46.66631452,42.39335223],[46.66539213,42.39331463],[46.66385395,42.39371453],[46.66245508,42.39390255],[46.66182828,42.3942043],[46.66125487,42.39557004],[46.66067843,42.39599083],[46.65955446,42.39613603],[46.65872073,42.39570538],[46.65799827,42.39568803],[46.65780609,42.39607158],[46.65712742,42.39666122],[46.65521843,42.39704799],[46.65412651,42.39757826],[46.65266767,42.39791014],[46.65202696,42.3982028],[46.65114225,42.39812921],[46.65067331,42.39783143],[46.65025994,42.39875494],[46.64751696,42.40036552],[46.64639566,42.40088879],[46.64627115,42.40120764],[46.64480836,42.40190974],[46.64423088,42.40159396],[46.64378757,42.40252788],[46.64248911,42.4034743],[46.64117561,42.40406686],[46.64020732,42.40488984],[46.63948136,42.40531766],[46.63836008,42.40562784],[46.63706072,42.40693976],[46.63671816,42.40709594],[46.63605131,42.40785952],[46.63498936,42.40841914],[46.63404704,42.40871918],[46.63378816,42.40917604],[46.63281853,42.40979228],[46.63208847,42.4100477],[46.63140485,42.41070836],[46.63077181,42.41037997],[46.62945379,42.40924057],[46.62936763,42.40983201],[46.62949506,42.41046341],[46.62902295,42.41074658],[46.62929472,42.41167915],[46.62830575,42.41230408],[46.62745035,42.41265542],[46.62657127,42.41341457],[46.62651663,42.41380305],[46.62567754,42.41414372],[46.62493943,42.4141281],[46.62334796,42.41442838],[46.62282019,42.41490609],[46.62211946,42.41526211],[46.62203821,42.4155393],[46.62101858,42.41574328],[46.61946242,42.41566979],[46.61872597,42.41576932],[46.61739946,42.41621838],[46.61663942,42.41665173],[46.61569309,42.41668241],[46.61525503,42.41617705],[46.61453865,42.41654012],[46.61284871,42.41702777],[46.61262649,42.41689092],[46.61168682,42.41694554],[46.61117076,42.41734996],[46.60982059,42.41805114],[46.60942812,42.41840991],[46.6086784,42.41876327],[46.60762058,42.41963513],[46.6064867,42.42008759],[46.60310454,42.42065702],[46.60213757,42.42118264],[46.60155462,42.4216337],[46.60104667,42.42142402],[46.60021696,42.42176369],[46.59962303,42.42092916],[46.59895821,42.42103069],[46.59664186,42.42234405],[46.59597346,42.42222344],[46.5948785,42.42268164],[46.59406577,42.42287535],[46.59310982,42.42326725],[46.59172228,42.42258031],[46.59085494,42.42288403],[46.59009521,42.42297883],[46.58920753,42.42332315],[46.58890742,42.42269778],[46.58750322,42.42301037],[46.58646021,42.42273139],[46.58441702,42.42377627],[46.58333572,42.42410758],[46.58252547,42.42328541],[46.58193332,42.42297824],[46.58148727,42.42353998],[46.58028938,42.42434415],[46.58026011,42.42485198],[46.58086045,42.42566594],[46.58003588,42.42660818],[46.57950406,42.42657659],[46.5782882,42.42741679],[46.57771373,42.42751458],[46.57729061,42.42781336],[46.57613532,42.42827335],[46.57514663,42.42825364],[46.57524701,42.4291866],[46.57543518,42.42955778],[46.57600851,42.42987963],[46.57492242,42.43082807],[46.57383897,42.43189051],[46.57293869,42.43201779],[46.5726385,42.43176393],[46.572081,42.43196213],[46.57106497,42.43198937],[46.57039417,42.43212516],[46.57025422,42.43271165]]},"properties":{"name":"Track"}}
]}