{"type": "FeatureCollection", "features": [{"type": "Feature", "geometry": {"type": "LineString", "coordinates": [[44.22288733, 42.84531266], [44.22286998, 42.84588023], [44.22373575, 42.84616186], [44.2244089, 42.84680297], [44.22432136, 42.84774784], [44.22514486, 42.84852334], [44.22502982, 42.84922184], [44.22528809, 42.84980005], [44.22539879, 42.85106985], [44.22477718, 42.85180381], [44.22485024, 42.85257908], [44.22433258, 42.85406561], [44.22451257, 42.85459148], [44.22392591, 42.85477878], [44.22273455, 42.85549252], [44.22234574, 42.85588435], [44.22267608, 42.85611897], [44.22234512, 42.85654758], [44.22155691, 42.85680078], [44.22077609, 42.85675444], [44.2201942, 42.85636846], [44.21997952, 42.85571395], [44.2199545, 42.85485727], [44.21961972, 42.85465119], [44.2212677, 42.85451785], [44.22169322, 42.85437683], [44.22143555, 42.85401555], [44.22194583, 42.85387212], [44.2218083, 42.8534708], [44.22309981, 42.85309433], [44.22357768, 42.85389127], [44.2243223, 42.85420138], [44.22448547, 42.8546028], [44.22394036, 42.85476859], [44.22343774, 42.85516353], [44.2225055, 42.85564671], [44.22188019, 42.85545207], [44.22140561, 42.85489825], [44.22132015, 42.8544754], [44.21850592, 42.85478437], [44.21792773, 42.85501429], [44.21707791, 42.85508467], [44.21581425, 42.85497264], [44.2149521, 42.85518758], [44.21502232, 42.85499443], [44.21649694, 42.85500971], [44.21697098, 42.85541742], [44.21693237, 42.85590178], [44.21772457, 42.85628216], [44.21820803, 42.8569329], [44.21838678, 42.85756582], [44.21834086, 42.85831989], [44.21871501, 42.85897476], [44.21841709, 42.85950202], [44.21804119, 42.85951731], [44.21772696, 42.86014725], [44.21704954, 42.86042552], [44.21747367, 42.86099171], [44.21641304, 42.86154046], [44.21577288, 42.862063], [44.21542224, 42.86182927], [44.2144383, 42.86218675], [44.21298438, 42.86223749], [44.21150655, 42.86180764], [44.21104622, 42.86140892], [44.21093665, 42.86077986], [44.2105869, 42.86078222], [44.20920517, 42.86145452], [44.20855358, 42.86187015], [44.20727233, 42.86212134], [44.2059149, 42.8620005], [44.20488993, 42.8620111], [44.2039404, 42.86221863], [44.20350887, 42.862855], [44.20316581, 42.86296346], [44.20268478, 42.86351237], [44.20130551, 42.86422132], [44.1996772, 42.86484052], [44.19964375, 42.86502722], [44.19891414, 42.86514316], [44.19870893, 42.86496658], [44.19791383, 42.86537605], [44.19903197, 42.86577072], [44.19974897, 42.86632366], [44.20054615, 42.86724539], [44.20118286, 42.8676644], [44.20129242, 42.86802549], [44.20196748, 42.86842681], [44.20192713, 42.86881595], [44.20104881, 42.8693604], [44.20100466, 42.87022134], [44.20081812, 42.87040094], [44.20061317, 42.87177354], [44.2001116, 42.87222314], [44.19925171, 42.87246447], [44.199659, 42.87301426], [44.19979942, 42.87350322], [44.19864533, 42.87316438], [44.19798327, 42.87308811], [44.19752592, 42.87230216], [44.19674249, 42.87219235], [44.19642032, 42.87248111], [44.19549388, 42.87192998], [44.19510769, 42.87210553], [44.19559146, 42.87315097], [44.19638764, 42.87374421], [44.19639026, 42.87398808], [44.19529477, 42.87399647], [44.19406363, 42.87360832], [44.19429605, 42.87413327], [44.1931875, 42.8743603], [44.19209552, 42.87387887], [44.19062087, 42.87334138], [44.19001905, 42.87320946], [44.18984712, 42.87264406], [44.18888048, 42.87242269], [44.18833649, 42.87199845], [44.18632492, 42.87158068], [44.18568987, 42.87158331], [44.18480753, 42.87137986], [44.18347776, 42.87212621], [44.18226649, 42.87217742], [44.18086585, 42.87326732], [44.17975755, 42.8734537], [44.17911342, 42.87317291], [44.17825538, 42.8734486], [44.17765661, 42.87334345], [44.17729244, 42.87367058], [44.1772215, 42.87408675], [44.17625831, 42.87474494], [44.17632552, 42.87520439], [44.17607409, 42.87578843], [44.17574025, 42.8760846], [44.17549219, 42.87682607], [44.17484775, 42.87715146], [44.17479418, 42.8777412], [44.17438968, 42.87809335], [44.17417141, 42.87908356], [44.17373362, 42.87942828], [44.17283282, 42.8804891], [44.17273642, 42.88156691], [44.17296453, 42.88214067], [44.17226722, 42.88252028], [44.17234182, 42.88285879], [44.17171201, 42.88266056], [44.17090458, 42.88288998], [44.17124576, 42.88236791], [44.17075007, 42.88192188], [44.17032125, 42.88183966], [44.1707142, 42.88089744], [44.17027902, 42.88080109], [44.16928419, 42.88130458], [44.16879217, 42.88174393], [44.16835334, 42.88129023], [44.16771134, 42.88189255], [44.16800786, 42.88232632], [44.16750142, 42.88219208], [44.16784796, 42.88361641], [44.16743847, 42.88387322], [44.16739477, 42.88359818], [44.1666637, 42.88328977], [44.16640645, 42.88353042], [44.16606185, 42.88440802], [44.16633562, 42.88506006], [44.16719307, 42.886068], [44.16731886, 42.88646431], [44.16669804, 42.88648859], [44.16613532, 42.88588921], [44.16645222, 42.88756215], [44.16605942, 42.88793862], [44.16658819, 42.88931935], [44.16728266, 42.89042011], [44.16732261, 42.89077462], [44.16673708, 42.89106257], [44.16654419, 42.89151681], [44.16620452, 42.89085937], [44.16590958, 42.88998726], [44.16515565, 42.88951311], [44.16441739, 42.8884698], [44.16398489, 42.88828832], [44.16371508, 42.88787431], [44.16236372, 42.88706837], [44.16211876, 42.88652779], [44.16148626, 42.88580636], [44.16092728, 42.88539469], [44.16055404, 42.88463679], [44.15982119, 42.88392138], [44.15899662, 42.88363818], [44.15864262, 42.8830929], [44.15675057, 42.88281738], [44.15686011, 42.88306392], [44.15773698, 42.88370867], [44.15762834, 42.88387055], [44.15675352, 42.88353763], [44.15673818, 42.88410847], [44.15550158, 42.88329321], [44.15408336, 42.88296558], [44.15167703, 42.88195251], [44.1505176, 42.88187318], [44.14900792, 42.88107315], [44.14811935, 42.88096454], [44.14804442, 42.88111009]]}, "properties": {"name": "Track"}}]}