{"type": "FeatureCollection", "features": [{"type": "Feature", "geometry": {"type": "LineString", "coordinates": [[39.679553, 43.804306], [39.67583215, 43.80098172], [39.67581915, 43.80098338], [39.67580716, 43.80098937], [39.67567265, 43.80109036], [39.67594098, 43.80130235], [39.67592899, 43.80128736], [39.675909, 43.8012677], [39.67588301, 43.80125804], [39.67580169, 43.80125139], [39.67577769, 43.8012444], [39.67590457, 43.80114618], [39.67591812, 43.80114552], [39.67579404, 43.80111461], [39.67640221, 43.79701114], [39.6764112, 43.79700348], [39.67211576, 43.79869707], [39.67006524, 43.7994732], [39.67429348, 43.79593574], [39.67427215, 43.79550629], [39.67030351, 43.79681143], [39.66875327, 43.79746129], [39.66875129, 43.79745303], [39.66636881, 43.79675131], [39.66584782, 43.7962299], [39.66395524, 43.79751746], [39.66378131, 43.7975554], [39.66237749, 43.79754871], [39.66204728, 43.79759998], [39.66202962, 43.79760131], [39.66039821, 43.79720802], [39.66026625, 43.79713341], [39.6592549, 43.79722321], [39.65886271, 43.79719191], [39.6632335, 43.79551062], [39.66162968, 43.79296995], [39.66164903, 43.79299428], [39.66167412, 43.79297479], [39.66144277, 43.7919214], [39.66267236, 43.79164037], [39.66271701, 43.79161405], [39.66301051, 43.79118721], [39.66405817, 43.79028236], [39.66405916, 43.79027036], [39.66516178, 43.79010515], [39.66550966, 43.79008551], [39.6658809, 43.78997429], [39.66589456, 43.78997695], [39.66693621, 43.79099727], [39.66688992, 43.79116385], [39.66662323, 43.79193584], [39.66816956, 43.7929422], [39.67046661, 43.79208784], [39.67062089, 43.79225576], [39.67178133, 43.7912635], [39.67198753, 43.79099128], [39.67214017, 43.79045249], [39.67261433, 43.79046612], [39.67271456, 43.79017025], [39.67273621, 43.79012993], [39.67301345, 43.79012992], [39.67303111, 43.79013025], [39.67371112, 43.78953695], [39.67438156, 43.78949101], [39.67444087, 43.78945636], [39.67454985, 43.78943007], [39.6746075, 43.78939209], [39.67461649, 43.78937843], [39.6746085, 43.78925647], [39.67461416, 43.78923081], [39.67462116, 43.78922015], [39.67573049, 43.78885746], [39.67598875, 43.78874489], [39.67618702, 43.78869129], [39.67649525, 43.78857306], [39.67753625, 43.78825544], [39.67793678, 43.78822018], [39.6780201, 43.78820054], [39.67810009, 43.78816024], [39.6792234, 43.78776164], [39.67923873, 43.78775398], [39.67940834, 43.78761771], [39.67971854, 43.78739153], [39.6797402, 43.78736854], [39.68048231, 43.78713904], [39.68069256, 43.78699444], [39.68070022, 43.78698178], [39.68070487, 43.78694079], [39.68083614, 43.78686356], [39.68129797, 43.78667142], [39.68152156, 43.78658913], [39.68167084, 43.78647319], [39.68169582, 43.78642688], [39.68170715, 43.78641755], [39.68172181, 43.78641056], [39.68208936, 43.78628736], [39.68210602, 43.7862787], [39.68574198, 43.78478357], [39.68943879, 43.78469251], [39.68948544, 43.7846482], [39.68953042, 43.78462455], [39.69062602, 43.7839865], [39.69074394, 43.78377159], [39.69136904, 43.78351648], [39.69137238, 43.78331357], [39.69156698, 43.78323701], [39.69171857, 43.78310673], [39.69315672, 43.78301919], [39.6936349, 43.78272802], [39.69365922, 43.78270636], [39.69470351, 43.78224538], [39.69500872, 43.78204318], [39.69502305, 43.78203318], [39.69505537, 43.7820032], [39.69591506, 43.7819612], [39.69605002, 43.78192357], [39.69610433, 43.78191959], [39.69654951, 43.7817054], [39.69719697, 43.78182295], [39.6976815, 43.78201681], [39.69769883, 43.78202081], [39.69806104, 43.78208105], [39.69899422, 43.78159249], [39.6992858, 43.7815109], [39.69931079, 43.78148158], [39.69934511, 43.78146526], [39.69976661, 43.78129273], [39.70045823, 43.78136215], [39.7007968, 43.78115526], [39.70122964, 43.78084146], [39.70179544, 43.78053467], [39.7019644, 43.78051637], [39.7025459, 43.78073018], [39.70288945, 43.78087806], [39.70313839, 43.78093198], [39.70324302, 43.78096495], [39.70336799, 43.78097227], [39.70350262, 43.78092999], [39.70365451, 43.78069046], [39.70440337, 43.77945222], [39.70472254, 43.77920871], [39.70640272, 43.77519296], [39.70469428, 43.77517553], [39.70452533, 43.77522048], [39.70392374, 43.77554414], [39.70394395, 43.77555494], [39.70380987, 43.774696], [39.70556464, 43.77406146], [39.70595616, 43.77418928], [39.70628204, 43.77424121], [39.70755832, 43.77418291], [39.70842631, 43.77456024], [39.70876818, 43.7745356], [39.70882751, 43.77451296], [39.70899881, 43.77451264], [39.70901414, 43.77451697], [39.70961452, 43.77497403], [39.70962752, 43.77497902], [39.70985356, 43.7735182], [39.70983638, 43.77353141], [39.70999304, 43.77351354], [39.70999804, 43.77349471], [39.71078262, 43.77247159], [39.71071967, 43.77240764], [39.71319138, 43.77188454], [39.71425497, 43.77167411], [39.71221575, 43.77082991], [39.71177991, 43.77016325], [39.71059161, 43.77003954], [39.70980987, 43.77004952], [39.71043435, 43.76962403], [39.71185589, 43.7693671], [39.71187588, 43.76936544], [39.71233642, 43.76918427], [39.71310787, 43.76917824], [39.71320285, 43.76914627], [39.71321451, 43.76913594], [39.7132245, 43.76912328], [39.71323016, 43.76910995], [39.71323249, 43.76909595], [39.71322983, 43.76908362], [39.71313521, 43.76901266], [39.71310321, 43.76900333], [39.71123917, 43.7684313], [39.71099293, 43.76845558], [39.71093961, 43.76844093], [39.71092695, 43.76843994], [39.7108703, 43.76845725], [39.71062237, 43.76844226], [39.71058838, 43.76844525], [39.71037345, 43.76853451], [39.71035612, 43.76853884], [39.7102385, 43.76851453], [39.71021551, 43.76849354], [39.71054807, 43.76820439], [39.70810591, 43.7656732], [39.70801899, 43.76552092], [39.70669542, 43.76481693], [39.70437363, 43.76382582], [39.70393346, 43.76371864], [39.70333828, 43.76377251], [39.70254657, 43.76267758], [39.70247825, 43.76263628], [39.70244393, 43.76262396], [39.70210071, 43.76240311], [39.70128064, 43.7619797], [39.70092053, 43.76145087], [39.7001138, 43.76160615], [39.70009847, 43.76161115], [39.70008414, 43.76161281], [39.70007014, 43.76161115], [39.69821262, 43.75968314], [39.69836557, 43.75955018], [39.69742885, 43.75803084], [39.6967479, 43.75727485], [39.69673491, 43.75726819], [39.69480331, 43.754817], [39.69349648, 43.75061965], [39.68874943, 43.74332249], [39.68829743, 43.74244929], [39.68829677, 43.74243996], [39.6883011, 43.74243097], [39.68830976, 43.74242397], [39.69059961, 43.7449662], [39.6994527, 43.74628539], [39.70301822, 43.74475492], [39.70546144, 43.743247], [39.70668325, 43.7432444], [39.7071751, 43.74313122], [39.70809354, 43.74229924], [39.70903365, 43.73946931], [39.7055447, 43.73454698], [39.70448136, 43.73625086], [39.70308274, 43.7347182], [39.70299189, 43.73228382], [39.70365295, 43.73177343], [39.70365561, 43.73176144], [39.70343745, 43.73122331], [39.70360101, 43.73103305], [39.70360838, 43.73008573], [39.70361704, 43.7300744], [39.70362537, 43.73004841], [39.70259411, 43.72959311], [39.70282001, 43.72939521], [39.70362235, 43.72873423], [39.70417313, 43.72833386], [39.70306239, 43.72708475], [39.70274753, 43.72682521], [39.70273762, 43.72642215], [39.70269832, 43.72633719], [39.70145587, 43.72551003], [39.70143023, 43.72537808], [39.70148585, 43.72522914], [39.70147852, 43.72521715], [39.70146752, 43.72520649], [39.70105068, 43.72491696], [39.70105801, 43.72464908], [39.70098438, 43.72460878], [39.70095306, 43.72461144], [39.70091974, 43.7246221], [39.70040989, 43.72451447], [39.69939988, 43.72484484], [39.69836181, 43.72484687], [39.69665539, 43.72504925], [39.69663573, 43.72504659], [39.69468974, 43.72497524], [39.69467542, 43.72494259], [39.6910801, 43.71657971], [39.69108143, 43.71657005], [39.69104313, 43.71650541], [39.69038861, 43.71546191], [39.69038295, 43.71538496], [39.68967158, 43.7135618], [39.68897273, 43.71232276], [39.68914528, 43.71219658], [39.68915791, 43.71220768], [39.68915587, 43.71220935], [39.68914859, 43.71228127], [39.6891426, 43.7123196], [39.68918354, 43.71236994], [39.68918019, 43.71238458], [39.68910086, 43.71231959], [39.68909388, 43.71229293], [39.68909787, 43.71228294], [39.68796934, 43.71154569], [39.6907069, 43.70929583], [39.69070225, 43.70926884], [39.69011921, 43.7087148], [39.69010422, 43.70869481], [39.69009322, 43.70868715], [39.68905665, 43.70840575], [39.68896799, 43.70843669]]}, "properties": {"name": "Track"}}]}