{"type": "FeatureCollection", "features": [{"type": "Feature", "geometry": {"type": "LineString", "coordinates": [[42.43509533, 43.421936], [42.43437554, 43.42151483], [42.43433561, 43.42127267], [42.43379391, 43.42091561], [42.43335076, 43.4209363], [42.43285737, 43.42054863], [42.43213377, 43.42033738], [42.43196213, 43.41985298], [42.43122442, 43.41927907], [42.43007005, 43.4188901], [42.4297543, 43.41821549], [42.42925431, 43.41785944], [42.42924705, 43.41726094], [42.42857676, 43.41603934], [42.42797385, 43.41561985], [42.42682286, 43.41531662], [42.42584715, 43.41483328], [42.42584179, 43.41454473], [42.42424586, 43.4132177], [42.42332767, 43.41199852], [42.42268469, 43.41166141], [42.4230986, 43.41090353], [42.42340388, 43.41002386], [42.42419745, 43.40933788], [42.42421172, 43.40904826], [42.42369539, 43.40816398], [42.42332823, 43.4072119], [42.42265724, 43.40675845], [42.42189236, 43.40583151], [42.42132162, 43.40534353], [42.42069592, 43.40450549], [42.42046658, 43.40365625], [42.4198379, 43.40321243], [42.41942467, 43.40270053], [42.41849402, 43.40192718], [42.41711964, 43.39999912], [42.41552654, 43.39816134], [42.4141198, 43.39680993], [42.41340347, 43.39622365], [42.41263679, 43.39574504], [42.41134491, 43.39510093], [42.40937531, 43.39398067], [42.40819118, 43.39353357], [42.40627974, 43.39317319], [42.40475255, 43.39328385], [42.40417868, 43.393026], [42.4029551, 43.39208331], [42.40136035, 43.39276003], [42.40026566, 43.39292939], [42.39906073, 43.39273839], [42.39788023, 43.39295236], [42.39682334, 43.39367187], [42.39607645, 43.39438763], [42.39414754, 43.39516017], [42.39355943, 43.39582846], [42.39270774, 43.39648413], [42.39154915, 43.39722475], [42.39095836, 43.3974253], [42.39045128, 43.39732242], [42.38940197, 43.39746532], [42.38815648, 43.39774467], [42.38682203, 43.39819622], [42.38640722, 43.39805178], [42.38574628, 43.39814042], [42.38546317, 43.39837029], [42.38399375, 43.39868106], [42.38310271, 43.39900711], [42.3829171, 43.39894248], [42.3814189, 43.39947036], [42.38073173, 43.39941244], [42.37950678, 43.39984601], [42.37932853, 43.40005291], [42.37823653, 43.39996473], [42.37758204, 43.40001592], [42.37603324, 43.39982211], [42.37487825, 43.39978026], [42.37416858, 43.39998152], [42.37290134, 43.39975816], [42.37262057, 43.40010862], [42.3717783, 43.40001054], [42.3705195, 43.40038608], [42.37003607, 43.40080918], [42.36923331, 43.40119088], [42.3681777, 43.40146027], [42.36782856, 43.4009395], [42.36725911, 43.40065873], [42.36679191, 43.4008089], [42.36568698, 43.40085345], [42.36497195, 43.40118838], [42.36333303, 43.40070611], [42.36245095, 43.40069712], [42.36158589, 43.40093853], [42.36085696, 43.40100731], [42.36079542, 43.40134769], [42.3601483, 43.4013374], [42.35971885, 43.40111165], [42.35856656, 43.40124738], [42.3572064, 43.40172856], [42.35667598, 43.40224268], [42.35616814, 43.4025012], [42.35552966, 43.40261235], [42.35449938, 43.40337997], [42.3534651, 43.40390288], [42.3528381, 43.40458591], [42.35195686, 43.40522883], [42.3512255, 43.40597548], [42.35020978, 43.40645451], [42.34909812, 43.40713552], [42.34863958, 43.40723507], [42.34771956, 43.40773246], [42.34593583, 43.40846954], [42.34465458, 43.40820364], [42.3428795, 43.40922743], [42.34222917, 43.41004616], [42.34212193, 43.41066759], [42.34187576, 43.41101612], [42.3411153, 43.41139622], [42.33983137, 43.41230142], [42.33806162, 43.4132382], [42.3361592, 43.41371493], [42.33403683, 43.41394318], [42.33274688, 43.41425484], [42.33098618, 43.41527285], [42.3296216, 43.4157138], [42.32787677, 43.41599804], [42.32657981, 43.41648502], [42.32456738, 43.41686909], [42.32233503, 43.41718124], [42.32119539, 43.41750089], [42.32097749, 43.41739533], [42.31956465, 43.41776996], [42.31861651, 43.41779562], [42.31786239, 43.41798606], [42.31530418, 43.41802596], [42.31304323, 43.41761863], [42.31025391, 43.41674004], [42.31000042, 43.41634221], [42.30948857, 43.41600971], [42.30832152, 43.41598271], [42.30714252, 43.41608945], [42.30566201, 43.41634898], [42.30492994, 43.41622854], [42.30383501, 43.41633173], [42.30329153, 43.41618119], [42.29926778, 43.4160305], [42.29887226, 43.41595857], [42.29769861, 43.41610008], [42.29670994, 43.41646178], [42.29612778, 43.41653029], [42.29462458, 43.41694118], [42.29332558, 43.4171505], [42.29187633, 43.41708006], [42.29108623, 43.41712564], [42.29045819, 43.41754108], [42.28935505, 43.41682587], [42.28808444, 43.41653398], [42.28730267, 43.41661739], [42.28570478, 43.41702431], [42.28409157, 43.41720957], [42.28281298, 43.41706706], [42.28187756, 43.41717659], [42.28152371, 43.4174801], [42.28036339, 43.41750444], [42.27881683, 43.41793068], [42.27826337, 43.41838781], [42.27797856, 43.41885334], [42.27739076, 43.41921517], [42.27681895, 43.41928338], [42.27563199, 43.41968967], [42.27479695, 43.41969499], [42.27336395, 43.41991629], [42.27279346, 43.41977331], [42.2736295, 43.41953911], [42.27347659, 43.41922499], [42.27269452, 43.4192952], [42.27215339, 43.41949802], [42.27126665, 43.41927821], [42.26986096, 43.41947956], [42.26871767, 43.4199712], [42.26697151, 43.42001911], [42.26673657, 43.42011037], [42.2656462, 43.42003484], [42.26504905, 43.42022497], [42.26424229, 43.42024061], [42.26277138, 43.41996406], [42.26160338, 43.41999504], [42.26045202, 43.42025268], [42.25915112, 43.41999467], [42.25752259, 43.42066651], [42.25694583, 43.42118694], [42.2562227, 43.42136912], [42.25555958, 43.42116095], [42.25457158, 43.42147195], [42.25340428, 43.42172764], [42.25297782, 43.42209778], [42.25212808, 43.42219589], [42.25128966, 43.4224996], [42.2511201, 43.4227195], [42.25002173, 43.42290228], [42.2496615, 43.42283238], [42.24869576, 43.4230151], [42.24783971, 43.42294423], [42.24717361, 43.42320138], [42.24604829, 43.42336445], [42.24414315, 43.42331594], [42.24351637, 43.4234601], [42.24269156, 43.42338752], [42.24203211, 43.42307872], [42.24117904, 43.42289961], [42.24057793, 43.42263814], [42.23981113, 43.42261388], [42.23907036, 43.42236145], [42.23766177, 43.42254562], [42.23688239, 43.42239843], [42.23651015, 43.42198469], [42.23520953, 43.42184982], [42.23409222, 43.4209909], [42.23303985, 43.42087602], [42.232647, 43.42066879], [42.23197652, 43.42074006], [42.23095051, 43.42122708], [42.2295313, 43.42113626], [42.22896686, 43.4208008], [42.22857902, 43.42083567], [42.2271654, 43.42067992], [42.22519067, 43.42094786], [42.22480115, 43.42091888], [42.22439731, 43.42118106], [42.22350927, 43.42090328], [42.22265182, 43.42101944], [42.22058887, 43.42018448], [42.21921555, 43.42012724], [42.21806583, 43.41984824], [42.21672857, 43.41935126], [42.21594017, 43.41875162], [42.21487678, 43.41868074], [42.21399708, 43.41832405], [42.21346754, 43.41843859], [42.21234253, 43.41835273], [42.21106924, 43.4185345], [42.21067202, 43.41850292], [42.20958233, 43.4180956], [42.20845265, 43.41813921], [42.20793329, 43.41876593], [42.20785825, 43.41932066], [42.20716182, 43.41982783], [42.20593519, 43.42014945], [42.20546132, 43.42016702], [42.20437202, 43.42073001], [42.20377153, 43.42092548], [42.203496, 43.421307], [42.20285961, 43.42169345], [42.20165634, 43.42224969], [42.19965961, 43.42266587], [42.19857831, 43.42329544], [42.19822816, 43.42318792], [42.1976826, 43.42337742], [42.19694354, 43.42342568], [42.19619714, 43.4238787], [42.19483992, 43.42441657], [42.19442543, 43.42474407], [42.1933614, 43.42479792], [42.19198753, 43.42532022], [42.19126519, 43.42589693], [42.19050473, 43.42590492], [42.18919854, 43.42644344], [42.18854879, 43.42679781], [42.18625652, 43.42739179], [42.18552246, 43.42736913], [42.18460373, 43.42750966], [42.18409456, 43.42774916], [42.18290991, 43.42788031], [42.18226345, 43.42748353], [42.1812528, 43.4277319], [42.18016546, 43.4275651], [42.17931974, 43.42766225], [42.17794151, 43.42728766], [42.17678853, 43.42731892], [42.17554954, 43.4271865], [42.17470542, 43.42721015], [42.17387432, 43.4274446], [42.17309053, 43.42735711], [42.17184729, 43.42764743], [42.17101654, 43.42742668], [42.16981093, 43.42758053], [42.1684577, 43.42750208], [42.16789793, 43.42762959], [42.16764898, 43.42810938], [42.16638637, 43.42837166], [42.16553533, 43.4286777], [42.16393318, 43.42897391], [42.16271557, 43.42904943], [42.16130299, 43.42881283], [42.16022069, 43.4281742], [42.15941092, 43.42810697], [42.15841561, 43.42778955], [42.15774481, 43.42792806], [42.15687007, 43.42752932], [42.15637606, 43.42681731], [42.15541072, 43.42649361], [42.15501122, 43.42619442], [42.1553759, 43.42560336], [42.15752994, 43.42458845], [42.15753857, 43.42439927], [42.15663191, 43.42367198], [42.15560282, 43.4223885], [42.15555127, 43.42194031], [42.15704955, 43.42049867], [42.15937147, 43.42000771], [42.1605471, 43.41925049]]}, "properties": {"name": "Track"}}]}