{"type":"FeatureCollection", "features": [
{"type":"Feature","geometry":{"type":"LineString","coordinates":[[39.89347866,43.93056933],[39.89349939,43.93086027],[39.89267536,43.93111196],[39.89136907,43.93123087],[39.89064157,43.9319632],[39.88879883,43.93305705],[39.88824219,43.93297518],[39.8866985,43.93363705],[39.88626828,43.93441366],[39.88532968,43.93443032],[39.88490919,43.93476614],[39.88376631,43.93472425],[39.88297231,43.93415923],[39.88180589,43.93305728],[39.88087523,43.93253433],[39.88040723,43.93180102],[39.87960933,43.93121111],[39.87833909,43.93052994],[39.87638794,43.92992146],[39.87600575,43.92939387],[39.87453423,43.92934487],[39.87309145,43.92949161],[39.87078136,43.92998321],[39.86962665,43.92920983],[39.86938822,43.92852619],[39.86875509,43.92818875],[39.86747587,43.928051],[39.86753239,43.92759104],[39.86619995,43.92701958],[39.86589878,43.92712175],[39.86485679,43.92582532],[39.8635342,43.92496229],[39.8623759,43.9248908],[39.8619388,43.92521264],[39.86029571,43.92500113],[39.8598096,43.92422492],[39.86000601,43.9236292],[39.85950899,43.92319077],[39.85966681,43.92263212],[39.85926504,43.922144],[39.85912421,43.92139099],[39.85851383,43.92088157],[39.85786737,43.92064713],[39.85710082,43.91933892],[39.85682168,43.91858021],[39.85610309,43.91819481],[39.85538757,43.91735492],[39.85474419,43.91705619],[39.85305482,43.91688441],[39.85204378,43.9172576],[39.85133972,43.91702738],[39.84983832,43.91694354],[39.8485362,43.91632199],[39.84832272,43.91587439],[39.84666189,43.91496078],[39.84665389,43.9141006],[39.84686102,43.91345767],[39.8466441,43.91243764],[39.84389695,43.91061819],[39.84367041,43.91067247],[39.8425732,43.9099132],[39.84213899,43.90936896],[39.84208379,43.90884437],[39.84153728,43.90807525],[39.84081236,43.90775682],[39.84070397,43.90666873],[39.84085134,43.90511249],[39.84124774,43.90416455],[39.84170244,43.90358614],[39.84093538,43.90223277],[39.83930809,43.90242586],[39.83794232,43.90281777],[39.83610184,43.90217159],[39.83475173,43.90236548],[39.8342286,43.90221366],[39.8328096,43.90121194],[39.83279353,43.90082324],[39.83150679,43.89982796],[39.8307459,43.89996487],[39.82997524,43.90038933],[39.82919851,43.90044461],[39.82866117,43.89999878],[39.82806053,43.89986899],[39.82732725,43.89910837],[39.82671131,43.89914686],[39.82610846,43.89822162],[39.82540674,43.89769127],[39.82530119,43.89622755],[39.8246179,43.89503893],[39.82396735,43.89417038],[39.82209609,43.89210744],[39.82101182,43.89161224],[39.81996775,43.89060445],[39.82020426,43.89005404],[39.82072872,43.88966228],[39.82099439,43.88834853],[39.82089952,43.88784538],[39.82143329,43.88755192],[39.82130294,43.88586655],[39.82139712,43.88510948],[39.82126968,43.88412521],[39.82141552,43.8824629],[39.82121734,43.88113611],[39.82165338,43.88067935],[39.82285201,43.88059151],[39.82484999,43.88105914],[39.82485166,43.88086328],[39.82201185,43.87978685],[39.82005713,43.87929472],[39.81964018,43.87901435],[39.81937188,43.87791347],[39.81881176,43.87734671],[39.81720124,43.87691285],[39.81616226,43.87645548],[39.81561077,43.87638758],[39.81503401,43.8757915],[39.81559577,43.87428272],[39.81555787,43.87362193],[39.81495246,43.87323547],[39.8135839,43.87327204],[39.81229825,43.87314305],[39.81109797,43.87325488],[39.80974473,43.87263507],[39.80844282,43.87245642],[39.80719034,43.87274803],[39.80685146,43.87256085],[39.80493578,43.87240151],[39.80389143,43.87244174],[39.80341926,43.87213791],[39.80131628,43.87169376],[39.80054223,43.87129169],[39.79953622,43.87111335],[39.79783345,43.8714709],[39.79521739,43.87099007],[39.79466063,43.8707073],[39.79399114,43.87068162],[39.79168146,43.87108096],[39.79066144,43.87146162],[39.78970007,43.87125316],[39.78908827,43.87138863],[39.78783469,43.87136664],[39.78728085,43.87119684],[39.78611486,43.87131623],[39.78320311,43.87123463],[39.78213413,43.8710863],[39.77918211,43.87033479],[39.77819548,43.86959417],[39.77722247,43.86930177],[39.77570189,43.86919962],[39.77437733,43.86863007],[39.77447261,43.86775007],[39.7736722,43.86654682],[39.77299325,43.86585787],[39.77282228,43.86526467],[39.772071,43.86419523],[39.77148055,43.86374344],[39.77029391,43.86342572],[39.76968877,43.86289733],[39.76955908,43.86182831],[39.76918053,43.86044283],[39.76848759,43.85998213],[39.76846389,43.85969895],[39.76662202,43.85965062],[39.76594141,43.8587177],[39.76482326,43.85806041],[39.76446246,43.85761193],[39.76581195,43.85642016],[39.76569634,43.85525159],[39.76429149,43.85347809],[39.7647363,43.85263639],[39.76463877,43.85158743],[39.76525324,43.85126165],[39.76663467,43.85006522],[39.76685679,43.84888533],[39.76637228,43.84863181],[39.76675892,43.84777382],[39.76666399,43.84644961],[39.7661729,43.84588319],[39.76595011,43.84478523],[39.76525254,43.8434414],[39.76601426,43.84309808],[39.76576185,43.84266598],[39.76464092,43.84242327],[39.76453009,43.84176086],[39.76408271,43.84105053],[39.76359093,43.84068738],[39.7614093,43.84092512],[39.76089686,43.84029472],[39.76011349,43.83972866],[39.75951982,43.83894764],[39.75787901,43.83838171],[39.75719522,43.8382788],[39.7567796,43.83674798],[39.75536354,43.83565088],[39.75420885,43.83529862],[39.75353075,43.83538044],[39.75218182,43.83586706],[39.75111983,43.83572651],[39.75154525,43.83487619],[39.7505399,43.83447915],[39.74978144,43.83445618],[39.74954399,43.83376243],[39.7486028,43.83270092],[39.74745595,43.83209205],[39.7467609,43.83143941],[39.74639607,43.83069371],[39.74561377,43.83010635],[39.74527204,43.82941956],[39.74272078,43.82719001],[39.74212699,43.8269515],[39.74116748,43.82595278],[39.7403921,43.82546239],[39.73970963,43.82543476],[39.7375887,43.82433977],[39.73717996,43.82383668],[39.73664613,43.82398751],[39.73593636,43.82385536],[39.73494241,43.8231938],[39.73443931,43.82261173],[39.73369655,43.82227295],[39.7337551,43.82191673],[39.73115517,43.82163936],[39.72910749,43.82169302],[39.72764327,43.82099222],[39.72641794,43.82110165],[39.72500564,43.82086531],[39.72321126,43.8196929],[39.72192995,43.81936091],[39.7208443,43.81941918],[39.71882092,43.81972665],[39.71731837,43.8195262],[39.71571489,43.8189743],[39.71554366,43.81861345],[39.71452511,43.81771662],[39.71351977,43.8171326],[39.71256604,43.81696251],[39.71241973,43.81671333],[39.71383195,43.81611245],[39.714491,43.8154804],[39.71533105,43.81495699],[39.71478559,43.81446224],[39.71396123,43.81423482],[39.71261631,43.81438293],[39.71228785,43.81338167],[39.71094194,43.81298569],[39.70933423,43.81190359],[39.70860499,43.81092399],[39.70889808,43.81047727],[39.70870327,43.81005947],[39.70743009,43.80952989],[39.70667936,43.80983534],[39.70615955,43.80972044],[39.70482321,43.80878878],[39.70334272,43.80810791],[39.70261936,43.80743856],[39.70194692,43.80765845],[39.70091854,43.8073243],[39.69968589,43.80716365],[39.69897445,43.80676491],[39.69798206,43.80671799],[39.69693801,43.80646461],[39.69555605,43.80646817],[39.69464532,43.80623042],[39.69279255,43.80636608],[39.69212074,43.80663255],[39.68961852,43.80667083],[39.68985723,43.80581038],[39.69033438,43.80561257],[39.69007648,43.80511519],[39.68939853,43.8056092],[39.68787184,43.80606422],[39.68726079,43.80590647],[39.68631641,43.80595765],[39.68495059,43.80538749],[39.68462876,43.80401776],[39.68365964,43.80262006],[39.68291025,43.80242795],[39.68189694,43.80163932],[39.68106323,43.80210238],[39.68009657,43.80173571],[39.67880299,43.80152939],[39.67769441,43.80090546],[39.67684788,43.80197959],[39.67672774,43.80249041],[39.67717439,43.80328244],[39.67786447,43.80381615],[39.6795494,43.80447631],[39.6798875,43.80441731],[39.679553,43.804306],[39.67920582,43.80430533],[39.67783724,43.80375748],[39.67711191,43.80320048],[39.67665466,43.80244692],[39.67717434,43.80134317],[39.67623999,43.80092825],[39.67651546,43.8002063],[39.67596025,43.79950773],[39.67509,43.79868262],[39.67498349,43.79834142],[39.6756769,43.79746198],[39.67586668,43.79675673],[39.67441814,43.7968107],[39.67353934,43.79750118],[39.67248229,43.7985409],[39.67073298,43.79943984],[39.67048088,43.79929773],[39.671823,43.79827587],[39.67254009,43.79760596],[39.67312563,43.79660455],[39.67383664,43.79610287],[39.67502068,43.79567887],[39.67613494,43.79540994],[39.67622805,43.79465867],[39.67478028,43.79537244],[39.67355743,43.79552396],[39.67204383,43.79627387],[39.6720015,43.79681828],[39.67088801,43.79749681],[39.66964219,43.79792966],[39.67044478,43.79688306],[39.66885549,43.79747649],[39.66711152,43.79704104],[39.66612523,43.79670437],[39.66548439,43.79577046],[39.66510624,43.79609153],[39.6648429,43.79694949],[39.6638866,43.79754776],[39.66188106,43.79760232],[39.66088437,43.79741519],[39.66028091,43.7971394],[39.65936852,43.79723084],[39.65842284,43.7971546],[39.65924918,43.79667289],[39.6605281,43.79651118],[39.66326947,43.7967827],[39.66346426,43.79641786],[39.66327211,43.79567117],[39.66274781,43.79587859],[39.66186759,43.79504339],[39.66098652,43.79479085],[39.66167826,43.79388486],[39.66135516,43.79202669],[39.66267236,43.79164037],[39.66301051,43.79118721],[39.66388856,43.79070216],[39.66435135,43.79009115],[39.66595651,43.79004124],[39.66574864,43.79044342],[39.66611048,43.79069895],[39.66695388,43.79086171],[39.66661957,43.79192318],[39.66738295,43.79223118],[39.66799494,43.79293518],[39.66872932,43.79250375],[39.66903278,43.79211526],[39.66954658,43.79203494],[39.67000856,43.79141684],[39.67072819,43.79232806],[39.67110374,43.79230306],[39.67198753,43.79099128],[39.67199355,43.79041253],[39.67263566,43.7904468],[39.67321872,43.79010298],[39.6736798,43.78955993],[39.67522832,43.7891066],[39.67670483,43.78841422],[39.67793678,43.78822018],[39.6792234,43.78776164],[39.68010341,43.78718398],[39.68227983,43.78619639],[39.68271258,43.78583164],[39.68574198,43.78478357],[39.68671897,43.78460461],[39.68924254,43.7847688],[39.68998661,43.78445504],[39.69021516,43.78399389],[39.6912874,43.78357745],[39.69136606,43.78333356],[39.69270322,43.78283065],[39.69308775,43.78301486],[39.69537692,43.78190198],[39.69591506,43.7819612],[39.69654951,43.7817054],[39.69806104,43.78208105],[39.69866175,43.78167069],[39.69970263,43.78129672],[39.7002463,43.78145742],[39.70179544,43.78053467],[39.70300276,43.78092068],[39.70354194,43.78090301],[39.70382102,43.78019336],[39.70441374,43.77981305],[39.70504236,43.77853813],[39.70547135,43.77795654],[39.70564585,43.77728928],[39.70651129,43.77639079],[39.70640272,43.77519296],[39.70580459,43.77494752],[39.70385302,43.77539433],[39.70295853,43.7748975],[39.70353598,43.77465937],[39.70402479,43.77475],[39.70535002,43.77406212],[39.70628204,43.77424121],[39.70797919,43.77413258],[39.70831836,43.77453895],[39.70975549,43.77444069],[39.71018093,43.77370213],[39.71074039,43.77354737],[39.71072167,43.77239898],[39.71116375,43.77195921],[39.71273454,43.77195242],[39.71406271,43.77177302],[39.71415901,43.77148653],[39.7129575,43.77090972],[39.71229506,43.77085588],[39.71177991,43.77016325],[39.71106479,43.77025437],[39.71021207,43.76964835],[39.71089284,43.7694489],[39.71207816,43.76931718],[39.71313521,43.76901266],[39.71123917,43.7684313],[39.71062237,43.76844226],[39.71103962,43.76736512],[39.71069893,43.76669768],[39.70968626,43.76658928],[39.70844506,43.76602671],[39.70804663,43.76555657],[39.70697847,43.76513071],[39.7067217,43.76483583],[39.70562954,43.7644417],[39.70523737,43.76411852],[39.70393346,43.76371864],[39.70312136,43.76367458],[39.70254657,43.76267758],[39.70125398,43.76195904],[39.70092053,43.76145087],[39.70006743,43.76141028],[39.69988208,43.76084106],[39.6995082,43.76056219],[39.69851483,43.7603815],[39.69809903,43.75992308],[39.69848709,43.75926329],[39.69840115,43.7588371],[39.69793497,43.75855029],[39.69642106,43.75711767],[39.69621326,43.75648593],[39.69551686,43.75608616],[39.69550525,43.75563731],[39.69480331,43.754817],[39.69367105,43.75434803],[39.69289922,43.75297687],[39.69291595,43.75224975],[39.69368761,43.75137873],[39.69345682,43.75056867],[39.69256819,43.74974445],[39.69198688,43.74879715],[39.69153969,43.74845933],[39.69121368,43.74761565],[39.69034407,43.74673239],[39.68984799,43.74420278],[39.68942918,43.74369194],[39.68874943,43.74332249],[39.68829743,43.74244929],[39.68995083,43.74302127],[39.69044091,43.7433447],[39.69036549,43.74418691],[39.69084245,43.74524039],[39.69103166,43.74620822],[39.69144729,43.74633665],[39.69158344,43.74683391],[39.6924712,43.74795305],[39.69302593,43.74810112],[39.69400133,43.74872185],[39.6954294,43.74907861],[39.69736765,43.74898691],[39.69848127,43.74849353],[39.69980742,43.74833856],[39.69980903,43.74809988],[39.69821092,43.74721227],[39.69723049,43.7468535],[39.69731799,43.74665125],[39.69881333,43.74623018],[39.70051092,43.74617027],[39.70217784,43.74561943],[39.70419184,43.7436262],[39.70469939,43.74329258],[39.70702182,43.74320151],[39.70742916,43.74265022],[39.70809354,43.74229924],[39.70834831,43.74139149],[39.70890211,43.74049927],[39.70909291,43.73918479],[39.70859467,43.73847391],[39.70850185,43.73790415],[39.70782796,43.73746958],[39.70801862,43.737097],[39.70762892,43.73602058],[39.70649442,43.73546591],[39.70604942,43.7346143],[39.70538312,43.73464887],[39.70500193,43.73548802],[39.70504564,43.73634777],[39.70314266,43.73535687],[39.70302377,43.73476751],[39.70327763,43.73403431],[39.70232758,43.73326005],[39.70260749,43.73292337],[39.70327436,43.73296407],[39.70284928,43.73235875],[39.70365295,43.73177343],[39.70342282,43.73029863],[39.70355175,43.72992878],[39.70259411,43.72959311],[39.70412516,43.72837717],[39.7035575,43.72756585],[39.70260903,43.72659671],[39.70273762,43.72642215],[39.70145587,43.72551003],[39.70106367,43.72466174],[39.70040989,43.72451447],[39.69924558,43.72487879],[39.69864174,43.72475197],[39.69532714,43.72523891],[39.69468974,43.72497524],[39.69503173,43.72411958],[39.69478925,43.72362545],[39.69391631,43.72322657],[39.69380704,43.72281872],[39.69406256,43.7223033],[39.69373341,43.7217805],[39.6937078,43.72016648],[39.69337671,43.71962866],[39.69223524,43.71846242],[39.6906169,43.71804304],[39.6904993,43.71771652],[39.6910801,43.71657971],[39.69098231,43.71604963],[39.68940043,43.71447041],[39.68936014,43.7139996],[39.68992608,43.71314995],[39.6895319,43.71251856],[39.68876329,43.71221032],[39.68796934,43.71154569],[39.68870342,43.71139932],[39.69063596,43.71068385],[39.69078276,43.71008084],[39.69064561,43.70922287],[39.69009322,43.70868715],[39.68896799,43.70843669],[39.68915466,43.70847866],[39.69008934,43.70858383],[39.69066836,43.70914409],[39.69077352,43.71007737],[39.69063431,43.71067978],[39.68858238,43.71135012],[39.68771965,43.71138939],[39.68767416,43.71030538],[39.68665547,43.70988202],[39.68559643,43.70974992],[39.68501927,43.7094471],[39.68288077,43.70891851],[39.68273026,43.70865035],[39.68189269,43.70817184],[39.68178476,43.70787354],[39.68107619,43.707612],[39.68112537,43.70656137],[39.67963355,43.70603377],[39.67888986,43.70527244],[39.67821491,43.70522296],[39.67752502,43.70546666],[39.67780299,43.70595864],[39.67761599,43.70659889],[39.67704483,43.70677732],[39.67588516,43.70582629],[39.67510757,43.70494561],[39.67512124,43.70392373],[39.67488026,43.70257462],[39.67581605,43.70166283],[39.67596018,43.70124139],[39.67662904,43.70074984],[39.67704695,43.69928618],[39.67703069,43.69753682],[39.67730273,43.6967445],[39.67693793,43.69637231],[39.67658987,43.69499989],[39.67664661,43.69414849],[39.67639724,43.69321527],[39.6756075,43.69232445],[39.67584632,43.69184663],[39.67578395,43.69091133],[39.67611628,43.69018469],[39.67584628,43.68957819],[39.67375511,43.6886479],[39.67252499,43.68822677],[39.67162961,43.68805303],[39.67117252,43.6883823],[39.67006322,43.68782208],[39.66935296,43.68731853],[39.66959186,43.68708521],[39.67057385,43.68717428],[39.67069818,43.68681554],[39.6695931,43.68565859],[39.66963803,43.68518732],[39.66900003,43.68387945],[39.66913755,43.68352156],[39.66848548,43.68260843],[39.66806414,43.68238482],[39.66856647,43.68148683],[39.66791259,43.68117825],[39.66797055,43.68055783],[39.66759001,43.6798637],[39.66783397,43.67955416],[39.66744983,43.67878979],[39.66690177,43.67840303],[39.66668517,43.67915234],[39.66597594,43.67973588],[39.66486671,43.67967071],[39.66436275,43.67919273],[39.66415608,43.67864369],[39.663375,43.67858354],[39.6619525,43.678827],[39.66089983,43.67878408],[39.66026625,43.67908619],[39.65880942,43.67952469],[39.65806502,43.67961679],[39.65862699,43.67867335],[39.65872448,43.67772635],[39.65856099,43.67719791],[39.65794488,43.6767685],[39.65748953,43.67586485],[39.65667715,43.67576759],[39.65659176,43.67369089],[39.65623067,43.67343502],[39.65598166,43.67137115],[39.65559081,43.67000121],[39.65615676,43.66831042],[39.65591746,43.66696054],[39.65484427,43.66589599],[39.65453422,43.66472107],[39.65376713,43.66439133],[39.65320036,43.6637313],[39.65313742,43.66324276],[39.65211578,43.66152377],[39.65257546,43.66087141],[39.65254984,43.66029326],[39.65200523,43.65928132],[39.65136923,43.65863033],[39.65192503,43.65800281],[39.65234981,43.65673605],[39.6529486,43.65477623],[39.65290495,43.65424711],[39.6515262,43.65215429],[39.65084808,43.65226787],[39.64960185,43.65294413],[39.64851089,43.65249678],[39.64746824,43.6531591],[39.64586539,43.65365588],[39.64526098,43.65407288],[39.64263121,43.65478004]]},"properties":{"name":"Track"}}
]}